FID,id,rbd,letra,numero,direcc_cal,direcc_num,of_piso,comuna,telefono,dependenci,precio,predio_m2,edificacio,directivos,profesores,administra,tecnicos,auxiliares,personal_t,pasetotal,paselibre,furgontota,furgonacre,sitios,matriculaj,almuerzoju,rinden_sim,rinden_paa,menosde5,de6a13,de14a17,masde18,fuente,prebasica,basica,media,superior,otra,privado,bespecial,bprebasica,bbasica,bh_c,bcomercial,bindustria,btecnica,bcft,bip,bu,badulto,botra,rbd_d,localidad,clase,coord_x,coord_y,provincial,layer,nombre,direccion,tipo
1, , , , , ,0, ,SANTIAGO,0,0,0,0,0,0,0,0,0,0,0,0,0,0,0,0,0,0,0,0,0,0,0,0,0,0,0,0,0,0,0,0,0,0,0,0,0,0,0,0,0,0,0, , , ,0,0, , ,NEMESIO ANTUNEZ,2185 WALDO SILVA,SALA CUNA
2, , , , , ,0, ,SANTIAGO,0,0,0,0,0,0,0,0,0,0,0,0,0,0,0,0,0,0,0,0,0,0,0,0,0,0,0,0,0,0,0,0,0,0,0,0,0,0,0,0,0,0,0, , , ,0,0, , ,PABLO NERUDA,2722 GRAL RONDIZZONI,SALA CUNA
3, , , , , ,0, ,SANTIAGO,0,0,0,0,0,0,0,0,0,0,0,0,0,0,0,0,0,0,0,0,0,0,0,0,0,0,0,0,0,0,0,0,0,0,0,0,0,0,0,0,0,0,0, , , ,0,0, , ,SOR TERESA DE LOS ANDES,1650 JUAN VICUNA,SALA CUNA
4, , , , , ,0, ,BUIN,0,0,0,0,0,0,0,0,0,0,0,0,0,0,0,0,0,0,0,0,0,0,0,0,0,0,0,0,0,0,0,0,0,0,0,0,0,0,0,0,0,0,0, , , ,0,0, , ,CENTRO DESARROLLO INFANTIL TEMPRANO,584 CLEMENTE DIAZ,SALA CUNA
5, , , , , ,0, ,BUIN,0,0,0,0,0,0,0,0,0,0,0,0,0,0,0,0,0,0,0,0,0,0,0,0,0,0,0,0,0,0,0,0,0,0,0,0,0,0,0,0,0,0,0, , , ,0,0, , ,GRANITOS DE ARENA,461 NUEVO BUIN,SALA CUNA
6, , , , , ,0, ,BUIN,0,0,0,0,0,0,0,0,0,0,0,0,0,0,0,0,0,0,0,0,0,0,0,0,0,0,0,0,0,0,0,0,0,0,0,0,0,0,0,0,0,0,0, , , ,0,0, , ,LAS PALMAS,245 SAN MARTIN,SALA CUNA
7, , , , , ,0, ,CONCHALI,0,0,0,0,0,0,0,0,0,0,0,0,0,0,0,0,0,0,0,0,0,0,0,0,0,0,0,0,0,0,0,0,0,0,0,0,0,0,0,0,0,0,0, , , ,0,0, , ,CENTRO DESARROLLO INFANTIL TEMPRANO,GAMBINO CON ZAPADORES,SALA CUNA
8, , , , , ,0, ,CONCHALI,0,0,0,0,0,0,0,0,0,0,0,0,0,0,0,0,0,0,0,0,0,0,0,0,0,0,0,0,0,0,0,0,0,0,0,0,0,0,0,0,0,0,0, , , ,0,0, , ,CENTRO DESARROLLO INFANTIL TEMPRANO,3586 MAR DE ANTILLAS,SALA CUNA
9, , , , , ,0, ,EL BOSQUE,0,0,0,0,0,0,0,0,0,0,0,0,0,0,0,0,0,0,0,0,0,0,0,0,0,0,0,0,0,0,0,0,0,0,0,0,0,0,0,0,0,0,0, , , ,0,0, , ,LAS PALMAS I,1134 AVIADORES,SALA CUNA
10, , , , , ,0, ,ESTACION CENTRAL,0,0,0,0,0,0,0,0,0,0,0,0,0,0,0,0,0,0,0,0,0,0,0,0,0,0,0,0,0,0,0,0,0,0,0,0,0,0,0,0,0,0,0, , , ,0,0, , ,CENTRO DE DESARROLLO INFANTIL TEMPRANO,604 AEROPUERTO,SALA CUNA
11, , , , , ,0, ,HUECHURABA,0,0,0,0,0,0,0,0,0,0,0,0,0,0,0,0,0,0,0,0,0,0,0,0,0,0,0,0,0,0,0,0,0,0,0,0,0,0,0,0,0,0,0, , , ,0,0, , ,BETTEMBURGO,5858 PREMIO NOBEL,SALA CUNA
12, , , , , ,0, ,LA PINTANA,0,0,0,0,0,0,0,0,0,0,0,0,0,0,0,0,0,0,0,0,0,0,0,0,0,0,0,0,0,0,0,0,0,0,0,0,0,0,0,0,0,0,0, , , ,0,0, , ,EJERCITO DE SALVACION ARCA DE NOE,13682 EL FUNDADOR,SALA CUNA
13, , , , , ,0, ,LA PINTANA,0,0,0,0,0,0,0,0,0,0,0,0,0,0,0,0,0,0,0,0,0,0,0,0,0,0,0,0,0,0,0,0,0,0,0,0,0,0,0,0,0,0,0, , , ,0,0, , ,SANTO TOMAS,10580 REYES CATOLICOS,SALA CUNA
14, , , , , ,0, ,LO ESPEJO,0,0,0,0,0,0,0,0,0,0,0,0,0,0,0,0,0,0,0,0,0,0,0,0,0,0,0,0,0,0,0,0,0,0,0,0,0,0,0,0,0,0,0, , , ,0,0, , ,CENTRO DESARROLLO INFANTIL TEMPRANO,8077 PIO XII,SALA CUNA
15, , , , , ,0, ,MACUL,0,0,0,0,0,0,0,0,0,0,0,0,0,0,0,0,0,0,0,0,0,0,0,0,0,0,0,0,0,0,0,0,0,0,0,0,0,0,0,0,0,0,0, , , ,0,0, , ,SALA CUNA LICEO A 48,3130 LOS PLATANOS,SALA CUNA
16,56,24462 7, ,56,MATEO TORO Y ZAMBRANO,715,1,TALAGANTE,8152453,4,0,0,0,0,0,0,0,0,0,0,0,0,0,0,0,0,0,0,0,0,0,0,0,0,0,0,0,0,0,0,0,0,0,0,0,0,0,0,0,0,0,24462 7,TALAGANTE,PREBASICA,321846.06433,6274003.70077,PROVINCIAL TALAGANTE,PREBASICA,LAS BRUJITAS,715 MATEO TORO Y ZAMBRANO,JARDIN INFANTIL
17, , , , , ,0, ,PAINE,0,0,0,0,0,0,0,0,0,0,0,0,0,0,0,0,0,0,0,0,0,0,0,0,0,0,0,0,0,0,0,0,0,0,0,0,0,0,0,0,0,0,0, , , ,0,0, , ,CANDES,444 CALLE BUIN,SALA CUNA
18, , , , , ,0, ,PAC,0,0,0,0,0,0,0,0,0,0,0,0,0,0,0,0,0,0,0,0,0,0,0,0,0,0,0,0,0,0,0,0,0,0,0,0,0,0,0,0,0,0,0, , , ,0,0, , ,CENTRO DESARROLLO INFANTIL TEMPRANO,6041 COOPERACION,SALA CUNA
19, , , , , ,0, ,PUENTE ALTO,0,0,0,0,0,0,0,0,0,0,0,0,0,0,0,0,0,0,0,0,0,0,0,0,0,0,0,0,0,0,0,0,0,0,0,0,0,0,0,0,0,0,0, , , ,0,0, , ,SAN FRANCISCO EL TRONCAL,2175 BORDE SUR,SALA CUNA
20, , , , , ,0, ,PUENTE ALTO,0,0,0,0,0,0,0,0,0,0,0,0,0,0,0,0,0,0,0,0,0,0,0,0,0,0,0,0,0,0,0,0,0,0,0,0,0,0,0,0,0,0,0, , , ,0,0, , ,ANDES DEL SUR,1265 MARTIN PESCADOR,SALA CUNA
21, , , , , ,0, ,PUENTE ALTO,0,0,0,0,0,0,0,0,0,0,0,0,0,0,0,0,0,0,0,0,0,0,0,0,0,0,0,0,0,0,0,0,0,0,0,0,0,0,0,0,0,0,0, , , ,0,0, , ,JUANITA,1550 GLINCA,SALA CUNA
22, , , , , ,0, ,PUENTE ALTO,0,0,0,0,0,0,0,0,0,0,0,0,0,0,0,0,0,0,0,0,0,0,0,0,0,0,0,0,0,0,0,0,0,0,0,0,0,0,0,0,0,0,0, , , ,0,0, , ,NOCEDAL III,1021 VALLE CENTRAL,SALA CUNA
23, , , , , ,0, ,QUILICURA,0,0,0,0,0,0,0,0,0,0,0,0,0,0,0,0,0,0,0,0,0,0,0,0,0,0,0,0,0,0,0,0,0,0,0,0,0,0,0,0,0,0,0, , , ,0,0, , ,AMANECER,570 LO CRUZAT,SALA CUNA
24, , , , , ,0, ,RECOLETA,0,0,0,0,0,0,0,0,0,0,0,0,0,0,0,0,0,0,0,0,0,0,0,0,0,0,0,0,0,0,0,0,0,0,0,0,0,0,0,0,0,0,0, , , ,0,0, , ,JUANITA SOLAR  COLEGIO JUAN FERNANDEZ,583 JUSTICIA SOCIAL,SALA CUNA
25, , , , , ,0, ,RENCA,0,0,0,0,0,0,0,0,0,0,0,0,0,0,0,0,0,0,0,0,0,0,0,0,0,0,0,0,0,0,0,0,0,0,0,0,0,0,0,0,0,0,0, , , ,0,0, , ,KAIROS,4835 JOSE MIGUEL INFANTE,SALA CUNA
26, , , , , ,0, ,SAN BERNARDO,0,0,0,0,0,0,0,0,0,0,0,0,0,0,0,0,0,0,0,0,0,0,0,0,0,0,0,0,0,0,0,0,0,0,0,0,0,0,0,0,0,0,0, , , ,0,0, , ,CENTRO DESARROLLO INFANTIL TEMPRANO,13737 INCAHUASI,SALA CUNA
27, , , , , ,0, ,SAN BERNARDO,0,0,0,0,0,0,0,0,0,0,0,0,0,0,0,0,0,0,0,0,0,0,0,0,0,0,0,0,0,0,0,0,0,0,0,0,0,0,0,0,0,0,0, , , ,0,0, , ,CENTRO DESARROLLO INFANTIL TEMPRANO,13451 PASO DRAKE,SALA CUNA
28, , , , , ,0, ,EL BOSQUE,0,0,0,0,0,0,0,0,0,0,0,0,0,0,0,0,0,0,0,0,0,0,0,0,0,0,0,0,0,0,0,0,0,0,0,0,0,0,0,0,0,0,0, , , ,0,0, , ,LAS PALMAS II,10007 CAMINOS DE CHILE,SALA CUNA
29, , , , , ,0, ,PENALOLEN,0,0,0,0,0,0,0,0,0,0,0,0,0,0,0,0,0,0,0,0,0,0,0,0,0,0,0,0,0,0,0,0,0,0,0,0,0,0,0,0,0,0,0, , , ,0,0, , ,DREAMLAND,7752 LOS PRESIDENTES,JARDIN INFANTIL Y SALA CUNA
30, , , , , ,0, ,ESTACION CENTRAL,0,0,0,0,0,0,0,0,0,0,0,0,0,0,0,0,0,0,0,0,0,0,0,0,0,0,0,0,0,0,0,0,0,0,0,0,0,0,0,0,0,0,0, , , ,0,0, , ,GIRASOL LTDA.,4848 LIBER BERNARDO O HIGGINS,JARDIN INFANTIL
31,57,24463 5, , ,EL CORREGIDOR,356,2,TALAGANTE,0,4,0,0,0,0,0,0,0,0,0,0,0,0,0,0,0,0,0,0,0,0,0,0,0,0,0,0,0,0,0,0,0,0,0,0,0,0,0,0,0,0,0,24463 5,TALAGANTE,PREBASICA,321895.67414,6273956.49461,PROVINCIAL TALAGANTE,PREBASICA,LOS ENANITOS DE TALAGANTE,356 EL CORREGIDOR,JARDIN INFANTIL
32,116,24490 2, ,60,21 DE MAYO,3840,1,PENAFLOR,8121088,4,0,0,0,0,0,0,0,0,0,0,0,0,0,0,0,0,0,0,0,0,0,0,0,0,0,0,0,0,0,0,1,0,0,0,0,0,0,0,0,0,0,24490 2,PENAFLOR,PREBASICA,324410.18926,6279942.51281,PROVINCIAL TALAGANTE,PREBASICA,CAPULLO,3840 21 DE MAYO,JARDIN INFANTIL
33,119,24493 7, ,61,BILBAO,211,1,PENAFLOR,8121162,4,0,0,0,0,0,0,0,0,0,0,0,0,0,0,0,0,0,0,0,0,0,0,0,0,0,0,0,0,0,0,1,0,0,0,0,0,0,0,0,0,0,24493 7,PENAFLOR,PREBASICA,326085.61206,6280635.0209,PROVINCIAL TALAGANTE,PREBASICA,BERNADETTE SOUBIROUS,211 BILBAO,JARDIN INFANTIL
34,121,24707 3, ,42,MARIANO LATORRE,49,1,PENAFLOR,0,3,0,0,0,0,0,0,0,0,0,0,0,0,0,0,39,0,0,0,0,0,0,0,0,0,0,0,0,0,0,0,1,0,0,0,0,0,0,0,0,0,0,24707 3,PENAFLOR,PREBASICA,325906.90029,6279328.19112,PROVINCIAL TALAGANTE,PREBASICA,MALLOCO  ANEXO,49 MARIANO LATORRE,JARDIN INFANTIL
35,136,24785 5, ,86,18 DE SEPTIEMBRE,178,1,PAINE,0,4,0,0,0,0,0,0,0,0,0,0,0,0,0,0,0,0,0,0,0,0,0,0,0,0,0,0,0,0,0,0,1,0,0,0,0,0,0,0,0,0,0,24785 5,PAINE,PREBASICA,339794.86302,6257878.69635,PROVINCIAL SUR,PREBASICA,SEMILITA,178 18 DE SEPTIEMBRE,JARDIN INFANTIL
36,147,10000014, , ,GUILLERMO SAAVEDRA,5479, ,ESTACION CENTRAL,7413599,7,200,0,4,1,0,0,12,2,15,0,0,4,0,0,0,0,0,0,154,0,0,0,3,154,0,0,0,0,0,0,1,0,0,0,0,0,0,0,0,0,0,10000014,SANTIAGO,PREBASICA,340640.56633,6294765.4578,PROVINCIAL PONIENTE,PREBASICA,C.A. L.MANZOR V.,5479 GUILLERMO SAAVEDRA,SALA CUNA
37,148,10000177, , ,LAS ESTEPAS,707, ,ESTACION CENTRAL,7421652,6,2750,0,5.94,1,3,0,10,4,18,0,0,0,0,0,0,0,0,0,205,0,0,0,3,205,0,0,0,0,0,0,1,0,0,0,0,0,0,0,0,0,0,10000177,SANTIAGO,PREBASICA,340792.79085,6295259.35078,PROVINCIAL PONIENTE,PREBASICA,JARDIN DEL EDEN,707 LAS ESTEPAS,JARDIN INFANTIL
38,149,10000176, , ,DALCAHUE,5877, ,ESTACION CENTRAL,7422318,6,3200,1925,3.24,1,2,0,5,1,9,0,0,0,0,0,0,0,0,0,143,0,0,0,3,143,0,0,0,0,0,0,1,0,0,0,0,0,0,0,0,0,0,10000176,SANTIAGO,PREBASICA,341225.76301,6294679.58032,PROVINCIAL PONIENTE,PREBASICA,SEMILLITA,5877 DALCAHUE,JARDIN INFANTIL
39,150,10000175, , ,GUADAL,932, ,ESTACION CENTRAL,0,6,3300,2500,2.2,1,1,0,4,1,7,0,0,0,0,1,0,0,0,0,113,0,0,0,3,113,0,0,0,0,0,0,1,0,0,0,0,0,0,0,0,0,0,10000175,SANTIAGO,PREBASICA,341771.3836,6295919.80174,PROVINCIAL PONIENTE,PREBASICA,ANTILEN,932 GUADAL,SALA CUNA
40,151,10000182, , ,LUIS CRUZ MARTINEZ,4385, ,ESTACION CENTRAL,7796014,6,3300,0,0,1,1,0,4,1,7,0,0,0,0,0,0,0,0,0,96,0,0,0,3,96,0,0,0,0,0,0,1,0,0,0,0,0,0,0,0,0,0,10000182,SANTIAGO,PREBASICA,342682.8088,6294789.4471,PROVINCIAL PONIENTE,PREBASICA,SEMILLITA,4385 LUIS CRUZ MARTINEZ,JARDIN INFANTIL
41,152,10000178, , ,MANUEL CHACON,2229, ,ESTACION CENTRAL,6837141,6,5000,1160,3.42,1,3,0,7,3,14,0,0,0,0,0,0,0,0,0,150,0,0,0,3,150,0,0,0,0,0,0,1,0,0,0,0,0,0,0,0,0,0,10000178,SANTIAGO,PREBASICA,342938.34676,6294659.63532,PROVINCIAL PONIENTE,PREBASICA,MIS PRIMEROS PASOS,2229 MANUEL CHACON,JARDIN INFANTIL
42,153,10000180, , ,FERROCARRIL,4101, ,ESTACION CENTRAL,7795378,6,3300,729,2.02,1,1,0,4,1,7,0,0,0,0,0,0,0,0,0,104,0,0,0,3,104,0,0,0,0,0,0,1,0,0,0,0,0,0,0,0,0,0,10000180,SANTIAGO,PREBASICA,343074.68835,6294822.99818,PROVINCIAL PONIENTE,PREBASICA,NUESTRO MUNDO,4101 FERROCARRIL,JARDIN INFANTIL Y SALA CUNA
43,154,10000013, , ,LOS JAZMINEZ,6090, ,ESTACION CENTRAL,7764860,7,0,0,3.38,1,1,0,9,2,13,0,0,0,0,0,0,0,0,0,152,0,0,0,3,152,0,0,0,0,0,0,1,0,0,0,0,0,0,0,0,0,0,10000013,SANTIAGO,PREBASICA,341568.7488,6296249.04623,PROVINCIAL PONIENTE,PREBASICA,C.A. MARIA SARA,6090 LOS JAZMINEZ,SALA CUNA
44,155,10000173, , ,LAS ENCINAS,97, ,ESTACION CENTRAL,6811274,6,250,0,0,1,1,0,6,2,10,0,0,0,0,0,0,0,0,0,120,0,0,0,3,120,0,0,0,0,0,0,1,0,0,0,0,0,0,0,0,0,0,10000173,SANTIAGO,PREBASICA,343145.7914,6297961.37615,PROVINCIAL PONIENTE,PREBASICA,VILLA PORTALES,97 LAS ENCINAS,JARDIN INFANTIL Y SALA CUNA
45,156,10000012, , ,LA UNION,3485, ,ESTACION CENTRAL,6831017,7,0,450,1.72,1,1,0,4,1,7,0,0,0,0,0,0,0,0,0,68,0,0,0,3,68,0,0,0,0,0,0,1,0,0,0,0,0,0,0,0,0,0,10000012,SANTIAGO,PREBASICA,343581.99231,6294782.49699,PROVINCIAL PONIENTE,PREBASICA,GUILLERMO PERRY,3485 LA UNION,JARDIN INFANTIL
46,157,10000179, , ,JOTABECHE,594, ,ESTACION CENTRAL,7761039,6,3000,0,0,1,1,0,3,2,7,0,0,0,0,4,0,0,0,0,58,0,0,0,3,58,0,0,0,0,0,0,1,0,0,0,0,0,0,0,0,0,0,10000179,SANTIAGO,PREBASICA,343420.23354,6296581.77139,PROVINCIAL PONIENTE,PREBASICA,JARDIN INFANTIL ESPERANZA,594 JOTABECHE,JARDIN INFANTIL Y SALA CUNA
47,158,10000019, , ,DIAG RENY,1613, ,CERRO NAVIA,6431760,7,1600,3312,6.12,1,0,0,9,9,19,0,0,2,0,2,0,0,0,0,181,0,0,0,3,181,0,0,0,0,0,0,1,0,0,0,0,0,0,0,0,0,0,10000019,SANTIAGO,PREBASICA,336820.16016,6300804.95,PROVINCIAL PONIENTE,PREBASICA,HEROES DE LA CONCEPCION,1613 DIAG RENY,SALA CUNA
48,159,10000167, , ,EL ARROYO,1734, ,CERRO NAVIA,0,6,0,2400,2.76,1,1,0,4,1,7,0,0,0,0,0,0,0,0,0,112,0,0,0,3,112,0,0,0,0,0,0,1,0,0,0,0,0,0,0,0,0,0,10000167,SANTIAGO,PREBASICA,336787.55471,6301250.47903,PROVINCIAL PONIENTE,PREBASICA,PEQUENAS ILUSIONES,1734 EL ARROYO,JARDIN INFANTIL
49,160,10000163, , ,ROLANDO PETERSEN,1806, ,CERRO NAVIA,0,6,300,2976,4.62,1,3,0,12,6,22,0,0,0,0,0,0,0,0,0,188,0,0,0,3,188,0,0,0,0,0,0,1,0,0,0,0,0,0,0,0,0,0,10000163,SANTIAGO,PREBASICA,337618.24413,6301556.53965,PROVINCIAL PONIENTE,PREBASICA,FANTASIA,1806 ROLANDO PETERSEN,JARDIN INFANTIL
50,161,10000161, , ,LA CAPILLA,7296, ,CERRO NAVIA,6431855,6,250,0,0,1,4,0,7,3,15,0,0,0,0,0,0,0,0,0,189,0,0,0,3,189,0,0,0,0,0,0,1,0,0,0,0,0,0,0,0,0,0,10000161,SANTIAGO,PREBASICA,338451.43643,6301379.75963,PROVINCIAL PONIENTE,PREBASICA,LAS ROSAS,7296 LA CAPILLA,JARDIN INFANTIL
51,162,10000166, , ,GALO GONZALEZ,1520, ,CERRO NAVIA,6490246,6,4300,655,2.17,1,1,0,1,4,7,0,0,0,0,0,0,0,0,0,78,0,0,0,3,78,0,0,0,0,0,0,1,0,0,0,0,0,0,0,0,0,0,10000166,SANTIAGO,PREBASICA,338607.54531,6300263.15,PROVINCIAL PONIENTE,PREBASICA,BAMBI,1520 GALO GONZALEZ,JARDIN INFANTIL
52,163,10000020, , ,LUIS HERRERO,7003, ,CERRO NAVIA,6432576,7,0,1237,2.59,1,0,0,7,5,13,0,0,0,0,0,0,0,0,0,149,0,0,0,3,149,0,0,0,0,0,0,1,0,0,0,0,0,0,0,0,0,0,10000020,SANTIAGO,PREBASICA,339060.48438,6300228.5625,PROVINCIAL PONIENTE,PREBASICA,C.A. LOS ANGELITOS,7003 LUIS HERRERO,SALA CUNA
53,164,10000022, , ,2 DE ENERO,2339, ,CERRO NAVIA,7757057,7,0,0,0,1,0,0,6,3,10,0,0,0,0,0,0,0,0,0,95,0,0,0,3,95,0,0,0,0,0,0,1,0,0,0,0,0,0,0,0,0,0,10000022,SANTIAGO,PREBASICA,339577.00586,6301477.17894,PROVINCIAL PONIENTE,PREBASICA,C.A. SAN JORGE,2339 2 DE ENERO,SALA CUNA
54,165,10000168, , ,LAS VIOLETAS,1118, ,CERRO NAVIA,7759838,6,3000,3924,7,1,2,0,5,1,9,0,0,0,0,0,0,0,0,0,133,0,0,0,3,133,0,0,0,0,0,0,1,0,0,0,0,0,0,0,0,0,0,10000168,SANTIAGO,PREBASICA,339530.57299,6299059.47422,PROVINCIAL PONIENTE,PREBASICA,LOS PQUES,1118 LAS VIOLETAS,JARDIN INFANTIL Y SALA CUNA
55,166,10000170, , ,GANIMEDES,7471, ,CERRILLOS,5333044,6,2500,10000,5,1,5,0,15,6,27,0,0,3,0,1,0,0,0,0,243,0,0,0,3,243,0,0,0,0,0,0,1,0,0,0,0,0,0,0,0,0,0,10000170,SANTIAGO,PREBASICA,339204.10572,6292007.40406,PROVINCIAL PONIENTE,PREBASICA,LAS TORRES,7471 GANIMEDES,JARDIN INFANTIL
56,167,10000007, , ,VARGAS SALCEDO,747, ,CERRILLOS,5383364,7,0,448,1.76,0,1,0,1,5,7,0,0,7,0,0,0,0,0,0,73,0,0,0,3,73,0,0,0,0,0,0,1,0,0,0,0,0,0,0,0,0,0,10000007,SANTIAGO,PREBASICA,340096.98437,6291675.41875,PROVINCIAL PONIENTE,PREBASICA,C.A. CAROLITA,747 VARGAS SALCEDO,SALA CUNA
57,168,10000172, , ,ROSA ESTER RODRIGUEZ,7077, ,CERRILLOS,7417768,6,3750,378,0,1,3,0,13,2,19,0,0,0,0,0,0,0,0,0,256,0,0,0,3,256,0,0,0,0,0,0,1,0,0,0,0,0,0,0,0,0,0,10000172,SANTIAGO,PREBASICA,339852.95497,6293143.97841,PROVINCIAL PONIENTE,PREBASICA,MI REFUGIO,7077 ROSA ESTER RODRIGUEZ,JARDIN INFANTIL Y SALA CUNA
58,169,10000162, , ,SIBERIA,6760, ,CERRO NAVIA,7732032,6,2750,2720,9.6,1,2,0,7,1,11,0,0,0,0,0,0,0,0,0,182,0,0,0,3,182,0,0,0,0,0,0,1,0,0,0,0,0,0,0,0,0,0,10000162,SANTIAGO,PREBASICA,339410.97526,6301195.96673,PROVINCIAL PONIENTE,PREBASICA,RELMU,6760 SIBERIA,JARDIN INFANTIL Y SALA CUNA
59,170,10000164, , ,PROFE DARIO SALAZAR,1550, ,CERRO NAVIA,0,6,3300,2600,8.93,1,5,0,15,7,28,0,0,0,0,0,0,0,0,0,276,0,0,0,3,276,0,0,0,0,0,0,1,0,0,0,0,0,0,0,0,0,0,10000164,SANTIAGO,PREBASICA,337794.35867,6300819.42108,PROVINCIAL PONIENTE,PREBASICA,BURBUJITAS,1550 PROFE DARIO SALAZAR,JARDIN INFANTIL
60,171,10000165, , ,RIO DOURO LA ESTRELLA,0, ,CERRO NAVIA,6446646,6,3000,0,0,1,4,0,1,2,8,0,0,0,0,0,0,0,0,0,240,0,0,0,3,240,0,0,0,0,0,0,1,0,0,0,0,0,0,0,0,0,0,10000165,SANTIAGO,PREBASICA,337097.57845,6300932,PROVINCIAL PONIENTE,PREBASICA,HEIDI,RIO DURO LA ESTRELLA,JARDIN INFANTIL Y SALA CUNA
61,172,10000021, , ,LA CAPILLA,8415, ,CERRO NAVIA,6455072,7,2500,2675,5.53,1,0,0,9,13,23,0,0,0,0,0,0,0,0,0,183,0,0,0,3,183,0,0,0,0,0,0,1,0,0,0,0,0,0,0,0,0,0,10000021,SANTIAGO,PREBASICA,336213.54824,6301407.32729,PROVINCIAL PONIENTE,PREBASICA,C.A. CARRUSEL,8415 LA CAPILLA,SALA CUNA
62,173,10000011, , ,JOTABECHE,105, ,ESTACION CENTRAL,0,7,0,198,1.4,1,1,0,4,3,9,0,0,0,0,0,0,0,0,0,78,0,0,0,3,78,0,0,0,0,0,0,1,0,0,0,0,0,0,0,0,0,0,10000011,SANTIAGO,PREBASICA,343395.88392,6297106.93436,PROVINCIAL PONIENTE,PREBASICA,C.A. AMANDA,105 JOTABECHE,SALA CUNA
63,174,10000174, , ,JOSE DE RIVERA & BUZO SOBEN,0, ,ESTACION CENTRAL,7793518,6,3300,990,1.9,1,1,0,4,1,7,0,0,0,0,0,0,0,0,0,107,0,0,0,3,107,0,0,0,0,0,0,1,0,0,0,0,0,0,0,0,0,0,10000174,SANTIAGO,PREBASICA,341449.04484,6297683.5732,PROVINCIAL PONIENTE,PREBASICA,LLIU LLIU,JOSE DE RIVERA & BUZO SOBENES,JARDIN INFANTIL
64,175,10000226, , ,SERRANO,1358, ,PUDAHUEL,6435879,6,2500,1400,3.42,1,0,0,11,1,16,0,0,0,0,0,0,0,0,0,210,0,0,0,3,210,0,0,0,0,0,0,1,0,0,0,0,0,0,0,0,0,0,10000226,SANTIAGO,PREBASICA,335822.31899,6299267.44348,PROVINCIAL PONIENTE,PREBASICA,LOS CARINOSITOS,1358 SERRANO,JARDIN INFANTIL Y SALA CUNA
65,176,10000017, , ,FEDERICO ERRAZURIZ,788, ,PUDAHUEL,6451242,7,3000,1400,4.5,1,0,0,9,11,21,0,0,0,0,1,0,0,0,0,169,0,0,0,3,169,0,0,0,0,0,0,1,0,0,0,0,0,0,0,0,0,0,10000017,SANTIAGO,PREBASICA,336080.11144,6298337.80047,PROVINCIAL PONIENTE,PREBASICA,LOS TOTORALES,788 FEDERICO ERRAZURIZ,SALA CUNA
66,177,10000230, , ,LOS MONTES,1216, ,PUDAHUEL,6454004,6,3300,0,0,0,0,0,3,1,5,0,0,0,0,0,0,0,0,0,71,0,0,0,3,71,0,0,0,0,0,0,1,0,0,0,0,0,0,0,0,0,0,10000230,SANTIAGO,PREBASICA,336371.0291,6299219.18325,PROVINCIAL PONIENTE,PREBASICA,LOS LEONCITOS,1216 LOS MONTES,JARDIN INFANTIL
67,178,10000232, , ,LAS TRANQUERAS,1296, ,PUDAHUEL,6432439,6,1800,650,2.24,1,0,0,3,1,5,0,0,0,0,1,0,0,0,0,74,0,0,0,3,74,0,0,0,0,0,0,1,0,0,0,0,0,0,0,0,0,0,10000232,SANTIAGO,PREBASICA,336438.44565,6299493.9279,PROVINCIAL PONIENTE,PREBASICA,LOS PITUFOS,1296 LAS TRANQUERAS,JARDIN INFANTIL Y SALA CUNA
68,179,10000227, , ,VICTORIA,830, ,PUDAHUEL,6435880,6,2500,3500,3.2,1,0,0,12,6,22,0,0,0,0,1,0,0,0,0,205,0,0,0,3,205,0,0,0,0,0,0,1,0,0,0,0,0,0,0,0,0,0,10000227,SANTIAGO,PREBASICA,336637.69609,6298398.725,PROVINCIAL PONIENTE,PREBASICA,LOS CACHORRITOS,930 VICTORIA,JARDIN INFANTIL Y SALA CUNA
69,180,10000233, , ,LAS CADENAS,8943, ,PUDAHUEL,0,6,3300,0,0,0,0,0,3,1,5,0,0,0,0,0,0,0,0,0,83,0,0,0,3,83,0,0,0,0,0,0,1,0,0,0,0,0,0,0,0,0,0,10000233,SANTIAGO,PREBASICA,336600.16669,6298960.04703,PROVINCIAL PONIENTE,PREBASICA,LOS PATITOS,8943 LAS CADENAS,JARDIN INFANTIL
70,181,10000231, , ,LOS CERCOS,1226, ,PUDAHUEL,0,6,3000,0,0,0,0,0,3,1,5,0,0,0,0,0,0,0,0,0,72,0,0,0,3,72,0,0,0,0,0,0,1,0,0,0,0,0,0,0,0,0,0,10000231,SANTIAGO,PREBASICA,336544.84609,6299265.2,PROVINCIAL PONIENTE,PREBASICA,LOS POLLITOS,1226 LOS CERCOS,JARDIN INFANTIL
71,182,10000225, , ,EL ESCUDO,8435, ,PUDAHUEL,6431127,6,3300,0,0,1,0,0,13,3,22,0,0,0,0,0,0,0,0,0,270,0,0,0,3,270,0,0,0,0,0,0,1,0,0,0,0,0,0,0,0,0,0,10000225,SANTIAGO,PREBASICA,337776.90763,6297465.80888,PROVINCIAL PONIENTE,PREBASICA,LOS AROMOS,8435 EL ESCUDO,JARDIN INFANTIL Y SALA CUNA
72,183,10000228, , ,NICANOR MOLINA,1204, ,PUDAHUEL,0,6,3750,2087,0,1,0,0,5,1,9,0,0,0,0,0,0,0,0,0,133,0,0,0,3,133,0,0,0,0,0,0,1,0,0,0,0,0,0,0,0,0,0,10000228,SANTIAGO,PREBASICA,338043.35085,6299517.30278,PROVINCIAL PONIENTE,PREBASICA,CAMPO LINDO,1204 NICANOR MOLINARE,JARDIN INFANTIL
73,184,10000229, , ,LAGO ONTARIO,8432, ,PUDAHUEL,6400010,6,3300,0,0,1,0,0,4,1,7,0,0,0,0,0,0,0,0,0,98,0,0,0,3,98,0,0,0,0,0,0,1,0,0,0,0,0,0,0,0,0,0,10000229,SANTIAGO,PREBASICA,338087.775,6298696.95,PROVINCIAL PONIENTE,PREBASICA,LAS ARDILLAS,8432 LAGO ONTARIO,JARDIN INFANTIL
74,185,10000016, , ,MAR CARIBE,1160, ,PUDAHUEL,6431268,7,2000,1250,6,1,0,0,7,14,22,0,0,0,0,1,0,0,0,0,199,0,0,0,3,199,0,0,0,0,0,0,1,0,0,0,0,0,0,0,0,0,0,10000016,SANTIAGO,PREBASICA,338167.34219,6299297.8,PROVINCIAL PONIENTE,PREBASICA,C.A. E.PALAZUELO,1160 MAR CARIBE,SALA CUNA
75,186,10000160, , ,PANAMA,1015, ,LO PRADO,6432795,6,2500,2304,2.94,1,0,0,4,1,7,0,0,0,0,0,0,0,0,0,109,0,0,0,3,109,0,0,0,0,0,0,1,0,0,0,0,0,0,0,0,0,0,10000160,SANTIAGO,PREBASICA,338347.72216,6298613.4272,PROVINCIAL PONIENTE,PREBASICA,MUNDO FELIZ,1015 PANAMA,JARDIN INFANTIL
76,187,10000159, , ,TUPUNGATO,413, ,LO PRADO,6442174,6,3300,421,1.8,1,0,0,9,3,16,0,0,0,0,1,0,0,0,0,162,0,0,0,3,162,0,0,0,0,0,0,1,0,0,0,0,0,0,0,0,0,0,10000159,SANTIAGO,PREBASICA,338878.90503,6297756.97787,PROVINCIAL PONIENTE,PREBASICA,PEQUENO NINO,413 TUPUNGATO,JARDIN INFANTIL
77,188,10000158, , ,TERRITORIO ANTARTICO,5934, ,LO PRADO,7799379,6,2750,700,4.86,1,0,0,11,3,18,0,0,0,0,0,0,0,0,0,213,0,0,0,3,213,0,0,0,0,0,0,1,0,0,0,0,0,0,0,0,0,0,10000158,SANTIAGO,PREBASICA,340651.09979,6297747.14674,PROVINCIAL PONIENTE,PREBASICA,LOS TRINOS,5934 TERRITORIO ANTARTICO,JARDIN INFANTIL
78,189,10000055, , ,FRANCISCO A. ENCINA,9156, ,LO ESPEJO,5594472,8,3000,1200,3.5,0,0,0,10,3,14,0,0,0,0,0,0,0,0,0,169,0,0,0,3,169,0,0,0,0,0,0,1,0,0,0,0,0,0,0,0,0,0,10000055,SANTIAGO,PREBASICA,342256.41685,6288921.03141,PROVINCIAL SUR,PREBASICA,NUEVA ESPERANZA,9156 FRANCISCO A.ENCINA,SALA CUNA
79,190,10000157, , ,WALDO TAFF,7907, ,LO PRADO,6442559,6,2750,0,4.86,1,0,0,11,2,17,0,0,0,0,0,0,0,0,0,200,0,0,0,3,200,0,0,0,0,0,0,1,0,0,0,0,0,0,0,0,0,0,10000157,SANTIAGO,PREBASICA,338646.48574,6297934.02733,PROVINCIAL PONIENTE,PREBASICA,LA PRADERA,7907 WALDO TAFF,JARDIN INFANTIL
80,191,10000015, , ,LOS TAMARINDOS,5901, ,LO PRADO,7737978,7,6000,2000,3.6,1,0,0,4,7,12,0,0,0,0,0,0,0,0,0,110,0,0,0,3,110,0,0,0,0,0,0,1,0,0,0,0,0,0,0,0,0,0,10000015,SANTIAGO,PREBASICA,340708.30535,6298631.75853,PROVINCIAL PONIENTE,PREBASICA,C.A. SANTA ANITA,5901 LOS TAMARINDOS,SALA CUNA
81,192,10000056, , ,CARLOS DITTBORN,2232, ,LO ESPEJO,5217671,8,0,250,1.3,0,0,0,0,6,7,0,0,0,0,0,0,0,0,0,70,0,0,0,3,70,0,0,0,0,0,0,1,0,0,0,0,0,0,0,0,0,0,10000056,SANTIAGO,PREBASICA,344255.48045,6290863.54187,PROVINCIAL SUR,PREBASICA,MARCELA PAZ,2232 CARLOS DITTBORN,JARDIN INFANTIL
82,193,10000222, , ,LA HABANA,8354, ,LO ESPEJO,5239019,6,3300,2190,3.81,1,0,0,5,1,9,0,0,0,0,0,0,0,0,0,166,0,0,0,3,166,0,0,0,0,0,0,1,0,0,0,0,0,0,0,0,0,0,10000222,SANTIAGO,PREBASICA,342254.8342,6289679.54659,PROVINCIAL SUR,PREBASICA,RAYITO DE SOL,8354 LA HABANA,JARDIN INFANTIL
83,194,10000224, , ,PIO XII,6834, ,LO ESPEJO,5219153,6,3300,2365,0,1,0,0,0,2,5,0,0,0,0,0,0,0,0,0,143,0,0,0,3,143,0,0,0,0,0,0,1,0,0,0,0,0,0,0,0,0,0,10000224,SANTIAGO,PREBASICA,342637.32691,6291137.3284,PROVINCIAL SUR,PREBASICA,SEMILLITA,6834 PIO XII,JARDIN INFANTIL
84,195,10000223, , ,CAREN,7300, ,LO ESPEJO,5243716,6,0,0,3.24,1,0,0,5,1,9,0,0,0,0,0,0,0,0,0,156,0,0,0,3,156,0,0,0,0,0,0,1,0,0,0,0,0,0,0,0,0,0,10000223,SANTIAGO,PREBASICA,344148.48483,6290134.50584,PROVINCIAL SUR,PREBASICA,CAREN,7300 CAREN,JARDIN INFANTIL Y SALA CUNA
85,196,10000004, , ,PAULA JARAQUEMADA,1577, ,RENCA,6421276,7,0,0,4.75,0,0,0,1,12,14,0,0,0,0,0,0,0,0,0,151,0,0,0,3,151,0,0,0,0,0,0,1,0,0,0,0,0,0,0,0,0,0,10000004,SANTIAGO,PREBASICA,339373.1096,6302833.05905,PROVINCIAL PONIENTE,PREBASICA,C.A. M.FLORA YANEZ,1577 PAULA JARAQUEMADA,SALA CUNA
86,197,10000002, , ,JOSE MANUEL BALMACEDA,4008, ,RENCA,6412846,7,0,2621,5.19,1,0,0,0,8,10,0,0,6,0,1,0,0,0,0,174,0,0,0,3,174,0,0,0,0,0,0,1,0,0,0,0,0,0,0,0,0,0,10000002,SANTIAGO,PREBASICA,341921.19842,6302745.10661,PROVINCIAL PONIENTE,PREBASICA,C.A. PABLO NERUDA,4008 JOSE MANUEL BALMACEDA,SALA CUNA
87,198,10000219, , ,PTO MONTT,2307, ,RENCA,6413136,6,300,2400,5.04,1,0,0,15,2,22,0,0,0,0,1,0,0,0,0,211,0,0,0,3,211,0,0,0,0,0,0,1,0,0,0,0,0,0,0,0,0,0,10000219,SANTIAGO,PREBASICA,342443.38485,6303785.65115,PROVINCIAL PONIENTE,PREBASICA,CARNAVALITO,2307 PTO MONTT,JARDIN INFANTIL Y SALA CUNA
88,199,10000005, , ,NEMESIS,7282, ,RENCA,6422152,7,0,2032,6.51,1,0,0,4,7,12,0,0,0,0,0,0,0,0,0,180,0,0,0,3,180,0,0,0,0,0,0,1,0,0,0,0,0,0,0,0,0,0,10000005,SANTIAGO,PREBASICA,337872.35648,6302040.56838,PROVINCIAL PONIENTE,PREBASICA,C.A. LO VELASQUEZ,7282 NEMESIS,SALA CUNA
89,200,10000006, , ,ZEUS,919, ,RENCA,6421234,7,0,1581,8.49,1,0,0,3,4,8,0,0,0,0,0,0,0,0,0,98,0,0,0,3,98,0,0,0,0,0,0,1,0,0,0,0,0,0,0,0,0,0,10000006,SANTIAGO,PREBASICA,338187.52891,6301830.575,PROVINCIAL PONIENTE,PREBASICA,VALLE DE AZAPA,919 ZEUS,JARDIN INFANTIL
90,201,10000221, , ,PEDRO LAGOS,1206, ,RENCA,6421399,6,3300,2000,0,1,0,0,5,2,10,0,0,0,0,1,0,0,0,0,138,0,0,0,3,138,0,0,0,0,0,0,1,0,0,0,0,0,0,0,0,0,0,10000221,SANTIAGO,PREBASICA,340429.0701,6302351.90001,PROVINCIAL PONIENTE,PREBASICA,VALLE DEL ELQUI,1206 PIEDRA LOBOS,JARDIN INFANTIL
91,202,10000218, , ,ANGOL,1742, ,RENCA,6423688,6,3300,4439,0,1,0,0,10,3,17,0,0,3,0,1,0,0,0,0,165,0,0,0,3,165,0,0,0,0,0,0,1,0,0,0,0,0,0,0,0,0,0,10000218,SANTIAGO,PREBASICA,339465.45623,6303377.33664,PROVINCIAL PONIENTE,PREBASICA,RUSENOR DEL ALBA,1742 ANGOL,JARDIN INFANTIL Y SALA CUNA
92,203,10000216, , ,TOCONCE,1090, ,RENCA,0,6,0,0,0,0,0,0,7,1,11,0,0,0,0,0,0,0,0,0,122,0,0,0,3,122,0,0,0,0,0,0,1,0,0,0,0,0,0,0,0,0,0,10000216,SANTIAGO,PREBASICA,340275.0512,6302201.80586,PROVINCIAL PONIENTE,PREBASICA,RAYITO DE SOL,1090 TOCONCE,JARDIN INFANTIL Y SALA CUNA
93,204,10000213, , ,DIEGO PORTALES,4323, ,RENCA,6411832,6,2500,2232,3.4,1,0,0,10,3,17,0,0,0,0,0,0,0,0,0,173,0,0,0,3,173,0,0,0,0,0,0,1,0,0,0,0,0,0,0,0,0,0,10000213,SANTIAGO,PREBASICA,341087.16513,6302937.44844,PROVINCIAL PONIENTE,PREBASICA,CAPULLITOS DE TERNURA,4323 DIEGO PORTALES,JARDIN INFANTIL
94,205,10000217, , ,BAQUEDANO,4035, ,RENCA,6417897,6,3300,0,0,1,0,0,3,1,7,0,0,0,0,0,0,0,0,0,89,0,0,0,3,89,0,0,0,0,0,0,1,0,0,0,0,0,0,0,0,0,0,10000217,SANTIAGO,PREBASICA,341826.95078,6303091.55,PROVINCIAL PONIENTE,PREBASICA,LOS PEQUES DEL MANANA,4035 BAQUEDANO,JARDIN INFANTIL
95,206,10000215, , ,RIVERA,1580, ,RENCA,6411080,6,3300,900,7.23,1,0,0,11,5,20,0,0,0,0,1,0,0,0,0,175,0,0,0,3,175,0,0,0,0,0,0,1,0,0,0,0,0,0,0,0,0,0,10000215,SANTIAGO,PREBASICA,342201.15648,6302699.39145,PROVINCIAL PONIENTE,PREBASICA,EL MUNDO DE LOS NINOS,1580 RIVERA,JARDIN INFANTIL
96,207,10000003, , ,LAS MARGARITAS,2327, ,RENCA,6410112,7,2000,0,0,1,0,0,2,3,6,0,0,5,0,0,0,0,0,0,134,0,0,0,3,134,0,0,0,0,0,0,1,0,0,0,0,0,0,0,0,0,0,10000003,SANTIAGO,PREBASICA,342141.21563,6303893,PROVINCIAL PONIENTE,PREBASICA,C.A. PAPELUCHO,2327 LAS MARGARITAS,SALA CUNA
97,208,10000220, , ,VILLARRICA,2565, ,RENCA,6460678,6,2750,2592,7.78,1,0,0,14,3,23,0,0,0,0,1,0,0,0,0,262,0,0,0,3,262,0,0,0,0,0,0,1,0,0,0,0,0,0,0,0,0,0,10000220,SANTIAGO,PREBASICA,342182.75206,6304267.31609,PROVINCIAL PONIENTE,PREBASICA,SEMILLITAS DEL FUTURO,2565 VILLARRICA,JARDIN INFANTIL Y SALA CUNA
98,209,10000184, , ,LOA,6607, ,QUINTA NORMAL,7738226,6,0,2150,8.35,1,0,0,8,2,15,0,0,0,0,1,0,0,0,0,252,0,0,0,3,252,0,0,0,0,0,0,1,0,0,0,0,0,0,0,0,0,0,10000184,SANTIAGO,PREBASICA,340476.87519,6301855.51157,PROVINCIAL PONIENTE,PREBASICA,TRICAHUE,6607 LOA,JARDIN INFANTIL
99,210,10000018, , ,BUTAMALLIN,1238, ,QUINTA NORMAL,7736851,7,0,1200,3.8,1,0,0,7,5,14,0,0,0,0,0,0,0,0,0,154,0,0,0,3,154,0,0,0,0,0,0,1,0,0,0,0,0,0,0,0,0,0,10000018,SANTIAGO,PREBASICA,341806.54974,6298967.09103,PROVINCIAL PONIENTE,PREBASICA,C.A. PEDRO PRADO,1238 BUTAMALLIN,SALA CUNA
100,211,10000185, , ,DR CARLOS OTTOLENGHI,4450, ,QUINTA NORMAL,7737648,6,300,0,0,1,0,0,8,4,15,0,0,0,0,1,0,0,0,0,128,0,0,0,3,128,0,0,0,0,0,0,1,0,0,0,0,0,0,0,0,0,0,10000185,SANTIAGO,PREBASICA,342462.08125,6301008.925,PROVINCIAL PONIENTE,PREBASICA,TERNURA,4450 DR CARLOS OTTOLENGHI,JARDIN INFANTIL
101,212,10000030, , ,BARROS ARANA,712, ,QUILICURA,6034235,7,0,1352,3.25,1,0,0,9,2,13,0,0,0,0,0,0,0,0,0,150,0,0,0,3,150,0,0,0,0,0,0,1,0,0,0,0,0,0,0,0,0,0,10000030,SANTIAGO,PREBASICA,337729.90655,6306325.38966,PROVINCIAL NORTE,PREBASICA,C.A. ARTUTO PEREZ CANTO,712 BARROS ARANA,SALA CUNA
102,213,10000031, , ,LAS PERDICES,380, ,QUILICURA,6031795,7,0,0,2.49,0,0,0,0,24,25,0,0,0,0,0,0,0,0,0,240,0,0,0,3,240,0,0,0,0,0,0,1,0,0,0,0,0,0,0,0,0,0,10000031,SANTIAGO,PREBASICA,340098.78365,6306494.52098,PROVINCIAL NORTE,PREBASICA,C.A. JULIO MONTT SALAMANCA,380 LAS PERDICES,SALA CUNA
103,214,10000080, , ,MARCOS PEREZ,1330, ,PUENTE ALTO,8721019,8,2000,2527,4.87,1,0,0,14,4,19,0,0,4,0,0,0,0,0,0,235,0,0,0,3,235,0,0,0,0,0,0,1,0,0,0,0,0,0,0,0,0,0,10000080,SANTIAGO,PREBASICA,352434.46823,6278847.58333,PROVINCIAL CORDILLERA,PREBASICA,C.A. CORDILLERA,1330 MARCOS PEREZ,SALA CUNA
104,215,10000119, , ,EJERCITO LIBERTADOR,865, ,PUENTE ALTO,8515511,6,3000,3000,7.73,1,0,0,16,7,29,0,0,0,0,1,0,0,0,0,301,0,0,0,3,301,0,0,0,0,0,0,1,0,0,0,0,0,0,0,0,0,0,10000119,SANTIAGO,PREBASICA,352576.49609,6278436.725,PROVINCIAL CORDILLERA,PREBASICA,CARRITO DE ILUSIONES,0865 EJERCITO LIBERTADOR,JARDIN INFANTIL Y SALA CUNA
105,216,10000124, , ,LAS ROSAS,280, ,PUENTE ALTO,0,6,5000,1680,2.4,1,0,0,3,1,5,0,0,0,0,1,0,0,0,0,84,0,0,0,3,84,0,0,0,0,0,0,1,0,0,0,0,0,0,0,0,0,0,10000124,SANTIAGO,PREBASICA,352831.81776,6279240.74245,PROVINCIAL CORDILLERA,PREBASICA,HORAS FELICES,0280 LAS ROSAS,JARDIN INFANTIL
106,217,10000118, , ,LEONARDO DA VINCI,955, ,PUENTE ALTO,8506134,6,0,0,0,1,0,0,15,3,24,0,0,0,0,0,0,0,0,0,308,0,0,0,3,308,0,0,0,0,0,0,1,0,0,0,0,0,0,0,0,0,0,10000118,SANTIAGO,PREBASICA,352450.18359,6279688.22126,PROVINCIAL CORDILLERA,PREBASICA,PENI MAPU,955 LEONARDO DA VINCI,JARDIN INFANTIL
107,218,10000127, , ,JOAQUIN PALACIOS,793, ,PUENTE ALTO,8517961,6,3300,675,3,1,0,0,3,1,5,0,0,0,0,1,0,0,0,0,74,0,0,0,3,74,0,0,0,0,0,0,1,0,0,0,0,0,0,0,0,0,0,10000127,SANTIAGO,PREBASICA,352632.87031,6280546.85,PROVINCIAL CORDILLERA,PREBASICA,VILLA PUENTE ALTO,793 JOAQUIN PALACIOS,JARDIN INFANTIL
108,219,10000125, , ,PEDRO DUARTE,675, ,PUENTE ALTO,8517671,6,2750,666,2.08,1,0,0,5,2,8,0,0,0,0,0,0,0,0,0,42,0,0,0,3,42,0,0,0,0,0,0,1,0,0,0,0,0,0,0,0,0,0,10000125,SANTIAGO,PREBASICA,352776.2365,6279986.23987,PROVINCIAL CORDILLERA,PREBASICA,LOS ENANITOS,675 PEDRO DUARTE,JARDIN INFANTIL
109,220,10000122, , ,LOS CEREZOS,920, ,PUENTE ALTO,8720253,6,3300,7283,3.5,1,0,0,13,2,19,0,0,0,0,0,0,0,0,0,260,0,0,0,3,260,0,0,0,0,0,0,1,0,0,0,0,0,0,0,0,0,0,10000122,SANTIAGO,PREBASICA,353157.66673,6278205.13228,PROVINCIAL CORDILLERA,PREBASICA,SEMILLITA,920 LOS CEREZOS,JARDIN INFANTIL Y SALA CUNA
110,221,10000121, , ,BALMACENA,736, ,PUENTE ALTO,8726725,6,0,1730,2.34,1,0,0,7,2,11,0,0,0,0,1,0,0,0,0,89,0,0,0,3,89,0,0,0,0,0,0,1,0,0,0,0,0,0,0,0,0,0,10000121,SANTIAGO,PREBASICA,353860.33906,6280695.675,PROVINCIAL CORDILLERA,PREBASICA,PRIMEROS PASOS,736 BALMACENA,JARDIN INFANTIL
111,222,10000123, , ,LAS LOICAS,311, ,PUENTE ALTO,8500376,6,3300,15000,4.3,1,0,0,4,3,9,0,0,0,0,1,0,0,0,0,97,0,0,0,3,97,0,0,0,0,0,0,1,0,0,0,0,0,0,0,0,0,0,10000123,SANTIAGO,PREBASICA,355098.59375,6279640.9,PROVINCIAL CORDILLERA,PREBASICA,LUCERITO DE LOS ANDES,311 LAS LOICAS,JARDIN INFANTIL
112,223,10000120, , ,LA COLONIA,1040, ,PUENTE ALTO,0,6,0,768,2.52,1,0,0,4,1,8,0,0,0,0,0,0,0,0,0,104,0,0,0,3,104,0,0,0,0,0,0,1,0,0,0,0,0,0,0,0,0,0,10000120,SANTIAGO,PREBASICA,352811.36751,6278112.10083,PROVINCIAL CORDILLERA,PREBASICA,SAN GERONIMO 1,01040 LA COLONIA,JARDIN INFANTIL
113,224,10000126, , ,CDTE ENRIQUE FAVERIO,681, ,PUENTE ALTO,8725421,6,0,1224,3.5,1,0,0,3,1,5,0,0,0,0,0,0,0,0,0,274,0,0,0,3,274,0,0,0,0,0,0,1,0,0,0,0,0,0,0,0,0,0,10000126,SANTIAGO,PREBASICA,352703.9413,6280169.66319,PROVINCIAL CORDILLERA,PREBASICA,LOS DUENDECITOS,681CDTE ENRIQUE FAVERIO,JARDIN INFANTIL
114,225,10000079, , ,CLEOPATRA,3155, ,PUENTE ALTO,5423411,8,2000,0,0,1,0,0,7,10,18,0,0,0,0,0,0,0,0,0,162,0,0,0,3,162,0,0,0,0,0,0,1,0,0,0,0,0,0,0,0,0,0,10000079,SANTIAGO,PREBASICA,351120.70566,6282845.17306,PROVINCIAL CORDILLERA,PREBASICA,C.A. LAS VIZCACHITAS,3155 CLEOPATRA,SALA CUNA
115,226,10000107, , ,SANTIAGO,870, ,SAN BERNARDO,0,6,3300,310,2.37,1,0,0,4,1,7,0,0,0,0,0,0,0,0,0,77,0,0,0,3,77,0,0,0,0,0,0,1,0,0,0,0,0,0,0,0,0,0,10000107,SANTIAGO,PREBASICA,341908.87261,6283654.41119,PROVINCIAL SUR,PREBASICA,LOS TEJANITOS,0870 SANTIAGO,JARDIN INFANTIL Y SALA CUNA
116,227,10000033, , ,BALMACEDA,523, ,SAN BERNARDO,8595401,7,0,908,4.43,1,0,0,5,4,11,0,0,0,0,0,0,0,0,0,159,0,0,0,3,159,0,0,0,0,0,0,1,0,0,0,0,0,0,0,0,0,0,10000033,SANTIAGO,PREBASICA,342168.16155,6282520.98568,PROVINCIAL SUR,PREBASICA,C.A. MUJERES DE CHILE,0523 BALMACEDA,SALA CUNA
117,228,10000110, , ,SAN GABRIEL,1836, ,SAN BERNARDO,5297952,6,0,2600,4.5,0,0,0,6,1,8,0,0,0,0,0,0,0,0,0,131,0,0,0,3,131,0,0,0,0,0,0,1,0,0,0,0,0,0,0,0,0,0,10000110,SANTIAGO,PREBASICA,345466.47812,6282269.30524,PROVINCIAL SUR,PREBASICA,133906,1836 SAN GABRIEL,JARDIN INFANTIL
118,229,10000183, , ,GALICIA,2701, ,MAIPU,5312151,6,2500,2442,6.09,1,0,0,13,3,22,0,0,0,0,1,0,0,0,0,256,0,0,0,3,256,0,0,0,0,0,0,1,0,0,0,0,0,0,0,0,0,0,10000183,SANTIAGO,PREBASICA,334999.68715,6291503.18889,PROVINCIAL PONIENTE,PREBASICA,MADRESELVA,2701 GALICIA,JARDIN INFANTIL Y SALA CUNA
119,230,10000010, , ,MIRAFLORES,2580, ,MAIPU,5312756,7,0,0,0,0,0,0,7,5,13,0,0,0,0,0,0,0,0,0,146,0,0,0,3,146,0,0,0,0,0,0,1,0,0,0,0,0,0,0,0,0,0,10000010,SANTIAGO,PREBASICA,335386.35514,6291364.5494,PROVINCIAL PONIENTE,PREBASICA,PATRONA DE CHILE,2580 MIRAFLORES,JARDIN INFANTIL
120,231,10000008, , ,VICENTE REYES,889, ,MAIPU,5313900,7,0,1872,6.72,0,0,0,9,6,16,0,0,0,0,0,0,0,0,0,164,0,0,0,3,164,0,0,0,0,0,0,1,0,0,0,0,0,0,0,0,0,0,10000008,SANTIAGO,PREBASICA,337416.88855,6289898.05539,PROVINCIAL PONIENTE,PREBASICA,C.A. O'HIGGINS,889 VICENTE REYES,SALA CUNA
121,232,10000109, , ,YUNGAY,665, ,SAN BERNARDO,8593013,6,3300,2035,7.65,1,0,0,12,2,18,0,0,0,0,1,0,0,0,0,169,0,0,0,3,169,0,0,0,0,0,0,1,0,0,0,0,0,0,0,0,0,0,10000109,SANTIAGO,PREBASICA,342204.74465,6283125.42375,PROVINCIAL SUR,PREBASICA,PRINCIPITO,665 YUNGAY,JARDIN INFANTIL
122,233,10000034, , ,AYACARA,900, ,SAN BERNARDO,8598475,7,2000,1063,4.32,1,0,0,12,2,16,0,0,0,0,0,0,0,0,0,178,0,0,0,3,178,0,0,0,0,0,0,1,0,0,0,0,0,0,0,0,0,0,10000034,SANTIAGO,PREBASICA,343713.63811,6281061.97015,PROVINCIAL SUR,PREBASICA,C.A. ANGELMO,900 AYACARA,SALA CUNA
123,234,10000244, , ,EL QUILO,1501, ,QUILICURA,6034739,6,0,1535,4.92,1,0,0,11,4,19,0,0,0,0,0,0,0,0,0,170,0,0,0,3,170,0,0,0,0,0,0,1,0,0,0,0,0,0,0,0,0,0,10000244,SANTIAGO,PREBASICA,340680.3524,6306812.09599,PROVINCIAL NORTE,PREBASICA,LAS ARDILLITAS,150 EL QUILO,JARDIN INFANTIL Y SALA CUNA
124,235,10000214, , ,PSJE 12,5125, ,RENCA,6421152,6,3300,972,1.8,0,0,0,2,1,4,0,0,0,0,0,0,0,0,0,75,0,0,0,3,75,0,0,0,0,0,0,1,0,0,0,0,0,0,0,0,0,0,10000214,SANTIAGO,PREBASICA,339680.53298,6302566.36326,PROVINCIAL PONIENTE,PREBASICA,PETETE,5125 PASAJE  12,JARDIN INFANTIL
125,236,10000181, , ,UROFOSFATOS,4867, ,ESTACION CENTRAL,7798611,6,300,729,2.08,1,1,0,7,3,12,0,0,0,0,0,0,0,0,0,64,0,0,0,3,64,0,0,0,0,0,0,1,0,0,0,0,0,0,0,0,0,0,10000181,SANTIAGO,PREBASICA,342175.79958,6294404.93073,PROVINCIAL PONIENTE,PREBASICA,LOS CARINOSITOS,4867 UROFOSFATOS,JARDIN INFANTIL
126,237,10000009, , ,RINCONADA,0, ,MAIPU,0,7,0,0,2.5,1,0,0,5,4,10,0,0,0,0,0,0,0,0,0,0,0,0,0,3,83,0,0,0,0,0,0,1,0,0,0,0,0,0,0,0,0,0,10000009,SANTIAGO,PREBASICA,334031.40405,6291247.51117,PROVINCIAL PONIENTE,PREBASICA,C.A. LOS PEQUES,RINCONADA,SALA CUNA
127,238,10000169, , ,CAMINO A LONQUEN,7581, ,CERRILLOS,0,6,3000,5000,1.5,1,1,0,3,1,6,0,0,0,0,1,0,0,0,0,0,0,0,0,3,0,0,0,0,0,0,0,1,0,0,0,0,0,0,0,0,0,0,10000169,SANTIAGO,PREBASICA,340685.69054,6290797.97881,PROVINCIAL PONIENTE,PREBASICA,VISTA ALEGRE,7581 CAMINO A LONQUEN,JARDIN INFANTIL
128,239,10000108, , ,PEDRO DE MENDOZA,275, ,SAN BERNARDO,0,6,3300,4774,3.57,1,0,0,5,4,12,0,0,0,0,0,0,0,0,0,153,0,0,0,3,153,0,0,0,0,0,0,1,0,0,0,0,0,0,0,0,0,0,10000108,SANTIAGO,PREBASICA,343366.04907,6283092.89151,PROVINCIAL SUR,PREBASICA,LA PORTADA DE SAN BERNARDO,0275 PEDRO DE MENDOZA,JARDIN INFANTIL
129,240,10000106, , ,CALDERON DE LA BARCA,647, ,SAN BERNARDO,8291506,6,300,0,0,1,0,0,6,1,10,0,0,0,0,0,0,0,0,0,124,0,0,0,3,124,0,0,0,0,0,0,1,0,0,0,0,0,0,0,0,0,0,10000106,SANTIAGO,PREBASICA,343906.42776,6282765.61129,PROVINCIAL SUR,PREBASICA,EL OLIVO,674 CALDERON DE LA BARCA,JARDIN INFANTIL
130,241,10000032, , ,JUAN ANDRES DE USTARIZ,901, ,SAN BERNARDO,8594171,7,2000,0,0,1,0,0,17,3,22,0,0,0,0,0,0,0,0,0,450,0,0,0,3,450,0,0,0,0,0,0,1,0,0,0,0,0,0,0,0,0,0,10000032,SANTIAGO,PREBASICA,344009.35804,6282036.49687,PROVINCIAL SUR,PREBASICA,C.A. LAS SEMILLITAS,0901 JUAN ANDRES DE USTARIZ,SALA CUNA
131,242,10000078, , ,PSJE 19,673, ,PUENTE ALTO,8721496,8,2700,576,4.17,0,0,0,12,3,16,0,0,0,0,0,0,0,0,0,157,0,0,0,3,157,0,0,0,0,0,0,1,0,0,0,0,0,0,0,0,0,0,10000078,SANTIAGO,PREBASICA,354780.3321,6279069.75538,PROVINCIAL CORDILLERA,PREBASICA,C.A. LOS COPIHUES ROJOS,673 PSJE 19,SALA CUNA
132,254,25068 5, , ,DIEGO PORTALES,1547,1,LA FLORIDA,2888839,3,0,0,0,0,0,0,0,0,0,0,0,0,0,0,0,0,0,0,0,0,0,0,0,0,0,0,0,0,0,0,0,0,0,0,0,0,0,0,0,0,0,25068 5,SANTIAGO,PREBASICA,354611.12008,6285487.67297,PROVINCIAL CORDILLERA,PREBASICA,EDUCADORA ELENA ROJAS,1547 DIEGO PORTALES,JARDIN INFANTIL
133,259,9389 0, ,995,PASAJE LA TIRANA,75,1,LA FLORIDA,2814519,4,0,0,0,0,0,0,0,0,0,0,0,0,0,0,0,0,0,0,0,0,0,0,0,0,0,0,0,0,0,0,0,0,0,0,0,0,0,0,0,0,0,9389 0,SANTIAGO,PREBASICA,352611.85481,6286380.92968,PROVINCIAL CORDILLERA,PREBASICA,THE RABBITS,75 PASAJE LA TIRANA,JARDIN INFANTIL
134,264,24736 7, ,1372,CORREGIDOR ZANARTU,11522,1,LA FLORIDA,2891200,4,0,0,0,0,0,0,0,0,0,0,0,0,0,0,0,0,0,0,0,0,0,0,0,0,0,0,0,0,0,0,0,0,0,0,0,0,0,0,0,0,0,24736 7,SANTIAGO,PREBASICA,353504.95539,6285229.67113,PROVINCIAL CORDILLERA,PREBASICA,LOS COPIHUITOS,11522 CORREGIDOR ZANARTU,JARDIN INFANTIL
135,265,24772 3, ,1493,LOS JACINTOS,9650,1,LA FLORIDA,0,4,0,0,0,0,0,0,0,0,0,0,0,0,0,0,0,0,0,0,0,0,0,0,0,0,0,0,0,0,0,0,0,0,0,0,0,0,0,0,0,0,0,24772 3,SANTIAGO,PREBASICA,350987.27532,6287389.1021,PROVINCIAL CORDILLERA,PREBASICA,KAI KAI,9650 LOS JACINTOS,JARDIN INFANTIL
136,274,9387 4, ,994,PASAJE LA TIRANA,75,1,LA FLORIDA,2913664,3,0,0,0,0,0,0,0,0,0,0,0,0,0,0,0,0,0,0,0,0,0,0,0,0,0,0,0,0,0,0,0,0,0,0,0,0,0,0,0,0,0,9387 4,SANTIAGO,PREBASICA,352611.85481,6286380.97366,PROVINCIAL CORDILLERA,PREBASICA,THE RABBITS,75 PASAJE LA TIRANA,JARDIN INFANTIL
137,276,25169 0, ,1656,FROILAN ROA,5790,1,MACUL,0,3,0,0,0,0,0,0,0,0,0,0,0,0,0,0,0,0,0,0,0,0,0,0,0,0,0,0,0,0,0,0,0,0,0,0,0,0,0,0,0,0,0,25169 0,SANTIAGO,PREBASICA,351300.09603,6291405.97331,PROVINCIAL ORIENTE,PREBASICA,ESCUELA KINDER PANDO,5790 FROILAN ROA,JARDIN INFANTIL
138,278,24948 3, ,1565,TUPAHUE,8847,1,PENALOLEN,0,4,0,0,0,0,0,0,0,0,0,0,0,0,0,0,0,0,0,0,0,0,0,0,0,0,0,0,0,0,0,0,0,0,0,0,0,0,0,0,0,0,0,24948 3,SANTIAGO,PREBASICA,356989.84186,6294614.90432,PROVINCIAL ORIENTE,PREBASICA,ESC. PARV. JAR.INFANTIL TUPAHUEL WHINIL,8847 TUPAHUE,JARDIN INFANTIL
139,284,25168 2, ,1655,NEVADOTRES CRUCES,5500,1,PENALOLEN,0,4,0,0,0,0,0,0,0,0,0,0,0,0,0,0,0,0,0,0,0,0,0,0,0,0,0,0,0,0,0,0,0,0,0,0,0,0,0,0,0,0,0,25168 2,SANTIAGO,PREBASICA,353453.07927,6291970.2375,PROVINCIAL ORIENTE,PREBASICA,ESCUELA DE PARVULOS SAN FERNANDO,5500 NEVADO TRES CRUCES,JARDIN INFANTIL
140,295,25103 8, ,1622,JOAQUIN EDWARDS BELLO,10491,1,LA GRANJA,0,3,0,0,0,0,0,0,0,0,0,0,0,0,0,0,0,0,0,0,0,0,0,0,0,0,0,0,0,0,0,0,0,0,0,0,0,0,0,0,0,0,0,25103 8,SANTIAGO,PREBASICA,349284.34951,6285980.92545,PROVINCIAL SUR,PREBASICA,CAMPANITA DE LA GRANJA,10491 JOAQUIN EDWARDS BELLO,JARDIN INFANTIL
141,303,9667 9, ,196,AMERICA DEL NORTE,2001,1,SAN RAMON,8501335,3,0,0,0,0,0,0,0,0,0,0,0,0,0,0,0,0,0,0,0,0,0,0,0,0,0,0,0,0,0,0,0,0,0,0,0,0,0,0,0,0,0,9667 9,SANTIAGO,PREBASICA,347992.35858,6288670.3185,PROVINCIAL SUR,PREBASICA,NUESTRO MUNDO,2001 AMERICA DEL NORTE,JARDIN INFANTIL
142,325,24615 8, ,373,BOMBERO ENCALADA,119,1,LA CISTERNA,0,4,0,0,0,0,0,0,0,0,0,0,0,0,0,0,0,0,0,0,0,0,0,0,0,0,0,0,0,0,0,0,0,0,0,0,0,0,0,0,0,0,0,24615 8,SANTIAGO,PREBASICA,345662.57853,6288093.19117,PROVINCIAL SUR,PREBASICA,LUCERITO,119 BOMBERO ENCALADA,JARDIN INFANTIL
143,326,24667 0, ,82,LO MORENO,70,1,EL BOSQUE,0,4,0,0,0,0,0,0,0,0,0,0,0,0,0,0,0,0,0,0,0,0,0,0,0,0,0,0,0,0,0,0,0,0,0,0,0,0,0,0,0,0,0,24667 0,SANTIAGO,PREBASICA,343376.33653,6283716.55957,PROVINCIAL SUR,PREBASICA,JUANITO,070 LO MORENO,JARDIN INFANTIL
144,328,25158 5, ,1651,LOS MORROS,10077,1,EL BOSQUE,0,3,0,0,0,0,0,0,0,0,0,0,0,0,0,0,0,0,0,0,0,0,0,0,0,0,0,0,0,0,0,0,0,0,0,0,0,0,0,0,0,0,0,25158 5,SANTIAGO,PREBASICA,345167.01625,6286192.82721,PROVINCIAL SUR,PREBASICA,ESCUELA PARVULOS PULGARCITO,10077 LOS MORROS,JARDIN INFANTIL
145,330,25148 8, ,1644,ALHUE,2589,1,PAC,5215037,3,0,0,0,0,0,0,0,0,0,0,0,0,0,0,0,0,0,0,0,0,0,0,0,0,0,0,0,0,0,0,0,0,0,0,0,0,0,0,0,0,0,25148 8,SANTIAGO,PREBASICA,344602.66473,6291570.18462,PROVINCIAL CENTRO,PREBASICA,THE CHILDREN'S  WORDL NÂº2,2589 ALHUE,JARDIN INFANTIL
146,341,10000128, , ,EL QUISCO,428,0,LA FLORIDA,2815333,6,3300,0,0,1,5,0,16,2,24,0,0,0,0,0,0,0,0,0,274,0,0,0,3,274,0,0,0,0,0,0,1,0,0,0,0,0,0,0,0,0,0,10000128,SANTIAGO,PREBASICA,351602.64756,6287605.93856,PROVINCIAL CORDILLERA,PREBASICA,LOS PEUMOS,428 EL QUISCO,JARDIN INFANTIL Y SALA CUNA
147,343,11897 4, ,1263,ACONCAGUA,4504,1,LA FLORIDA,2461994,3,177000,140,7,1,3,0,0,1,5,0,0,1,0,0,20,100,0,0,38,0,0,0,1,38,0,0,0,0,1,0,1,0,0,0,0,0,0,0,0,0,0,11897 4,SANTIAGO,PREBASICA,352321.89964,6285240.55501,PROVINCIAL CORDILLERA,PREBASICA,HORBY NRO.1,4504 ACONCAGUA,JARDIN INFANTIL
148,356,24771 5, ,1492,LOS JACINTOS,9650,1,LA FLORIDA,2813918,3,162000,0,0,1,1,0,0,0,2,0,0,0,0,0,0,0,0,0,6,0,0,0,1,6,0,0,0,0,1,0,1,0,0,0,0,0,0,0,0,0,0,24771 5,SANTIAGO,PREBASICA,350988.54182,6287388.29499,PROVINCIAL CORDILLERA,PREBASICA,TRENG TRENG,9650 LOS JACINTOS,JARDIN INFANTIL
149,359,10000132, , ,STA JULIA,1125,0,LA FLORIDA,2813673,6,3300,0,0,1,3,0,6,2,12,0,0,0,0,0,0,0,0,0,223,0,0,0,3,223,0,0,0,0,0,0,1,0,0,0,0,0,0,0,0,0,0,10000132,SANTIAGO,PREBASICA,350739.36818,6288878.05095,PROVINCIAL CORDILLERA,PREBASICA,PEPELUCHE,1125 STA JULIA,JARDIN INFANTIL Y SALA CUNA
150,365,11858 3, ,1232,LOS HUIQUES,6481,1,LA FLORIDA,2218767,4,730000,120,6,1,1,2,0,1,5,0,0,1,1,0,0,0,0,0,10,0,0,0,1,10,0,0,0,0,1,0,1,0,0,0,0,0,0,0,0,0,0,11858 3,SANTIAGO,PREBASICA,351070.27579,6290568.83365,PROVINCIAL CORDILLERA,PREBASICA,MI SOL,6481 LOS HUIQUES,JARDIN INFANTIL
151,374,24601 8, , ,TAURO,10520,1,LA FLORIDA,2811958,3,0,0,0,0,0,0,0,0,0,0,0,0,0,0,0,0,0,0,0,0,0,0,2,0,0,0,0,0,0,0,1,0,0,0,0,0,0,0,0,0,0,24601 8,SANTIAGO,PREBASICA,352048.82961,6285908.09509,PROVINCIAL CORDILLERA,PREBASICA,LONDON  ANEXO,10520 TAURO,JARDIN INFANTIL
152,378,24611 5, ,1421,EL LLANO,989,1,LA FLORIDA,2824236,4,235000,140,7.5,1,2,2,0,0,5,0,0,4,4,4,0,0,0,0,33,0,0,0,1,33,0,0,0,0,1,0,1,0,0,0,0,0,0,0,0,0,0,24611 5,SANTIAGO,PREBASICA,351368.92887,6286833.75267,PROVINCIAL CORDILLERA,PREBASICA,"ESCUELA DE PARVULOS ""COPITO DE NIEVE""",989 EL LLANO,JARDIN INFANTIL
153,380,10000071, , ,MANUTARA,8282,0,LA FLORIDA,2913656,8,0,1959,5.15,0,1,0,5,5,11,0,0,0,0,1,0,0,0,0,141,0,0,0,3,141,0,0,0,0,0,0,1,0,0,0,0,0,0,0,0,0,0,10000071,SANTIAGO,PREBASICA,351536.56101,6288723.38095,PROVINCIAL CORDILLERA,PREBASICA,C.A. OSITO PANDA,8282 MANUTARA,SALA CUNA
154,381,10000130, , ,CHAITEN,8983,0,LA FLORIDA,2914174,6,2750,1440,3.06,2,4,0,1,0,7,0,0,0,0,0,0,0,0,0,126,0,0,0,3,126,0,0,0,0,0,0,1,0,0,0,0,0,0,0,0,0,0,10000130,SANTIAGO,PREBASICA,351529.63571,6288004.97626,PROVINCIAL CORDILLERA,PREBASICA,MANANTIAL,8983 CHAITEN,JARDIN INFANTIL Y SALA CUNA
155,391,9378, , ,DIEGO ARACENA,51,0,LA FLORIDA,2893061,4,220000,382,1.35,1,1,0,0,5,7,0,0,5,2,0,0,0,0,0,42,0,0,0,1,42,0,0,0,0,1,0,1,0,0,0,0,0,0,0,0,0,0,9378,SANTIAGO,PREBASICA,352744.79489,6285928.6065,PROVINCIAL CORDILLERA,PREBASICA,NIDITOS,51 DIEGO ARACENA,JARDIN INFANTIL
156,409,11951 2, ,1291,CALI,527,1,LA FLORIDA,2820965,4,268000,2000,4,1,3,2,0,1,7,0,0,2,2,2,0,0,0,0,80,0,0,0,1,80,0,0,0,0,0,0,1,0,0,0,0,0,0,0,0,0,0,11951 2,SANTIAGO,PREBASICA,353202.69062,6287151,PROVINCIAL CORDILLERA,PREBASICA,EL PRINCIPITO,527 CALI,JARDIN INFANTIL
157,421,10000133, , ,FROILAN ROA,6442,0,LA FLORIDA,2211881,6,300,0,2.7,1,1,0,4,1,7,0,0,0,0,0,0,0,0,0,103,0,0,0,3,103,0,0,0,0,0,0,1,0,0,0,0,0,0,0,0,0,0,10000133,SANTIAGO,PREBASICA,351376.17605,6290695.84425,PROVINCIAL CORDILLERA,PREBASICA,DESPERTAR,6442 FROILAN ROA,JARDIN INFANTIL
158,432,10000134, , ,LOS CACTUS,1885,0,LA FLORIDA,2850175,6,0,0,0,1,4,0,12,2,19,0,0,0,0,0,0,0,0,0,267,0,0,0,3,267,0,0,0,0,0,0,1,0,0,0,0,0,0,0,0,0,0,10000134,SANTIAGO,PREBASICA,353187.05125,6290282.56,PROVINCIAL CORDILLERA,PREBASICA,LOS COPIHUES,1885 LOS CACTUS,JARDIN INFANTIL Y SALA CUNA
159,433,24629 8, ,1428,LAS GUITARRAS,7544,1,LA FLORIDA,2856475,4,300000,200,1.4,1,2,4,0,1,8,0,0,3,1,2,0,0,0,0,45,0,0,0,1,45,0,0,0,0,1,0,1,0,0,0,0,0,0,0,0,0,0,24629 8,SANTIAGO,PREBASICA,353242.78318,6289622.1876,PROVINCIAL CORDILLERA,PREBASICA,CABALLITO BLANCO,7544 LAS GUITARRAS,JARDIN INFANTIL
160,449,11953 9, ,1286,OAXACA,1244,1,LA FLORIDA,2811804,4,284000,120,7.5,1,3,1,0,1,6,0,0,2,2,0,0,0,0,0,20,0,0,0,1,20,0,0,0,0,1,0,1,0,0,0,0,0,0,0,0,0,0,11953 9,SANTIAGO,PREBASICA,353912.53856,6287504.8933,PROVINCIAL CORDILLERA,PREBASICA,EL MOLINITO DE STA AMALIA,1244 OAXACA,JARDIN INFANTIL
161,459,10000129, , ,VOLCAN ANTILLANCA,3060,0,LA FLORIDA,2841033,6,0,0,0,1,5,0,16,7,29,0,0,9,0,0,0,0,0,0,282,0,0,0,3,282,0,0,0,0,0,0,1,0,0,0,0,0,0,0,0,0,0,10000129,SANTIAGO,PREBASICA,354210.30633,6290554.12155,PROVINCIAL CORDILLERA,PREBASICA,NUEVO AMANECER,3060 VOLCAN ANTILLANCA,JARDIN INFANTIL Y SALA CUNA
162,467,10000075, , ,JUNQUILLAR,848,0,LA PINTANA,5425891,8,0,0,0,1,1,0,9,4,15,0,0,0,0,0,0,0,0,0,130,0,0,0,3,130,0,0,0,0,0,0,1,0,0,0,0,0,0,0,0,0,0,10000075,SANTIAGO,PREBASICA,346675.50451,6283254.16056,PROVINCIAL CORDILLERA,PREBASICA,PABLO DE ROKHA,0848 JUNQUILLA,SALA CUNA
163,473,10000116, , ,BERNARDINO PARADA,935,0,LA PINTANA,5456256,6,2750,2880,4.8,1,2,0,5,1,9,0,0,0,0,0,0,0,0,0,144,0,0,0,3,144,0,0,0,0,0,0,1,0,0,0,0,0,0,0,0,0,0,10000116,SANTIAGO,PREBASICA,346945.97827,6283367.65879,PROVINCIAL CORDILLERA,PREBASICA,LOBITO BUENO,0935 BERNARDINO PARADA,JARDIN INFANTIL
164,481,10000073, , ,LOS LIMONEROS,13187,0,LA PINTANA,5424671,8,0,96,7.8,0,1,0,4,3,8,0,0,0,0,1,0,0,0,0,51,0,0,0,3,51,0,0,0,0,0,0,1,0,0,0,0,0,0,0,0,0,0,10000073,SANTIAGO,PREBASICA,347308.66711,6282557.04221,PROVINCIAL CORDILLERA,PREBASICA,ROSARIO CHACON DE PRAT,13187 LOS LIMONEROS,JARDIN INFANTIL
165,483,10000112, , ,CALLE A,1174,0,LA PINTANA,5423187,6,5500,2900,4.8,1,6,0,18,7,32,0,0,0,0,0,0,0,0,0,263,0,0,0,3,263,0,0,0,0,0,0,1,0,0,0,0,0,0,0,0,0,0,10000112,SANTIAGO,PREBASICA,347749.45313,6282920,PROVINCIAL CORDILLERA,PREBASICA,LUZ DEL MANANA,1174 CALLE A,JARDIN INFANTIL
166,486,10000114, , ,BERNARDINO PARADA,1170,0,LA PINTANA,5427083,6,3300,1800,7.05,1,3,0,13,7,24,0,0,0,0,0,0,0,0,0,215,0,0,0,3,215,0,0,0,0,0,0,1,0,0,0,0,0,0,0,0,0,0,10000114,SANTIAGO,PREBASICA,347758.43906,6283270.175,PROVINCIAL CORDILLERA,PREBASICA,EL DUENDE TRAVIESO,1170 BERNARDINO PARADA,JARDIN INFANTIL Y SALA CUNA
167,489,10000117, , ,ANDRES BELLO,12558,0,LA PINTANA,5424163,6,7000,0,0,1,1,0,4,1,7,0,0,0,0,0,0,0,0,0,108,0,0,0,3,108,0,0,0,0,0,0,1,0,0,0,0,0,0,0,0,0,0,10000117,SANTIAGO,PREBASICA,348034.4776,6283295.76385,PROVINCIAL CORDILLERA,PREBASICA,RAYITO DE SOL,12558 ANDRES BELLO,JARDIN INFANTIL
168,491,10000111, , ,ANTONIO MACHADO,1900,0,LA PINTANA,5435639,6,3000,1000,4.2,1,2,0,5,1,9,0,0,0,0,0,0,0,0,0,167,0,0,0,3,167,0,0,0,0,0,0,1,0,0,0,0,0,0,0,0,0,0,10000111,SANTIAGO,PREBASICA,347442.72845,6285191.24464,PROVINCIAL CORDILLERA,PREBASICA,AGUAS CLARAS,1900 ANTONIO MACHADO,JARDIN INFANTIL
169,503,10000077, , ,EL FUNDADOR,13354,0,LA PINTANA,5424587,8,0,1459,3.17,1,1,0,0,16,18,0,0,0,0,0,0,0,0,0,180,0,0,0,3,180,0,0,0,0,0,0,1,0,0,0,0,0,0,0,0,0,0,10000077,SANTIAGO,PREBASICA,350376.01297,6282391.48444,PROVINCIAL CORDILLERA,PREBASICA,C.A. SANTIAGO NUEVA EXTREMADURA,13354 EL FUNDADOR,SALA CUNA
170,509,10000146, , ,CANTO GRAL,501,0,LA GRANJA,0,6,3300,1947,2.98,1,3,0,10,2,16,0,0,0,0,0,0,0,0,0,183,0,0,0,3,183,0,0,0,0,0,0,1,0,0,0,0,0,0,0,0,0,0,10000146,SANTIAGO,PREBASICA,349085.65228,6286501.76745,PROVINCIAL SUR,PREBASICA,MI PEQUENO POEMA,0501 CANTO GRAL,JARDIN INFANTIL
171,523,10000149, , ,SAN GREGORIO,488,0,LA GRANJA,0,6,3300,2486,3.96,1,4,0,11,2,18,0,0,0,0,0,0,0,0,0,199,0,0,0,3,199,0,0,0,0,0,0,1,0,0,0,0,0,0,0,0,0,0,10000149,SANTIAGO,PREBASICA,349567.4375,6287941.72917,PROVINCIAL SUR,PREBASICA,CEPILLIN,0488 SAN GREGORIO,JARDIN INFANTIL Y SALA CUNA
172,525,10000148, , ,VALDIVIA,475,0,LA GRANJA,5261627,6,2750,2280,2.58,1,1,0,4,1,7,0,0,0,0,0,0,0,0,0,84,0,0,0,3,84,0,0,0,0,0,0,1,0,0,0,0,0,0,0,0,0,0,10000148,SANTIAGO,PREBASICA,349291.925,6288388.075,PROVINCIAL SUR,PREBASICA,LOS QUECHITOS,0475 VALDIVIA,JARDIN INFANTIL Y SALA CUNA
173,528,10000143, , ,CORONEL,8960,0,LA GRANJA,0,6,4400,2184,6.03,1,5,0,15,2,23,0,0,0,0,0,0,0,0,0,329,0,0,0,3,329,0,0,0,0,0,0,1,0,0,0,0,0,0,0,0,0,0,10000143,SANTIAGO,PREBASICA,350104.5694,6287008.43075,PROVINCIAL SUR,PREBASICA,MI CAPULLITO,8960 CORONEL,JARDIN INFANTIL
174,530,10000147, , ,SAN GREGORIO,675,0,LA GRANJA,5416191,6,3000,0,2.58,1,1,0,4,1,7,0,0,0,0,0,0,0,0,0,102,0,0,0,3,102,0,0,0,0,0,0,1,0,0,0,0,0,0,0,0,0,0,10000147,SANTIAGO,PREBASICA,349832.48984,6287961.9,PROVINCIAL SUR,PREBASICA,BAMBI,0675 SAN GREGORIO,JARDIN INFANTIL
175,534,10000052, , ,VALDIVIA,805,0,LA GRANJA,5257751,8,0,0,0,0,1,0,6,4,11,0,0,0,0,0,0,0,0,0,155,0,0,0,3,155,0,0,0,0,0,0,1,0,0,0,0,0,0,0,0,0,0,10000052,SANTIAGO,PREBASICA,350080.02567,6288421.16071,PROVINCIAL SUR,PREBASICA,C.A. SAN GREGORIO,0805 VALDIVIA,SALA CUNA
176,559,24650 6,D,567,PEDRO AGUIRRE CERDA,184,1,LA CISTERNA,5581313,1,0,3500,0,1,5,1,0,6,13,0,0,0,0,0,90,90,0,0,90,0,0,0,1,90,0,0,0,0,0,0,1,0,0,0,0,0,0,0,0,0,0,24650 6,SANTIAGO,PREBASICA,345351.97509,6288235.24055,PROVINCIAL SUR,PREBASICA,ESCUELA DE PARVULOS,0184 PEDRO AGUIRRE CERDA,JARDIN INFANTIL
177,581,9858 2, ,174,LO OVALLE,136,1,LA CISTERNA,5215174,4,141000,0,0,1,1,1,0,3,6,0,0,0,6,0,0,0,0,0,45,0,0,0,1,45,0,0,0,0,1,0,1,0,0,0,0,0,0,0,0,0,0,9858 2,SANTIAGO,PREBASICA,345906.40159,6290502.3933,PROVINCIAL SUR,PREBASICA,AMERICAN COLLEGE,0136 LO OVALLE,JARDIN INFANTIL
178,602,11865 6, ,64,CARD JOSE MARIA CARO,155,1,EL BOSQUE,5282510,3,50000,462,1.25,1,5,1,0,2,9,0,0,12,0,0,0,0,0,0,113,0,0,0,1,113,0,0,0,0,0,0,1,0,0,0,0,0,0,0,0,0,0,11865 6,SANTIAGO,PREBASICA,343549.76953,6284022.575,PROVINCIAL SUR,PREBASICA,ESCUELA PARVULOS CONEJIN,155 CARD JOSE MARIA CARO,JARDIN INFANTIL
179,605,10000136, , ,PEDRO SANCHO DE LA HOZ,12616,0,EL BOSQUE,0,6,3000,3000,5.4,1,4,0,17,6,28,0,0,0,0,0,0,0,0,0,272,0,0,0,3,272,0,0,0,0,0,0,1,0,0,0,0,0,0,0,0,0,0,10000136,SANTIAGO,PREBASICA,344187.60003,6283874.79664,PROVINCIAL SUR,PREBASICA,ANTT RALLEN,12616 PEDRO SANCHO DE LA HOZ,JARDIN INFANTIL Y SALA CUNA
180,609,11844, ,57,GRAN AVDA JOSE MIGUEL CARRERA,11576,0,EL BOSQUE,5290522,4,665000,220,0,2,5,0,0,1,8,0,0,1,1,0,14,100,0,0,41,0,0,0,1,41,0,0,0,0,1,0,1,0,0,0,0,0,0,0,0,0,0,11844,SANTIAGO,PREBASICA,344073.28281,6285268.6,PROVINCIAL SUR,PREBASICA,LA FAROLA,11576 GRAN AVDA JOSE MIGUEL CARRERA,JARDIN INFANTIL
181,614,10000061, , ,LAS PAPAYAS,11172,0,EL BOSQUE,0,8,5500,120,8,0,1,0,1,2,4,0,0,0,0,0,0,0,0,0,36,0,0,0,3,36,0,0,0,0,0,0,1,0,0,0,0,0,0,0,0,0,0,10000061,SANTIAGO,PREBASICA,344761.25312,6283538.075,PROVINCIAL SUR,PREBASICA,ALMENDRO DOS,11172 LAS PAPAYAS,JARDIN INFANTIL
182,615,10000060, , ,LOS MORROS,11294,0,EL BOSQUE,5280971,8,4000,2400,3.36,0,1,0,12,3,16,0,0,0,0,0,0,0,0,0,225,0,0,0,3,225,0,0,0,0,0,0,1,0,0,0,0,0,0,0,0,0,0,10000060,SANTIAGO,PREBASICA,344870.64271,6284779.575,PROVINCIAL SUR,PREBASICA,C.A. MARIA LUISA BOMBAL,11294 LOS MORROS,SALA CUNA
183,639,10000139, , ,LOS EUCALIPTUS,11160,0,EL BOSQUE,5280952,6,3000,1568,3.3,1,1,0,4,1,7,0,0,0,0,1,0,0,0,0,98,0,0,0,3,98,0,0,0,0,0,0,1,0,0,0,0,0,0,0,0,0,0,10000139,SANTIAGO,PREBASICA,345761.11094,6284855.375,PROVINCIAL SUR,PREBASICA,RAYITO DE SOL,11160 LOS EUCALIPTUS,JARDIN INFANTIL
184,642,10000142, , ,DEL CANDIL,984,0,EL BOSQUE,5589313,6,3000,800,1.82,1,0,0,3,1,5,0,0,0,0,0,0,0,0,0,80,0,0,0,3,80,0,0,0,0,0,0,1,0,0,0,0,0,0,0,0,0,0,10000142,SANTIAGO,PREBASICA,345522.1858,6285429.40034,PROVINCIAL SUR,PREBASICA,LAS ARDILLITAS,984 DEL CANDIL,JARDIN INFANTIL
185,655,10000135, , ,PSJE 32,1033,0,EL BOSQUE,5580043,6,3300,630,1.8,1,1,0,4,1,7,0,0,0,0,0,0,0,0,0,87,0,0,0,3,87,0,0,0,0,0,0,1,0,0,0,0,0,0,0,0,0,0,10000135,SANTIAGO,PREBASICA,343664.73543,6287108.75479,PROVINCIAL SUR,PREBASICA,MIS RAICES,01033 PSJE 32,JARDIN INFANTIL
186,656,10000141, , ,PSJE 18,1226,0,EL BOSQUE,5594921,6,3300,914,3.78,1,0,0,3,1,5,0,0,0,0,0,0,0,0,0,57,0,0,0,3,57,0,0,0,0,0,0,1,0,0,0,0,0,0,0,0,0,0,10000141,SANTIAGO,PREBASICA,343675.82985,6287561.85727,PROVINCIAL SUR,PREBASICA,ILLIHUE,01226 PSJE 18,JARDIN INFANTIL Y SALA CUNA
187,658,10000138, , ,EL LIBERTADOR,675,0,EL BOSQUE,5281247,6,2500,3184,4.9,1,4,0,12,2,19,0,0,0,0,2,0,0,0,0,209,0,0,0,3,209,0,0,0,0,0,0,1,0,0,0,0,0,0,0,0,0,0,10000138,SANTIAGO,PREBASICA,345004.05395,6284376.04002,PROVINCIAL SUR,PREBASICA,ESTRELLA DE LOS MORROS,675 EL LIBERTADOR,JARDIN INFANTIL Y SALA CUNA
188,661,24618 2, ,831,ELIAS FERNANDEZ ALBANO,220,1,LA CISTERNA,5582549,4,240000,0,0,2,3,1,0,1,7,0,0,0,0,0,0,0,0,0,100,0,0,0,1,100,0,0,0,0,1,0,1,0,0,0,0,0,0,0,0,0,0,24618 2,SANTIAGO,PREBASICA,345638.68206,6289519.73327,PROVINCIAL SUR,PREBASICA,ESCUELA DE PARVULOS COLORIN COLORADO,220 ELIAS FERNANDEZ ALBANO,JARDIN INFANTIL
189,663,10000145, , ,PSJE 15,6381,0,LA GRANJA,2210689,6,3000,3200,5.4,1,5,0,15,3,24,0,0,0,0,0,0,0,0,0,241,0,0,0,3,241,0,0,0,0,0,0,1,0,0,0,0,0,0,0,0,0,0,10000145,SANTIAGO,PREBASICA,349942.71691,6290353.37847,PROVINCIAL SUR,PREBASICA,LOS MAGNOLIOS,6381 PSJE 15,JARDIN INFANTIL Y SALA CUNA
190,664,10000053, , ,PSJE 6,6531,0,LA GRANJA,2214115,8,0,0,0,0,1,0,3,3,7,0,0,0,0,0,0,0,0,0,78,0,0,0,3,78,0,0,0,0,0,0,1,0,0,0,0,0,0,0,0,0,0,10000053,SANTIAGO,PREBASICA,349690.67813,6289922.42501,PROVINCIAL SUR,PREBASICA,C.A. YUNGAY,6531 PSJE 6,SALA CUNA
191,666,10000144, , ,8 ORIENTE,6447,0,LA GRANJA,5255204,6,2750,600,2.68,1,1,0,5,1,8,0,0,0,0,0,0,0,0,0,101,0,0,0,3,101,0,0,0,0,0,0,1,0,0,0,0,0,0,0,0,0,0,10000144,SANTIAGO,PREBASICA,348731.94479,6290018.98649,PROVINCIAL SUR,PREBASICA,CUNCUNITAS,6447 8 ORIENTE,JARDIN INFANTIL
192,667,9642 3, ,120,SGTO ALDEA,0,1,LA GRANJA,5585499,3,25000,0,0,1,5,0,0,8,14,0,0,6,0,0,134,0,0,0,270,0,0,0,1,270,0,0,0,0,0,0,1,0,0,0,0,0,0,0,0,0,0,9642 3,SANTIAGO,PREBASICA,348405.03755,6287609.60483,PROVINCIAL SUR,PREBASICA,ESCUELA PARTICULAR TTE DAGOBERTO GODOY,012 093 SGTO ALDEA,JARDIN INFANTIL
193,668,24957 2, ,97,GOBERNADOR MUNOZ GAMERO,1472,1,LA PINTANA,5428713,3,0,0,0,1,0,0,3,12,16,0,0,0,0,0,0,0,0,0,188,0,0,0,3,188,0,0,0,0,0,0,1,0,0,0,0,0,0,0,0,0,0,24957 2,SANTIAGO,PREBASICA,348141.6094,6283146.53829,PROVINCIAL CORDILLERA,PREBASICA,ESCUELA ESPECIAL PLANETA DE NINOS,1472 GOBERNADOR MUNOZ GAMERO,JARDIN INFANTIL Y SALA CUNA
194,669,10000074, , ,DEL SEMBRADOR,2243,0,LA PINTANA,5431541,8,3000,1536,3.48,0,1,0,8,8,17,0,0,0,0,0,0,0,0,0,204,0,0,0,3,204,0,0,0,0,0,0,1,0,0,0,0,0,0,0,0,0,0,10000074,SANTIAGO,PREBASICA,348322.6986,6285589.58031,PROVINCIAL CORDILLERA,PREBASICA,C.A. JUAN PABLO II,2243 DEL SEMBRADOR,SALA CUNA
195,673,10000113, , ,PSJE 10,12916,0,LA PINTANA,5424865,6,400,800,3,1,5,0,16,3,25,0,0,0,0,0,0,0,0,0,284,0,0,0,3,284,0,0,0,0,0,0,1,0,0,0,0,0,0,0,0,0,0,10000113,SANTIAGO,PREBASICA,347553.29644,6282933.86318,PROVINCIAL CORDILLERA,PREBASICA,KIPAI ANTU,12916 PSJE 10,JARDIN INFANTIL Y SALA CUNA
196,675,10000150, , ,PROFE JULIO CHAVEZ,12613,0,LA PINTANA,5452634,6,3300,2250,1.26,1,2,0,4,1,8,0,0,0,0,0,0,0,0,0,134,0,0,0,3,134,0,0,0,0,0,0,1,0,0,0,0,0,0,0,0,0,0,10000150,SANTIAGO,PREBASICA,346275.38735,6283391.87401,PROVINCIAL CORDILLERA,PREBASICA,MILLANTUN,12613 PROFE JULIO CHAVEZ,JARDIN INFANTIL
197,677,10000115, , ,EL JACARANDA,693,0,LA PINTANA,0,6,4000,1925,7.74,1,3,0,12,6,22,0,0,0,0,0,0,0,0,0,216,0,0,0,3,216,0,0,0,0,0,0,1,0,0,0,0,0,0,0,0,0,0,10000115,SANTIAGO,PREBASICA,346075.19102,6282756.34143,PROVINCIAL CORDILLERA,PREBASICA,PUPENI,0693 EL JACARANDA,JARDIN INFANTIL
198,679,10000070, , ,DEPARTAMENTAL TOBALABA,0,0,LA FLORIDA,2845571,8,3000,2000,2,1,1,0,8,2,12,0,0,0,0,1,0,0,0,0,127,0,0,0,3,127,0,0,0,0,0,0,1,0,0,0,0,0,0,0,0,0,0,10000070,SANTIAGO,PREBASICA,355118.84145,6290925.15658,PROVINCIAL CORDILLERA,PREBASICA,CASITA DE JUGUETE,DEPARTAMENTAL TOBALABA,SALA CUNA
199,685,10000072, , ,REINA LUISA LOS PONCIANOS,0,0,LA FLORIDA,2866279,8,0,1393,3.18,0,1,0,11,5,17,0,0,0,0,3,0,0,0,0,171,0,0,0,3,171,0,0,0,0,0,0,1,0,0,0,0,0,0,0,0,0,0,10000072,SANTIAGO,PREBASICA,352953.95075,6290702.3136,PROVINCIAL CORDILLERA,PREBASICA,ARCO IRIS,REINA LUISA LOS PONCIANOS,SALA CUNA
200,688,24414 7, ,1385,SERAFIN ZAMORA,141,1,LA FLORIDA,2832270,4,281000,1335,1.93,2,4,0,0,1,7,0,0,3,3,0,0,0,0,0,117,0,0,0,1,117,0,0,0,0,1,0,1,0,0,0,0,0,0,0,0,0,0,24414 7,SANTIAGO,PREBASICA,351579.60236,6289926.06574,PROVINCIAL CORDILLERA,PREBASICA,ANDY,141 SERAFIN ZAMORA,JARDIN INFANTIL
201,689,24492 9, , ,LA PALOMA,11794,1,LA FLORIDA,2886554,4,320000,260,0,1,4,2,0,0,7,0,0,8,8,6,0,0,0,0,57,0,0,0,1,57,0,0,0,0,1,0,1,0,0,0,0,0,0,0,0,0,0,24492 9,SANTIAGO,PREBASICA,352769.94607,6285731.79761,PROVINCIAL CORDILLERA,PREBASICA,JARDIN INFANTIL TOLIN   TOLAN,11794 LA PALOMA,JARDIN INFANTIL
202,690,24688 3, ,1453,FELIPE II,10397,1,LA FLORIDA,0,4,237000,140,7,1,3,2,0,1,7,0,0,2,2,2,0,0,0,0,35,0,0,0,1,35,0,0,0,0,1,0,1,0,0,0,0,0,0,0,0,0,0,24688 3,SANTIAGO,PREBASICA,352456.05066,6286118.16058,PROVINCIAL CORDILLERA,PREBASICA,VILLA LOS REALES,10397 FELIPE II,JARDIN INFANTIL
203,698,10000131, , ,DR SOTERO DEL RIO & STA RAQUEL,0,0,LA FLORIDA,2910113,6,3300,0,0,0,2,0,3,1,6,0,0,0,0,1,0,0,0,0,79,0,0,0,3,79,0,0,0,0,0,0,1,0,0,0,0,0,0,0,0,0,0,10000131,SANTIAGO,PREBASICA,351178.91396,6287811.79012,PROVINCIAL CORDILLERA,PREBASICA,PARQUE DEL NINO CHILENO,DR SOTERO DEL RIO & STA RAQUEL,JARDIN INFANTIL
204,705,12104 5, ,357,AVENIDA CENTRAL,5916,1,PAC,5210112,3,25000,400,1.4,1,0,0,0,0,2,0,0,0,0,0,0,0,0,0,21,0,0,0,1,21,0,0,0,0,0,0,1,0,0,0,0,0,0,0,0,0,0,12104 5,SANTIAGO,PREBASICA,343286.57326,6292335.24294,PROVINCIAL CENTRO,PREBASICA,MIS CARINOSITOS,5916 AVENIDA CENTRAL,JARDIN INFANTIL
205,708,10000189, , ,LO OVALLE,2300,0,PAC,5236076,6,0,4875,7.14,1,0,0,11,6,21,0,0,0,0,0,0,0,0,0,206,0,0,0,3,206,0,0,0,0,0,0,1,0,0,0,0,0,0,0,0,0,0,10000189,SANTIAGO,PREBASICA,344275.49492,6291126.11225,PROVINCIAL CENTRO,PREBASICA,PEQUENO MUNDO,2300 LO OVALLE,JARDIN INFANTIL
206,711,88883, ,225,ALHUE,3100,0,PAC,5210926,3,95000,241,1.01,1,0,0,0,1,3,0,0,2,0,0,0,0,0,0,31,0,0,0,1,31,0,0,0,0,0,0,1,0,0,0,0,0,0,0,0,0,0,88883,SANTIAGO,PREBASICA,344082.33478,6291847.11717,PROVINCIAL CENTRO,PREBASICA,SAN CARLOS,3100 ALHUE,JARDIN INFANTIL
207,713,10000190, , ,PASEO GRONHUERT,5510,0,PAC,5219897,6,3300,130,9,1,0,0,3,1,5,0,0,0,0,0,0,0,0,0,76,0,0,0,3,76,0,0,0,0,0,0,1,0,0,0,0,0,0,0,0,0,0,10000190,SANTIAGO,PREBASICA,343886.69176,6292374.42291,PROVINCIAL CENTRO,PREBASICA,PRINCIPITO,5511 PASEO GRONHUERT,JARDIN INFANTIL
208,715,10000192, , ,GUANAQUEROS,3210,0,PAC,5213721,6,0,0,0,1,0,0,11,6,21,0,0,0,0,0,0,0,0,0,202,0,0,0,3,202,0,0,0,0,0,0,1,0,0,0,0,0,0,0,0,0,0,10000192,SANTIAGO,PREBASICA,344188.55084,6292455.09097,PROVINCIAL CENTRO,PREBASICA,MIS PRIMEROS PASOS,3210 GUANAQUEROS,JARDIN INFANTIL
209,717,9554 0, ,264,CAHUELMO,6010,0,PAC,5215583,3,0,0,0,1,0,0,0,2,8,0,0,5,0,0,0,0,0,0,215,0,0,0,1,215,0,0,0,0,0,0,1,0,0,0,0,0,0,0,0,0,0,9554 0,SANTIAGO,PREBASICA,344152.45591,6291717.80375,PROVINCIAL CENTRO,PREBASICA,PEDRO F. INIGUEZ,6010 CAHUELMO,JARDIN INFANTIL
210,721,24740 5, ,1476,ALHUE,2589,1,PAC,5215037,4,260000,0,0,1,0,0,0,1,3,0,0,2,0,2,0,0,0,0,31,0,0,0,1,31,0,0,0,0,1,0,1,0,0,0,0,0,0,0,0,0,0,24740 5,SANTIAGO,PREBASICA,344602.78948,6291570.18462,PROVINCIAL CENTRO,PREBASICA,THE CHILDREN'S WORDL,2589 ALHUE,JARDIN INFANTIL
211,725,10000193, , ,CLUB HIPICO,5789,0,PAC,5235060,6,30000,2000,1.2,1,0,0,4,3,9,0,0,4,0,0,0,0,0,0,106,0,0,0,3,106,0,0,0,0,0,0,1,0,0,0,0,0,0,0,0,0,0,10000193,SANTIAGO,PREBASICA,344476.43543,6291759.59204,PROVINCIAL CENTRO,PREBASICA,WE XIPANTA,5789 CLUB HIPICO,JARDIN INFANTIL
212,727,10000057, , ,REUMEN,5735,0,PAC,5212832,8,0,2200,4,0,0,0,4,6,11,0,0,0,0,1,0,0,0,0,114,0,0,0,3,114,0,0,0,0,0,0,1,0,0,0,0,0,0,0,0,0,0,10000057,SANTIAGO,PREBASICA,344938.21669,6291629.99727,PROVINCIAL CENTRO,PREBASICA,LOS MAITENES,5735 REUMEN,SALA CUNA
213,732,10000059, , ,1 DE MAYO,4136,0,PAC,5630067,8,3000,980,4.12,0,0,0,3,15,19,0,0,0,0,0,0,0,0,0,195,0,0,0,3,195,0,0,0,0,0,0,1,0,0,0,0,0,0,0,0,0,0,10000059,SANTIAGO,PREBASICA,344093.36342,6293844.31596,PROVINCIAL CENTRO,PREBASICA,LOS ROBLES,4136 1 DE MAYO,SALA CUNA
214,733,9446 3,E,504,LA MARIQUINA,3244,1,PAC,5630016,1,0,400,2,1,0,1,0,3,16,0,0,2,0,0,0,0,0,0,214,0,0,0,1,214,0,0,0,0,0,0,1,0,0,0,0,0,0,0,0,0,0,9446 3,SANTIAGO,PREBASICA,344072.03241,6293945.54165,PROVINCIAL CENTRO,PREBASICA,RAYITO DE LUZ,3244 LA MARIQUINA,JARDIN INFANTIL
215,737,88884, ,258,BALAKIREFF,4620,0,PAC,5225128,3,1500,333,6.7,0,0,0,0,1,4,0,0,5,3,0,0,0,0,0,53,0,0,0,1,53,0,0,0,0,0,0,1,0,0,0,0,0,0,0,0,0,0,88884,SANTIAGO,PREBASICA,344953.612,6293109.40396,PROVINCIAL CENTRO,PREBASICA,LA RONDA DE SAN MIGUEL,4620 BALAKIREFF,JARDIN INFANTIL
216,739,24741 3, ,1477,LA MARINA,2000,1,PAC,5224675,4,180000,300,8,1,0,0,0,2,4,0,0,0,0,0,0,0,0,0,34,0,0,0,1,34,0,0,0,0,1,0,1,0,0,0,0,0,0,0,0,0,0,24741 3,SANTIAGO,PREBASICA,345222.8111,6292754.62435,PROVINCIAL CENTRO,PREBASICA,ESCUELA DE PARVULOS CARACOL,2000 LA MARINA,JARDIN INFANTIL
217,747,24677 8, ,1444,MAURICIO RUGENDAS,1874,0,MACUL,2217111,4,298000,420,2.1,1,0,1,0,1,7,0,0,2,0,1,0,0,0,0,18,0,0,0,1,18,0,0,0,0,1,0,1,0,0,0,0,0,0,0,0,0,0,24677 8,SANTIAGO,PREBASICA,350250.03591,6291613.09685,PROVINCIAL ORIENTE,PREBASICA,LAKI,1874 MAURICIO RUGENDAS,JARDIN INFANTIL
218,751,24862 2, ,1533,FROILAN ROA,5790,0,MACUL,0,4,560000,0,0,1,0,1,0,1,7,0,0,6,0,0,19,100,0,0,50,0,0,0,1,50,0,0,0,0,1,0,1,0,0,0,0,0,0,0,0,0,0,24862 2,SANTIAGO,PREBASICA,351300.09738,6291406.05814,PROVINCIAL ORIENTE,PREBASICA,PANDORA,5790 FROILAN ROA,JARDIN INFANTIL
219,757,10000035, , ,NVA JOAQUIN RODRIGUEZ,3595,0,MACUL,2219674,8,0,2181,4.9,0,0,0,15,2,19,0,0,0,0,0,0,0,0,0,249,0,0,0,3,249,0,0,0,0,0,0,1,0,0,0,0,0,0,0,0,0,0,10000035,SANTIAGO,PREBASICA,350696.92031,6293507,PROVINCIAL ORIENTE,PREBASICA,C.A. RAILEN,3595 NVA JOAQUIN RODRIGUEZ,SALA CUNA
220,767,24646 8, ,1435,FEDERICO GANA,3707,1,MACUL,2213113,4,525000,400,0,1,0,0,0,1,4,0,0,4,0,2,20,20,0,0,19,0,0,0,1,19,0,0,0,0,1,0,1,0,0,0,0,0,0,0,0,0,0,24646 8,SANTIAGO,PREBASICA,351981.1459,6293488.39392,PROVINCIAL ORIENTE,PREBASICA,RULITO,3707 FEDERICO GANA,JARDIN INFANTIL
221,773,10000102, , ,STA JULIA,2354,0,MACUL,2729292,6,3300,0,0,1,0,0,5,1,9,0,0,0,0,1,0,0,0,0,156,0,0,0,3,156,0,0,0,0,0,0,1,0,0,0,0,0,0,0,0,0,0,10000102,SANTIAGO,PREBASICA,352100.43036,6294794.57143,PROVINCIAL ORIENTE,PREBASICA,SEMILLITAS,2354 STA JULIA,JARDIN INFANTIL
222,782,10000104, , ,CALLE 2,4751,0,MACUL,2712970,6,3300,2068,3.32,1,0,0,4,1,7,0,0,0,0,1,0,0,0,0,104,0,0,0,3,104,0,0,0,0,0,0,1,0,0,0,0,0,0,0,0,0,0,10000104,SANTIAGO,PREBASICA,353138.66277,6295007.19772,PROVINCIAL ORIENTE,PREBASICA,OSITO REGALON,4751 CALLE 2,JARDIN INFANTIL
223,783,9161 8, ,1162,CALLE 2,4631,1,MACUL,2715736,3,7000,0,0,1,0,0,0,3,6,0,0,4,0,1,35,100,0,0,73,0,0,0,1,73,0,0,0,0,0,0,1,0,0,0,0,0,0,0,0,0,0,9161 8,SANTIAGO,PREBASICA,352970.94758,6295049.88621,PROVINCIAL ORIENTE,PREBASICA,REINA DE LA PAZ,4631 CALLE 2,JARDIN INFANTIL
224,787,10000191, , ,AURORA DE CHILE 30 DE OCTUBRE,0,0,PAC,0,6,3000,0,0,1,0,0,3,1,5,0,0,0,0,0,0,0,0,0,43,0,0,0,3,43,0,0,0,0,0,0,1,0,0,0,0,0,0,0,0,0,0,10000191,SANTIAGO,PREBASICA,343993.77398,6293293.84654,PROVINCIAL CENTRO,PREBASICA,PEQUENO AYMARA,AURORA DE CHILE 30 DE OCTUBRE,JARDIN INFANTIL
225,789,10000187, , ,PSJE 5,0,0,PAC,5217282,6,0,0,0,1,0,0,4,1,8,0,0,0,0,0,0,0,0,0,98,0,0,0,3,98,0,0,0,0,0,0,1,0,0,0,0,0,0,0,0,0,0,10000187,SANTIAGO,PREBASICA,343217.26844,6292869.8634,PROVINCIAL CENTRO,PREBASICA,JARDIN INFANTIL FLORECER,S N PSJE 5,JARDIN INFANTIL
226,791,10000103, , ,PSJE AUCOPUJO,2265,0,MACUL,2719753,3,300,0,0,1,0,0,10,3,16,0,0,0,0,1,0,0,0,0,89,0,0,0,3,89,0,0,0,0,0,0,1,0,0,0,0,0,0,0,0,0,0,10000103,SANTIAGO,PREBASICA,352164.17105,6294857.48543,PROVINCIAL ORIENTE,PREBASICA,SALA CUNA PERUCHO,2265 PSJE AUCOPUJO,SALA CUNA
227,795,10000188, , ,ANTONIO D`CAMARA CANTO,3591,0,PAC,6845040,6,3300,0,0,1,0,0,6,1,10,0,0,0,0,0,0,0,0,0,115,0,0,0,3,115,0,0,0,0,0,0,1,0,0,0,0,0,0,0,0,0,0,10000188,SANTIAGO,PREBASICA,343527.30003,6293687.02554,PROVINCIAL CENTRO,PREBASICA,NIDITO DE SOL,3591 ANTONIO DCAMARA CANTO,JARDIN INFANTIL Y SALA CUNA
228,797,10000058, , ,PSJE H,4357,0,PAC,5216400,8,0,1050,3.38,0,0,0,3,11,15,0,0,0,0,3,0,0,0,0,119,0,0,0,3,119,0,0,0,0,0,0,1,0,0,0,0,0,0,0,0,0,0,10000058,SANTIAGO,PREBASICA,343246.40461,6292948.34292,PROVINCIAL CENTRO,PREBASICA,C.A. REBECA IZQUIERDO,4357 PSJE H,SALA CUNA
229,798,9245 2, ,1200,JOSE PEDRO ALESSANDRI,3728,1,MACUL,2211097,4,394000,200,8,2,0,0,0,5,10,0,0,7,7,0,100,0,0,0,100,0,0,0,1,100,0,0,0,0,1,0,1,0,0,0,0,0,0,0,0,0,0,9245 2,SANTIAGO,PREBASICA,351460.31102,6293455.30316,PROVINCIAL ORIENTE,PREBASICA,PAUCAR,3728 JOSE PEDRO ALESSANDRI,JARDIN INFANTIL
230,803,10000105, , ,PSJE 3,5991,0,MACUL,2839587,6,3000,103,4.9,1,0,0,8,2,12,0,0,0,0,0,0,0,0,0,127,0,0,0,3,127,0,0,0,0,0,0,1,0,0,0,0,0,0,0,0,0,0,10000105,SANTIAGO,PREBASICA,351454.84491,6291711.94424,PROVINCIAL ORIENTE,PREBASICA,EL RANCHITO,5991 PSJE 3,JARDIN INFANTIL
231,808,10000153, , ,ANIBAL ZANARTU,10077,0,SAN RAMON,5431550,6,300,0,3.42,1,0,0,5,2,11,0,0,0,0,0,0,0,0,0,206,0,0,0,3,206,0,0,0,0,0,0,1,0,0,0,0,0,0,0,0,0,0,10000153,SANTIAGO,PREBASICA,346925.01276,6286346.41994,PROVINCIAL SUR,PREBASICA,RAYITO DE SOL,10077 ANIBAL ZANARTU,JARDIN INFANTIL
232,812,10000068, , ,SGTO CANDELARIA,2280,0,SAN RAMON,5418852,8,0,0,0,0,0,0,7,7,15,0,0,0,0,0,0,0,0,0,211,0,0,0,3,211,0,0,0,0,0,0,1,0,0,0,0,0,0,0,0,0,0,10000068,SANTIAGO,PREBASICA,348496.34582,6285866.74146,PROVINCIAL SUR,PREBASICA,C.A. CRISOL,2280 SGTO CANDELARIA,SALA CUNA
233,828,10000151, , ,ANIBAL ZANARTU,9133,0,SAN RAMON,5585748,6,0,3182,0,1,0,0,10,2,18,0,0,0,0,0,0,0,0,0,188,0,0,0,3,188,0,0,0,0,0,0,1,0,0,0,0,0,0,0,0,0,0,10000151,SANTIAGO,PREBASICA,347077.61641,6287357,PROVINCIAL SUR,PREBASICA,LIRAYEN,9133 ANIBAL ZANARTU,JARDIN INFANTIL Y SALA CUNA
234,830,11900, ,338,LA GRANJA,8110,0,SAN RAMON,5580440,4,260000,0,0,2,0,0,0,2,13,0,0,2,2,0,0,0,0,0,74,0,0,0,1,74,0,0,0,0,1,0,1,0,0,0,0,0,0,0,0,0,0,11900,SANTIAGO,PREBASICA,346947.61021,6288541.00205,PROVINCIAL SUR,PREBASICA,EL BUEN SAMARITANO,8110 LA GRANJA,JARDIN INFANTIL
235,833,11808 7, ,314,MARIANA CASTRO,1245,1,SAN RAMON,5258955,3,0,95,5,1,0,0,0,1,3,0,0,1,1,0,0,50,0,0,29,0,0,0,1,29,0,0,0,0,0,0,1,0,0,0,0,0,0,0,0,0,0,11808 7,SANTIAGO,PREBASICA,347214.74081,6289391.20438,PROVINCIAL SUR,PREBASICA,SEGUNDO MAURO ORTIZ,1245 MARIANA CASTRO,JARDIN INFANTIL
236,835,11978 4, ,343,AURORA DE CHILE,10019,1,SAN RAMON,496464,4,32000,0,0,1,0,0,0,10,14,0,0,1,0,0,147,100,0,0,147,0,0,0,1,147,0,0,0,0,1,0,1,0,0,0,0,0,0,0,0,0,0,11978 4,SANTIAGO,PREBASICA,347677.03841,6286220.159,PROVINCIAL SUR,PREBASICA,BELEN LA BANDERA,10019 AURORA DE CHILE,JARDIN INFANTIL
237,838,10000067, , ,LA BANDERA,9470,0,SAN RAMON,5278865,8,0,0,0,0,0,0,9,3,13,0,0,0,0,1,0,0,0,0,144,0,0,0,3,144,0,0,0,0,0,0,1,0,0,0,0,0,0,0,0,0,0,10000067,SANTIAGO,PREBASICA,347273.90469,6286822.45,PROVINCIAL SUR,PREBASICA,C.A. INES DE SUAREZ,9470 LA BANDERA,SALA CUNA
238,839,10000152, , ,ALMTE LATORRE,9285,0,SAN RAMON,5417087,6,0,0,0,1,0,0,11,6,22,0,0,0,0,0,0,0,0,0,198,0,0,0,3,198,0,0,0,0,0,0,1,0,0,0,0,0,0,0,0,0,0,10000152,SANTIAGO,PREBASICA,347507.67148,6287167.42536,PROVINCIAL SUR,PREBASICA,LOS CARINOSITOS,9285 ALMTE LATORRE,JARDIN INFANTIL
239,841,10000154, , ,PEDRO AGUIRRE CERDA,8582,0,SAN RAMON,5435895,6,2200,2100,6.84,1,0,0,10,6,20,0,0,0,0,0,0,0,0,0,172,0,0,0,3,172,0,0,0,0,0,0,1,0,0,0,0,0,0,0,0,0,0,10000154,SANTIAGO,PREBASICA,348043.73844,6287906.21621,PROVINCIAL SUR,PREBASICA,PRIMAVERA,8582 PEDRO AGUIRRE CERDA,JARDIN INFANTIL
240,880,24542 9, , ,PIRAMIDE,1050,0,SAN MIGUEL,0,3,100000,0,0,2,0,0,0,2,10,0,0,0,0,0,0,0,0,0,160,0,0,0,1,160,0,0,0,0,0,0,1,0,0,0,0,0,0,0,0,0,0,24542 9,SANTIAGO,PREBASICA,346511.45683,6291955.43145,PROVINCIAL CENTRO,PREBASICA,ESCUELA COLEGIO CHILE NRO.13,1050 PIRAMIDE,JARDIN INFANTIL
241,881,12218 1, ,13,GRAN AVDA JOSE MIGUEL CARRERA,5098,0,SAN MIGUEL,0,2,0,0,0,0,0,0,0,0,0,0,0,0,0,0,0,0,0,0,0,0,0,0,2,0,0,0,0,0,0,0,1,0,0,0,0,0,0,0,0,0,0,12218 1,SANTIAGO,PREBASICA,346419.69219,6292041.15,PROVINCIAL CENTRO,PREBASICA,CHILE  ANEXO,5098 GRAN AVDA JOSE MIGUEL CARRERA,JARDIN INFANTIL
242,889,10000054, , ,BELLO HORIZONTE,5891,0,SAN MIGUEL,5266486,8,0,2250,4.64,0,0,0,8,8,17,0,0,4,0,1,0,0,0,0,205,0,0,0,3,205,0,0,0,0,0,0,1,0,0,0,0,0,0,0,0,0,0,10000054,SANTIAGO,PREBASICA,347637.95625,6290815.95,PROVINCIAL CENTRO,PREBASICA,C.A. LOS BOLDOS,5891 BELLO HORIZONTE,SALA CUNA
243,914,11860 5, ,308,RICARDO MORALES,3140,1,SAN MIGUEL,5541784,4,391000,0,0,2,0,0,0,4,8,0,0,3,3,1,0,0,0,0,50,0,0,0,1,50,0,0,0,0,1,0,1,0,0,0,0,0,0,0,0,0,0,11860 5,SANTIAGO,PREBASICA,346548.29858,6293972.17731,PROVINCIAL CENTRO,PREBASICA,TIA LUCY,3140 RICARDO MORALES,JARDIN INFANTIL
244,921,9575, ,220,RIVAS,750,0,SAN MIGUEL,5553518,4,215000,0,0,1,0,1,0,1,5,0,0,0,0,0,0,0,0,0,38,0,0,0,1,38,0,0,0,0,1,0,1,0,0,0,0,0,0,0,0,0,0,9575,SANTIAGO,PREBASICA,347420.43024,6294453.87397,PROVINCIAL CENTRO,PREBASICA,CENTRO EDUCACIONAL MIS HIJOS,750 RIVAS,JARDIN INFANTIL
245,923,10000065, , ,BERLIOZ,5967,0,SAN JOAQUIN,5266470,8,0,0,0,1,0,0,6,5,13,0,0,0,0,0,0,0,0,0,101,0,0,0,3,101,0,0,0,0,0,0,1,0,0,0,0,0,0,0,0,0,0,10000065,SANTIAGO,PREBASICA,348269.84598,6290749.35,PROVINCIAL CENTRO,PREBASICA,C.A. ALBERTO BERLIOZ,5967 BERLIOZ,SALA CUNA
246,927,12108 8, ,356,GASPAR DE ESPINOZA,5288,1,SAN JOAQUIN,5336348,3,180000,350,1.32,1,0,1,0,2,6,0,0,4,0,1,44,100,0,0,87,0,0,0,1,87,0,0,0,0,0,0,1,0,0,0,0,0,0,0,0,0,0,12108 8,SANTIAGO,PREBASICA,348215.98471,6291571.62707,PROVINCIAL CENTRO,PREBASICA,MI PRINCESITA,5288 GASPAR DE ESPINOZA,JARDIN INFANTIL
247,930,24859 2, ,1530,SEBASTOPOL,349,1,SAN JOAQUIN,5266886,4,27000,0,0,3,0,0,0,1,6,0,0,1,1,1,40,100,0,0,60,0,0,0,1,60,0,0,0,0,0,0,1,0,0,0,0,0,0,0,0,0,0,24859 2,SANTIAGO,PREBASICA,348732.29063,6290314.1125,PROVINCIAL CENTRO,PREBASICA,ESCUELA PARTICULAR DE PARVULOS HANGAROA NRO. 2,349 SEBASTOPOL,JARDIN INFANTIL
248,931,10000156, , ,BENOZZO GOZZOLI,5656,0,SAN JOAQUIN,5262678,6,12500,2040,4.8,1,0,0,3,1,6,0,0,0,0,0,0,0,0,0,94,0,0,0,3,94,0,0,0,0,0,0,1,0,0,0,0,0,0,0,0,0,0,10000156,SANTIAGO,PREBASICA,348805.76797,6291085.9375,PROVINCIAL CENTRO,PREBASICA,JARDIN GENESIS,5656 BENOZZO GOZZOLI,JARDIN INFANTIL Y SALA CUNA
249,940,10000066, , ,LOS COPIHUES,3975,0,SAN JOAQUIN,5531793,8,0,0,0,1,0,0,0,14,15,0,0,0,0,0,0,0,0,0,175,0,0,0,3,175,0,0,0,0,0,0,1,0,0,0,0,0,0,0,0,0,0,10000066,SANTIAGO,PREBASICA,348481.60219,6292903.71588,PROVINCIAL CENTRO,PREBASICA,LOS ALERCES,3975 LOS COPIHUES,JARDIN INFANTIL
250,967,10000099, , ,LOS TORNEROS,6168,0,PENALOLEN,2848728,6,300,0,0,1,0,0,5,1,9,0,0,0,0,0,0,0,0,0,161,0,0,0,3,161,0,0,0,0,0,0,1,0,0,0,0,0,0,0,0,0,0,10000099,SANTIAGO,PREBASICA,353834.53407,6291161.16509,PROVINCIAL ORIENTE,PREBASICA,MONTAHUE,6168 LOS TORNEROS,JARDIN INFANTIL
251,968,88880, , ,PEATONES 9,5368,0,PENALOLEN,2841838,3,30000,1000,3,1,0,2,0,1,10,0,0,7,4,0,0,0,0,0,200,0,0,0,1,200,0,0,0,0,0,0,1,0,0,0,0,0,0,0,0,0,0,88880,SANTIAGO,PREBASICA,353556.2817,6291550.64286,PROVINCIAL ORIENTE,PREBASICA,COLEGIO PARTICULAR SAN FERNANDO,5368 PEATONES 9,JARDIN INFANTIL
252,971,10000042, , ,LA CONCEPCION,6240,0,PENALOLEN,2728629,8,0,920,1.88,0,0,0,6,1,8,0,0,0,0,0,0,0,0,0,119,0,0,0,3,119,0,0,0,0,0,0,1,0,0,0,0,0,0,0,0,0,0,10000042,SANTIAGO,PREBASICA,354084.32344,6294687.975,PROVINCIAL ORIENTE,PREBASICA,C.A. LAS TIAS,6240 LA CONCEPCION,SALA CUNA
253,972,10000101, , ,AFLUENTE,6201,0,PENALOLEN,2727891,6,3000,640,2.73,1,0,0,5,1,8,0,0,0,0,0,0,0,0,0,127,0,0,0,3,127,0,0,0,0,0,0,1,0,0,0,0,0,0,0,0,0,0,10000101,SANTIAGO,PREBASICA,354074.97422,6295342.475,PROVINCIAL ORIENTE,PREBASICA,RAYITO DE LUZ,6201 AFLUENTE,JARDIN INFANTIL
254,977,10000041, , ,AVENIDA GRECIA,6891,0,PENALOLEN,2792512,8,0,3863,6.71,0,0,0,15,3,19,0,0,0,0,0,0,0,0,0,201,0,0,0,3,201,0,0,0,0,0,0,1,0,0,0,0,0,0,0,0,0,0,10000041,SANTIAGO,PREBASICA,354888.96148,6295306.48993,PROVINCIAL ORIENTE,PREBASICA,PENALOLEN,6891 AVENIDA GRECIA,JARDIN INFANTIL
255,986,10000098, , ,AVENIDA LAS PARCELAS,8537,0,PENALOLEN,2792520,6,3300,910,4.14,1,0,0,13,3,21,0,0,0,0,0,0,0,0,0,281,0,0,0,3,281,0,0,0,0,0,0,1,0,0,0,0,0,0,0,0,0,0,10000098,SANTIAGO,PREBASICA,356690.9,6295410.2125,PROVINCIAL ORIENTE,PREBASICA,LOS GRILLITOS,8537 AVENIDA LAS PARCELAS,JARDIN INFANTIL
256,987,10000037, , ,CONSISTORIAL,1667,0,PENALOLEN,2791021,8,0,714,6.29,0,0,0,11,2,14,0,0,0,0,0,0,0,0,0,170,0,0,0,3,170,0,0,0,0,0,0,1,0,0,0,0,0,0,0,0,0,0,10000037,SANTIAGO,PREBASICA,356768.9095,6295194.43662,PROVINCIAL ORIENTE,PREBASICA,C.A. ROSA O'HIGGINS,1667 CONSISTORIAL,SALA CUNA
257,991,24861 4, ,1532,VOLCAN PUYEHUE,651,1,PENALOLEN,5553553,4,283000,450,1.24,1,0,0,0,0,6,0,0,5,0,0,0,0,0,0,36,0,0,0,1,36,0,0,0,0,1,0,1,0,0,0,0,0,0,0,0,0,0,24861 4,SANTIAGO,PREBASICA,357160.18132,6296122.93198,PROVINCIAL ORIENTE,PREBASICA,LOS DOS RATONCITOS,651 VOLCAN PUYEHUE,JARDIN INFANTIL
258,995,10000040, , ,QUEBRADA TALTAL,1769,0,PENALOLEN,2781169,8,0,3470,0,0,0,0,8,3,12,0,0,0,0,0,0,0,0,0,104,0,0,0,3,104,0,0,0,0,0,0,1,0,0,0,0,0,0,0,0,0,0,10000040,SANTIAGO,PREBASICA,358199.33381,6294720.20906,PROVINCIAL ORIENTE,PREBASICA,C.A. VIRGEN MARIA,1769 QUEBRADA TALTAL,SALA CUNA
259,1000,10000096, , ,CALLE 33,6690,0,PENALOLEN,2784004,6,3300,0,4.08,1,0,0,11,2,18,0,0,0,0,1,0,0,0,0,257,0,0,0,3,257,0,0,0,0,0,0,1,0,0,0,0,0,0,0,0,0,0,10000096,SANTIAGO,PREBASICA,354749.664,6295482.94504,PROVINCIAL ORIENTE,PREBASICA,NIDO DE CONDORES,6690 CALLE 33,JARDIN INFANTIL
260,1004,10000095, , ,CRNEL ALEJANDRO SEPULVEDA,2430,0,PENALOLEN,2791250,6,3000,2000,6.36,1,0,0,17,3,26,0,0,0,0,11,0,0,0,0,336,0,0,0,3,336,0,0,0,0,0,0,1,0,0,0,0,0,0,0,0,0,0,10000095,SANTIAGO,PREBASICA,354611.56766,6294870.0789,PROVINCIAL ORIENTE,PREBASICA,CENTRAL LO HERMIDA,2430 CRNEL ALEJANDRO SEPULVEDA,JARDIN INFANTIL Y SALA CUNA
261,1005,24584 4, , ,CALLE 145,6670,1,PENALOLEN,2776715,3,0,0,0,0,0,0,0,0,0,0,0,0,0,0,0,0,0,0,239,0,0,0,2,239,0,0,0,0,0,0,1,0,0,0,0,0,0,0,0,0,0,24584 4,SANTIAGO,PREBASICA,354909.27818,6296120.24255,PROVINCIAL ORIENTE,PREBASICA,ANEXO CENTRO EDUCACIONAL AMERICO VESPUCIO,6670 CALLE 145,JARDIN INFANTIL
262,1011,10000094, , ,CALLE 13 A,1011,0,PENALOLEN,2791019,6,3300,500,2.7,1,0,0,4,6,12,0,0,0,0,0,0,0,0,0,99,0,0,0,3,99,0,0,0,0,0,0,1,0,0,0,0,0,0,0,0,0,0,10000094,SANTIAGO,PREBASICA,355728.54102,6295841.1489,PROVINCIAL ORIENTE,PREBASICA,MUNDO DE NINOS,1011 CALLE 13 A,JARDIN INFANTIL
263,1016,10000062, , ,SAN JAVIER,12270,0,EL BOSQUE,0,8,14300,72,5,0,1,0,3,2,6,0,0,0,0,0,0,0,0,0,60,0,0,0,3,60,0,0,0,0,0,0,1,0,0,0,0,0,0,0,0,0,0,10000062,SANTIAGO,PREBASICA,345807.24787,6283259.29912,PROVINCIAL SUR,PREBASICA,EL TRANQUE,12270 SAN JAVIER,JARDIN INFANTIL
264,1017,10000137, , ,NORTE,1102,0,EL BOSQUE,5598399,6,3000,800,5,1,5,0,16,7,29,0,0,0,0,1,0,0,0,0,296,0,0,0,3,296,0,0,0,0,0,0,1,0,0,0,0,0,0,0,0,0,0,10000137,SANTIAGO,PREBASICA,345718.57259,6285618.58407,PROVINCIAL SUR,PREBASICA,LAURITA VICUNA,1102 NORTE,JARDIN INFANTIL Y SALA CUNA
265,1020,10000097, , ,DEL JARDIN,1566,0,PENALOLEN,2791020,6,2500,35000,0,1,0,0,16,3,25,0,0,0,0,3,0,0,0,0,268,0,0,0,3,268,0,0,0,0,0,0,1,0,0,0,0,0,0,0,0,0,0,10000097,SANTIAGO,PREBASICA,357182.88697,6295260.60119,PROVINCIAL ORIENTE,PREBASICA,COPITO DE NIEVE,1566 DEL JARDIN,JARDIN INFANTIL Y SALA CUNA
266,1023,10000051, , ,P.JOAO GOULART,210,0,LA GRANJA,2211470,8,0,0,0,0,1,0,2,5,8,0,0,0,0,0,0,0,0,0,100,0,0,0,3,100,0,0,0,0,0,0,1,0,0,0,0,0,0,0,0,0,0,10000051,SANTIAGO,PREBASICA,349605.17539,6290467.65921,PROVINCIAL SUR,PREBASICA,C.A. SANTIAGO BUERAS,210 P.JOAO GOULART,SALA CUNA
267,1024,10000155, , ,PSJE 31,227,0,SAN JOAQUIN,2934344,6,2750,397,0,1,0,0,4,1,7,0,0,0,0,0,0,0,0,0,101,0,0,0,3,101,0,0,0,0,0,0,1,0,0,0,0,0,0,0,0,0,0,10000155,SANTIAGO,PREBASICA,349328.68013,6291054.16429,PROVINCIAL CENTRO,PREBASICA,LA LUNA Y EL SOL,227 PSJE 31,JARDIN INFANTIL
268,1026,12248 3, ,358,PTO VARAS,9770,1,LA GRANJA,8504840,3,170000,500,2,2,3,0,0,4,9,0,0,3,0,0,0,0,0,0,60,0,0,0,1,60,0,0,0,0,0,0,1,0,0,0,0,0,0,0,0,0,0,12248 3,SANTIAGO,PREBASICA,350401.14657,6288810.78235,PROVINCIAL SUR,PREBASICA,SOLCITO,9770 PTO VARAS,JARDIN INFANTIL
269,1027,10000100, , ,CHILLAN,4763,0,PENALOLEN,2857302,6,0,450,2.7,1,0,0,5,1,8,0,0,0,0,0,0,0,0,0,133,0,0,0,3,133,0,0,0,0,0,0,1,0,0,0,0,0,0,0,0,0,0,10000100,SANTIAGO,PREBASICA,352930.44974,6291800.91094,PROVINCIAL ORIENTE,PREBASICA,COPIHUES BLANCOS,4763 CHILLAN,JARDIN INFANTIL
270,1028,10000038, , ,CALLE 1,4867,0,PENALOLEN,2935008,8,0,2400,5.05,1,0,0,18,4,24,0,0,0,0,0,0,0,0,0,229,0,0,0,3,229,0,0,0,0,0,0,1,0,0,0,0,0,0,0,0,0,0,10000038,SANTIAGO,PREBASICA,353972.54359,6291963.24717,PROVINCIAL ORIENTE,PREBASICA,C.A. CARMEN KLUG,4867 CALLE 1,SALA CUNA
271,1029,10000039, , ,CALLE A,5757,0,PENALOLEN,2844025,8,0,745,5.05,0,0,0,12,2,15,0,0,0,0,0,0,0,0,0,180,0,0,0,3,180,0,0,0,0,0,0,1,0,0,0,0,0,0,0,0,0,0,10000039,SANTIAGO,PREBASICA,354156.74933,6291648.01768,PROVINCIAL ORIENTE,PREBASICA,C.A. LOS ENANITOS,5757 CALLE A,SALA CUNA
272,1031,10000140, , ,PSJE 24,985,0,EL BOSQUE,0,6,3300,566,1.78,1,0,0,3,1,5,0,0,0,0,0,0,0,0,0,70,0,0,0,3,70,0,0,0,0,0,0,1,0,0,0,0,0,0,0,0,0,0,10000140,SANTIAGO,PREBASICA,343805.53721,6287449.63713,PROVINCIAL SUR,PREBASICA,ZAPATITO AZUL,0985 PSJE 20,JARDIN INFANTIL
273,1035,88885, ,253,LAS QUINTAS,422,0,LA GRANJA,5417720,3,27500,0,0,1,3,0,0,3,7,0,0,4,0,2,250,0,0,0,180,0,0,0,1,180,0,0,0,0,0,0,1,0,0,0,0,0,0,0,0,0,0,88885,SANTIAGO,PREBASICA,348526.97167,6286683.81165,PROVINCIAL SUR,PREBASICA,SAN MARCELO,0422 LAS QUINTAS,JARDIN INFANTIL
274,1042,9222 3, ,1209,EL LIBANO,1209,2,MACUL,0,4,0,0,0,0,0,0,0,0,0,0,0,0,0,0,0,0,0,0,0,0,0,0,0,0,0,0,0,0,0,0,0,0,0,0,0,0,0,0,0,0,0,9222 3,SANTIAGO,PREBASICA,352462.81709,6294403.04658,PROVINCIAL ORIENTE,PREBASICA,ROCKITO,1209 EL LIBANO,JARDIN INFANTIL
275,1046,24649 2, , ,PARQUE I.CARRERA PINTO,1570,1,LA FLORIDA,2862132,4,8000,0,0,1,4,1,0,2,8,0,0,5,0,5,0,0,0,0,70,0,0,0,1,70,0,0,0,0,0,0,1,0,0,0,0,0,0,0,0,0,0,24649 2,SANTIAGO,PREBASICA,352377.08128,6290368.30036,PROVINCIAL CORDILLERA,PREBASICA,JARDIN INFANTIL SAMORITO,1570 PARQUE I.CARRERA PINTO,JARDIN INFANTIL
276,1047,24468 6, , ,AV. PARQUE I. CARRERA PINTO,1570,2,LA FLORIDA,2862132,1,0,0,0,0,0,0,0,0,0,0,0,0,0,0,0,0,0,0,0,0,0,0,0,0,0,0,0,0,0,0,0,0,0,0,0,0,0,0,0,0,0,24468 6,SANTIAGO,PREBASICA,352377.07832,6290368.47206,PROVINCIAL CORDILLERA,PREBASICA,JARDIN INFANTIL SAMORITO,1570 AV. PARQUE I. CARRERA PINTO,JARDIN INFANTIL
277,1048,10000069, , ,LONTANANZA,1866,0,LA FLORIDA,5437087,8,5000,1559,3.1,0,1,0,4,7,12,0,0,0,0,0,0,0,0,0,119,0,0,0,3,119,0,0,0,0,0,0,1,0,0,0,0,0,0,0,0,0,0,10000069,SANTIAGO,PREBASICA,350659.44421,6284470.95112,PROVINCIAL CORDILLERA,PREBASICA,C.A. LOS NAVIOS,1866 LONTANANZA,SALA CUNA
278,1050,10238, ,881,SALOMON SACK,0,0,INDEPENDENCIA,777301,4,268000,0,0,2,4,1,0,1,8,0,0,0,0,0,0,0,0,0,67,0,0,0,1,67,0,0,0,0,1,0,1,0,0,0,0,0,0,0,0,0,0,10238,SANTIAGO,PREBASICA,344313.46432,6301239.65638,PROVINCIAL NORTE,PREBASICA,DICKENS COLLEGE,SALOMON SACK,JARDIN INFANTIL
279,1062,8529 4,E,6,GAMERO,1985,1,INDEPENDENCIA,7772301,1,5000,3560,3.75,1,15,3,0,4,23,0,0,7,0,1,0,0,0,0,212,0,0,0,1,212,0,0,0,0,0,0,1,0,0,0,0,0,0,0,0,0,0,8529 4,SANTIAGO,PREBASICA,345122.1053,6300693.39783,PROVINCIAL NORTE,PREBASICA,ANTU HUILEN,1985 GAMERO,JARDIN INFANTIL
280,1090,8709 2, ,833,FRANCIA,1468,1,INDEPENDENCIA,7772626,3,57000,0,0,2,5,2,0,1,10,0,0,20,20,0,0,0,0,0,44,0,0,0,1,44,0,0,0,0,0,0,1,0,0,0,0,0,0,0,0,0,0,8709 2,SANTIAGO,PREBASICA,345627.52476,6301885.50042,PROVINCIAL NORTE,PREBASICA,JUAN PABLO I,1468 FRANCIA,JARDIN INFANTIL
281,1095,10000001, , ,RODRIGUEZ,1244,0,INDEPENDENCIA,7777863,7,0,86,5.6,0,1,0,6,2,9,0,0,0,0,0,0,0,0,0,56,0,0,0,3,56,0,0,0,0,0,0,1,0,0,0,0,0,0,0,0,0,0,10000001,SANTIAGO,PREBASICA,345953.92098,6302066.43214,PROVINCIAL NORTE,PREBASICA,DOCTORA ELOISA DIAZ,1244 RODRIGUEZ,JARDIN INFANTIL
282,1101,10000197, , ,GUILLLERMO SUBIABRE,759,0,HUECHURABA,2440057,6,2500,1200,7.38,1,5,0,16,8,30,0,0,0,0,0,0,0,0,0,301,0,0,0,3,301,0,0,0,0,0,0,1,0,0,0,0,0,0,0,0,0,0,10000197,SANTIAGO,PREBASICA,347633.02656,6306191.05,PROVINCIAL NORTE,PREBASICA,EL CANELO,759 GUILLLERMO SUBIABRE,JARDIN INFANTIL Y SALA CUNA
283,1105,10000195, , ,LAS AZUCENAS,370,0,HUECHURABA,0,6,300,0,5.49,1,3,0,13,7,24,0,0,0,0,0,0,0,0,0,270,0,0,0,3,270,0,0,0,0,0,0,1,0,0,0,0,0,0,0,0,0,0,10000195,SANTIAGO,PREBASICA,348610.80743,6305711.69763,PROVINCIAL NORTE,PREBASICA,LAS AZUCENAS,370 LAS AZUCENAS,JARDIN INFANTIL
284,1107,10000196, , ,EL PELLIN,5617,0,HUECHURABA,0,6,250,3000,3.96,1,1,0,5,1,8,0,0,0,0,2,0,0,0,0,96,0,0,0,3,96,0,0,0,0,0,0,1,0,0,0,0,0,0,0,0,0,0,10000196,SANTIAGO,PREBASICA,349226.08203,6305517.575,PROVINCIAL NORTE,PREBASICA,LA ARAUCARIA,1650 EL PELLIN,JARDIN INFANTIL
285,1111,10000198, , ,LOS PALTOS,579,0,HUECHURABA,2439035,6,3300,1125,7.56,1,5,0,16,3,25,0,0,0,0,0,0,0,0,0,245,0,0,0,3,245,0,0,0,0,0,0,1,0,0,0,0,0,0,0,0,0,0,10000198,SANTIAGO,PREBASICA,348275.01016,6307142.75,PROVINCIAL NORTE,PREBASICA,RAYEN MAHUI,579 LOS PALTOS,JARDIN INFANTIL Y SALA CUNA
286,1112,10359 4, ,916,PEDRO AGUIRRE CERDA,6336,1,HUECHURABA,6269614,7,0,0,4.4,1,1,0,1,3,6,0,0,0,0,0,0,0,0,0,38,0,0,0,3,38,0,0,0,0,0,0,1,0,0,0,0,0,0,0,0,0,0,10359 4,SANTIAGO,PREBASICA,348197.60932,6307642.25813,PROVINCIAL NORTE,PREBASICA,LUISA DE MARILLAC,6336 PEDRO AGUIRRE CERDA,JARDIN INFANTIL
287,1113,10000023, , ,JACARANDA,591,0,HUECHURABA,6253074,7,2250,320,0,0,1,0,9,8,18,0,0,0,0,0,0,0,0,0,230,0,0,0,3,230,0,0,0,0,0,0,1,0,0,0,0,0,0,0,0,0,0,10000023,SANTIAGO,PREBASICA,348344.18397,6307250.21276,PROVINCIAL NORTE,PREBASICA,C.A. SARGENTO CANDELARIA,591 JACARANDA,SALA CUNA
288,1118,24505 4, ,530,LOS VILOS,4787,1,CONCHALI,7364157,3,6000,300,1.8,3,2,0,0,1,6,0,0,10,4,0,0,0,0,0,61,0,0,0,1,61,0,0,0,0,0,0,1,0,0,0,0,0,0,0,0,0,0,24505 4,SANTIAGO,PREBASICA,343703.94961,6304674.675,PROVINCIAL NORTE,PREBASICA,THE LITTLE SCHOOL   ANEXO,4787 LOS VILOS,JARDIN INFANTIL
289,1123,10000209, , ,CARD JOSE MARIA CARO,1875,0,CONCHALI,0,6,3000,2800,4.87,1,1,0,3,1,6,0,0,0,0,0,0,0,0,0,101,0,0,0,3,101,0,0,0,0,0,0,1,0,0,0,0,0,0,0,0,0,0,10000209,SANTIAGO,PREBASICA,343264.81257,6306087.50121,PROVINCIAL NORTE,PREBASICA,JUANITA AGUIRRE,1875 CARD JOSE MARIA CARO,JARDIN INFANTIL
290,1126,10394 2, ,1164,MONTERREY,2180,1,CONCHALI,7341794,4,252000,0,0,1,2,0,0,2,5,0,0,4,0,1,0,0,0,0,39,0,0,0,1,39,0,0,0,0,1,0,1,0,0,0,0,0,0,0,0,0,0,10394 2,SANTIAGO,PREBASICA,344380.58976,6303310.54301,PROVINCIAL NORTE,PREBASICA,CUA CUA,2180 MONTERREY,JARDIN INFANTIL
291,1129,11943 1, ,1315,FERMIN VIVACETA,4782,1,CONCHALI,6235220,3,176000,0,0,2,3,1,0,1,7,0,0,6,0,1,0,0,0,0,160,0,0,0,1,160,0,0,0,0,0,0,1,0,0,0,0,0,0,0,0,0,0,11943 1,SANTIAGO,PREBASICA,343814.34061,6304752.81571,PROVINCIAL NORTE,PREBASICA,LOS PITUFOS,4782 FERMIN VIVACETA,JARDIN INFANTIL
292,1131,10393 4, ,748,DIEGO SILVA HENRIQUEZ,1762,1,CONCHALI,7362256,3,156000,1350,1.17,1,1,0,0,1,3,0,0,3,0,0,40,0,0,0,80,0,0,0,1,80,0,0,0,0,0,0,1,0,0,0,0,0,0,0,0,0,0,10393 4,SANTIAGO,PREBASICA,343896.39523,6304871.9495,PROVINCIAL NORTE,PREBASICA,STA CATALINA,1762 DIEGO SILVA HENRIQUEZ,JARDIN INFANTIL
293,1139,10000208, , ,ISABEL CARRERA,5780,0,CONCHALI,6232764,6,2750,2868,3.24,1,2,0,5,1,9,0,0,0,0,1,0,0,0,0,149,0,0,0,3,149,0,0,0,0,0,0,1,0,0,0,0,0,0,0,0,0,0,10000208,SANTIAGO,PREBASICA,344139.02317,6306063.33628,PROVINCIAL NORTE,PREBASICA,RAYITO DE SOL,5780 ISABEL CARRERA,JARDIN INFANTIL
294,1143,24806 1, ,1511,LIBRA,1663,1,CONCHALI,7365606,4,225000,160,9.3,1,2,1,0,4,8,0,0,1,0,1,30,20,0,0,51,0,0,0,1,51,0,0,0,0,1,0,1,0,0,0,0,0,0,0,0,0,0,24806 1,SANTIAGO,PREBASICA,344812.25456,6303783.52936,PROVINCIAL NORTE,PREBASICA,LA SEMILLITA,1663 LIBRA,JARDIN INFANTIL
295,1149,10000211, , ,SALAMANCA,3993,0,CONCHALI,0,6,300,1800,3.54,1,1,0,4,1,7,0,0,0,0,0,0,0,0,0,98,0,0,0,3,98,0,0,0,0,0,0,1,0,0,0,0,0,0,0,0,0,0,10000211,SANTIAGO,PREBASICA,345261.61012,6304822.02891,PROVINCIAL NORTE,PREBASICA,CUNCUNITA,3993 SALAMANCA,JARDIN INFANTIL
296,1154,10000206, , ,PUNTILLA,1358,0,CONCHALI,6257344,6,300,0,0,0,4,0,12,2,18,0,0,0,0,0,0,0,0,0,239,0,0,0,3,239,0,0,0,0,0,0,1,0,0,0,0,0,0,0,0,0,0,10000206,SANTIAGO,PREBASICA,345280.94278,6305848.33421,PROVINCIAL NORTE,PREBASICA,QUILLAICITO,1358 PUNTILLA,JARDIN INFANTIL
297,1157,10000026, , ,CAUQUENES,1170,0,CONCHALI,6251490,7,0,2400,4,1,1,0,5,10,17,0,0,0,0,0,0,0,0,0,194,0,0,0,3,194,0,0,0,0,0,0,1,0,0,0,0,0,0,0,0,0,0,10000026,SANTIAGO,PREBASICA,345627.80365,6305482.86114,PROVINCIAL NORTE,PREBASICA,GABRIELA MISTRAL,1170 CAUQUENES,SALA CUNA
298,1159,10000212, , ,BENAJMIN QUEZADA,1229,0,CONCHALI,6252627,6,300,1600,4.32,1,1,0,5,1,8,0,0,0,0,0,0,0,0,0,131,0,0,0,3,131,0,0,0,0,0,0,1,0,0,0,0,0,0,0,0,0,0,10000212,SANTIAGO,PREBASICA,345700.15625,6305080,PROVINCIAL NORTE,PREBASICA,SEMILLITA,1229 BENAJMIN QUEZADA,JARDIN INFANTIL
299,1163,11959 8, ,1300,INDEPENDENCIA,2250,1,INDEPENDENCIA,7370382,4,195000,0,0,1,2,0,0,4,7,0,0,10,0,0,0,0,0,0,77,0,0,0,1,77,0,0,0,0,1,0,1,0,0,0,0,0,0,0,0,0,0,11959 8,SANTIAGO,PREBASICA,345507.62267,6302561.95785,PROVINCIAL NORTE,PREBASICA,ALVARO COVARRUBIAS ARLEGUI,2250 INDEPENDENCIA,JARDIN INFANTIL
300,1164,24904 1, ,1552,INDEPENDENCIA,4218,1,CONCHALI,0,4,192000,1125,6,2,6,0,0,0,8,0,0,6,0,0,0,0,0,0,85,0,0,0,1,85,0,0,0,0,1,0,1,0,0,0,0,0,0,0,0,0,0,24904 1,SANTIAGO,PREBASICA,344150.05305,6304304.34179,PROVINCIAL NORTE,PREBASICA,LOS PICAPIEDRAS,4218 INDEPENDENCIA,JARDIN INFANTIL
301,1167,10000207, , ,PSJE 25,2008,0,CONCHALI,6247475,6,250,3600,0,1,4,0,15,3,23,0,0,0,0,0,0,0,0,0,281,0,0,0,3,281,0,0,0,0,0,0,1,0,0,0,0,0,0,0,0,0,0,10000207,SANTIAGO,PREBASICA,342679.45846,6306506.817,PROVINCIAL NORTE,PREBASICA,LA ARAUCARIA,2008 PSJE 25,JARDIN INFANTIL
302,1168,10000210, , ,FLOR DE ORO,5738,0,CONCHALI,6231535,6,300,1836,2.6,1,2,0,4,1,8,0,0,0,0,0,0,0,0,0,114,0,0,0,3,114,0,0,0,0,0,0,1,0,0,0,0,0,0,0,0,0,0,10000210,SANTIAGO,PREBASICA,342625.82893,6305606.44426,PROVINCIAL NORTE,PREBASICA,FLOR DE ORO,5738 FLOR DE ORO,JARDIN INFANTIL
303,1191,8987 7, ,730,JOSE MIGUEL CLARO,570,1,PROVIDENCIA,2359341,4,450000,0,0,1,0,2,0,9,16,0,0,0,0,0,60,100,0,0,60,0,0,0,1,60,0,0,0,0,1,0,1,0,0,0,0,0,0,0,0,0,0,8987 7,SANTIAGO,PREBASICA,349510.79613,6299382.4663,PROVINCIAL ORIENTE,PREBASICA,MAMPATO,570 JOSE MIGUEL CLARO,JARDIN INFANTIL
304,1203,10000064, , ,CAUPOLICAN,1161,0,PROVIDENCIA,2259902,8,0,0,0,0,0,0,4,5,10,0,0,0,0,0,0,0,0,0,85,0,0,0,3,85,0,0,0,0,0,0,1,0,0,0,0,0,0,0,0,0,0,10000064,SANTIAGO,PREBASICA,351808.27087,6298367.84365,PROVINCIAL ORIENTE,PREBASICA,SANTA ISABEL,1161 CAUPOLICAN,JARDIN INFANTIL
305,1228,8969 9, ,1133,BUSTOS,2040,1,PROVIDENCIA,2746013,4,854500,600,2,2,0,1,0,1,7,0,0,0,0,0,0,0,0,0,50,0,0,0,1,50,0,0,0,0,1,0,1,0,0,0,0,0,0,0,0,0,0,8969 9,SANTIAGO,PREBASICA,350741.40155,6298780.0465,PROVINCIAL ORIENTE,PREBASICA,THE ANGELS SCHOOL,2040 BUSTOS,JARDIN INFANTIL
306,1229,10000063, , ,EL AGUILUCHO,3515,0,PROVIDENCIA,2257167,8,0,0,0,0,0,0,1,6,8,0,0,0,0,0,0,0,0,0,81,0,0,0,3,81,0,0,0,0,0,0,1,0,0,0,0,0,0,0,0,0,0,10000063,SANTIAGO,PREBASICA,351819.10457,6298514.79598,PROVINCIAL ORIENTE,PREBASICA,C.A. SAN JOSE,3515 EL AGUILUCHO,SALA CUNA
307,1261,8967 2, ,1198,LAS CAMELIAS,2869,1,PROVIDENCIA,2322153,4,660000,1000,5,2,0,1,0,2,12,0,0,2,0,1,0,100,0,0,64,0,0,0,1,64,0,0,0,0,1,0,1,0,0,0,0,0,0,0,0,0,0,8967 2,SANTIAGO,PREBASICA,351519.92126,6300731.24777,PROVINCIAL ORIENTE,PREBASICA,PIMPINO'S GARDEN,2869 LAS CAMELIAS,JARDIN INFANTIL
308,1286,10000093, , ,GUILLERMO MANN,1355,0,NUNOA,2374723,6,3300,2996,5.76,1,0,0,8,2,12,0,0,0,0,1,0,0,0,0,197,0,0,0,3,197,0,0,0,0,0,0,1,0,0,0,0,0,0,0,0,0,0,10000093,SANTIAGO,PREBASICA,349637.36793,6295357.62563,PROVINCIAL ORIENTE,PREBASICA,AREAS VERDES,1355 GUILLERMO MANN,JARDIN INFANTIL
309,1288,10000036, , ,GUILLERMO MANN,1850,0,NUNOA,2387091,8,0,0,0,1,0,0,13,9,24,0,0,0,0,2,0,0,0,0,167,0,0,0,3,167,0,0,0,0,0,0,1,0,0,0,0,0,0,0,0,0,0,10000036,SANTIAGO,PREBASICA,350089.69049,6295397.48245,PROVINCIAL ORIENTE,PREBASICA,C.A. SOL NACIENTE,1850 GUILLERMO MANN,SALA CUNA
310,1289,10000085, , ,GUILLERMO MANN,2147,0,NUNOA,2384776,6,3300,985,4.86,1,0,0,9,4,16,0,0,0,0,0,0,0,0,0,156,0,0,0,3,156,0,0,0,0,0,0,1,0,0,0,0,0,0,0,0,0,0,10000085,SANTIAGO,PREBASICA,350429.29688,6295424.5,PROVINCIAL ORIENTE,PREBASICA,ISABEL RIQUELME,2147 GUILLERMO MANN,JARDIN INFANTIL
311,1323,9169 3, ,904,LOS ALERCES,3207,0,NUNOA,2383904,4,260000,650,3.5,2,0,0,0,8,17,0,0,3,1,1,0,0,0,0,100,0,0,0,1,100,0,0,0,0,1,0,1,0,0,0,0,0,0,0,0,0,0,9169 3,SANTIAGO,PREBASICA,351573.98425,6295380.87179,PROVINCIAL ORIENTE,PREBASICA,SAN SEBASTIAN ROMANO,3207 LOS ALERCES,JARDIN INFANTIL
312,1326,24495 3, , ,LOS ALERCES,3207,1,NUNOA,2383904,4,552000,700,5,1,0,0,0,8,16,0,0,3,1,0,80,20,0,0,50,0,0,0,1,50,0,0,0,0,1,0,1,0,0,0,0,0,0,0,0,0,0,24495 3,SANTIAGO,PREBASICA,351573.98425,6295380.87179,PROVINCIAL ORIENTE,PREBASICA,LOS PITUFINES,3207 LOS ALERCES,JARDIN INFANTIL
313,1352,10000086, , ,EDUARDO CASTILLO VELASCO,4660,0,NUNOA,2716838,6,3300,0,0,1,0,0,4,1,7,0,0,0,0,0,0,0,0,0,101,0,0,0,3,101,0,0,0,0,0,0,1,0,0,0,0,0,0,0,0,0,0,10000086,SANTIAGO,PREBASICA,353047.25656,6296565.6098,PROVINCIAL ORIENTE,PREBASICA,CAMPANITA,4660 EDUARDO CASTILLO VELASCO,JARDIN INFANTIL
314,1353,10000088, , ,LAS REGATAS,1116,0,NUNOA,2715960,6,0,600,2.5,1,0,0,4,1,7,0,0,0,0,1,0,0,0,0,104,0,0,0,3,104,0,0,0,0,0,0,1,0,0,0,0,0,0,0,0,0,0,10000088,SANTIAGO,PREBASICA,353403.65734,6296014.46511,PROVINCIAL ORIENTE,PREBASICA,PIN PILIN,1116 LAS REGATAS,JARDIN INFANTIL
315,1357,24851 7, , ,SIMON BOLIVAR,0,1,NUNOA,0,4,800000,400,1.2,1,0,0,0,2,5,0,0,0,0,1,20,100,0,0,32,0,0,0,1,32,0,0,0,0,1,0,1,0,0,0,0,0,0,0,0,0,0,24851 7,SANTIAGO,PREBASICA,352490.64168,6297890.9719,PROVINCIAL ORIENTE,PREBASICA,MI RINCON,4106 E SIMON BOLIVAR,JARDIN INFANTIL
316,1361,9262 2, ,1211,SALITRE,5110,1,NUNOA,2775234,4,568000,600,3,2,0,7,0,9,22,0,0,3,2,0,0,0,0,0,130,0,0,0,1,130,0,0,0,0,1,0,1,0,0,0,0,0,0,0,0,0,0,9262 2,SANTIAGO,PREBASICA,353399.00345,6298240.9018,PROVINCIAL ORIENTE,PREBASICA,JARDIN INFANTIL MUSICAL DON OSITO,5110 SALITRE,JARDIN INFANTIL
317,1363,10000091, , ,PSJE 9,4850,0,NUNOA,2775472,6,0,2128,5.46,1,0,0,10,2,16,0,0,0,0,0,0,0,0,0,183,0,0,0,3,183,0,0,0,0,0,0,1,0,0,0,0,0,0,0,0,0,0,10000091,SANTIAGO,PREBASICA,353099.35466,6298726.02476,PROVINCIAL ORIENTE,PREBASICA,AMAPOLAS,4850 PSJE 9,JARDIN INFANTIL Y SALA CUNA
318,1370,9265 7, ,1203,HERIBERTO COVARRUBIAS,729,1,NUNOA,2269895,4,363000,600,2.5,1,0,1,0,1,9,0,0,2,0,1,40,100,0,0,64,0,0,0,1,64,0,0,0,0,1,0,1,0,0,0,0,0,0,0,0,0,0,9265 7,SANTIAGO,PREBASICA,353754.87358,6298032.53525,PROVINCIAL ORIENTE,PREBASICA,ASERRIN,729 HERIBERTO COVARRUBIAS,JARDIN INFANTIL
319,1379,10000081, , ,SAN MATEO,13269,0,LO BARNECHEA,2166108,6,3300,2064,0,1,0,0,13,3,21,0,0,0,0,0,0,0,0,0,220,0,0,0,3,220,0,0,0,0,0,0,1,0,0,0,0,0,0,0,0,0,0,10000081,SANTIAGO,PREBASICA,359487.04688,6307601.5,PROVINCIAL ORIENTE,PREBASICA,SAN LUCAS,13269 SAN MATEO,JARDIN INFANTIL Y SALA CUNA
320,1387,10000050, , ,LOS ARENEROS,0,0,LO BARNECHEA,2168944,8,0,0,0,1,0,0,1,1,4,0,0,0,0,0,0,0,0,0,28,0,0,0,3,28,0,0,0,0,0,0,1,0,0,0,0,0,0,0,0,0,0,10000050,SANTIAGO,PREBASICA,360174.82516,6307476.25854,PROVINCIAL ORIENTE,PREBASICA,LAS LOMAS,48 A LOS ARENEROS,JARDIN INFANTIL
321,1390,10000049, , ,MANZANA 1 SITIO,0,0,LO BARNECHEA,215457,8,0,371,1.12,1,0,0,1,4,7,0,0,0,0,1,0,0,0,0,70,0,0,0,3,70,0,0,0,0,0,0,1,0,0,0,0,0,0,0,0,0,0,10000049,SANTIAGO,PREBASICA,360482.68008,6307395.96875,PROVINCIAL ORIENTE,PREBASICA,QUINCHAMALI,32B MANZANA 1 SITIO,JARDIN INFANTIL
322,1424,24857 6, , ,ISABEL LA CATOLICA,6326,1,LAS CONDES,2290058,4,643000,0,0,0,0,0,0,1,2,0,0,4,2,6,25,0,0,0,10,0,0,0,1,10,0,0,0,0,1,0,1,0,0,0,0,0,0,0,0,0,0,24857 6,SANTIAGO,PREBASICA,354831.8488,6300529.175,PROVINCIAL ORIENTE,PREBASICA,ANEXO CRECES,6326 ISABEL LA CATOLICA,JARDIN INFANTIL
323,1426,99996, , ,LATADIA,6858,0,LAS CONDES,2243307,4,747500,400,3,0,0,0,0,1,11,0,0,10,10,0,0,0,0,0,80,0,0,0,1,80,0,0,0,0,1,0,1,0,0,0,0,0,0,0,0,0,0,99996,SANTIAGO,PREBASICA,355125.91251,6300324.5014,PROVINCIAL ORIENTE,PREBASICA,SAN JUAN EVANGELISTA,6858 LATADIA,JARDIN INFANTIL
324,1438,24630 1, ,1429,LAS CONDES,7568,1,LAS CONDES,2208491,4,640000,1000,3,1,0,0,0,2,21,0,0,5,5,8,0,0,0,0,100,0,0,0,1,100,0,0,0,0,1,0,1,0,0,0,0,0,0,0,0,0,0,24630 1,SANTIAGO,PREBASICA,355457.28047,6303164.45,PROVINCIAL ORIENTE,PREBASICA,HAPPY DAY,7568 LAS CONDES,JARDIN INFANTIL
325,1440,24850 9, ,1527,LAS TRANQUERAS,495,1,LAS CONDES,2018919,4,625000,475,1.9,2,0,0,0,1,12,0,0,4,2,2,0,0,0,0,65,0,0,0,1,65,0,0,0,0,1,0,1,0,0,0,0,0,0,0,0,0,0,24850 9,SANTIAGO,PREBASICA,355520.71975,6303761.97178,PROVINCIAL ORIENTE,PREBASICA,ALEXANDER MONTESSORI PRESCHOOL,495  LAS TRANQUERAS,JARDIN INFANTIL
326,1441,8844 7, ,1060,CURACO,1886,1,LAS CONDES,2116176,2,0,0,0,0,0,0,0,0,0,0,0,0,0,0,0,0,0,0,0,0,0,0,2,0,0,0,0,0,0,0,1,0,0,0,0,0,0,0,0,0,0,8844 7,SANTIAGO,PREBASICA,356018.6446,6300170.33008,PROVINCIAL ORIENTE,PREBASICA,EL CANELO,1886 CURACO,JARDIN INFANTIL
327,1442,10000045, , ,RUCALHUE,1748,0,LAS CONDES,2118709,8,1500,0,0,1,0,0,1,12,17,0,0,10,0,1,0,0,0,0,86,0,0,0,3,86,0,0,0,0,0,0,1,0,0,0,0,0,0,0,0,0,0,10000045,SANTIAGO,PREBASICA,356050.19062,6300346.8625,PROVINCIAL ORIENTE,PREBASICA,TERESITA DE JESUS,1748 RUCALHUE,SALA CUNA
328,1448,8853 6, ,1061,EL TROMBON,7557,1,LAS CONDES,2292436,3,0,1097,4.88,1,0,11,0,4,20,0,0,8,8,10,180,100,0,0,170,0,0,0,1,170,0,0,0,0,0,0,1,0,0,0,0,0,0,0,0,0,0,8853 6,SANTIAGO,PREBASICA,356246.04766,6302833.075,PROVINCIAL ORIENTE,PREBASICA,LAS CAMELIAS,7557 EL TROMBON,JARDIN INFANTIL
329,1449,10000044, , ,AYQUINA,1751,0,LAS CONDES,2113626,8,0,290,1.89,1,0,0,4,4,11,0,0,0,0,1,0,0,0,0,228,0,0,0,3,228,0,0,0,0,0,0,1,0,0,0,0,0,0,0,0,0,0,10000044,SANTIAGO,PREBASICA,356789.68623,6300451.89888,PROVINCIAL ORIENTE,PREBASICA,FRANCISCO DE ASIS,1751 AYQUINA,SALA CUNA
330,1452,10000046, , ,ISLA MOCHA,9200,0,LAS CONDES,2122952,8,5000,480,2.36,1,0,0,0,9,11,0,0,0,0,1,0,0,0,0,79,0,0,0,3,79,0,0,0,0,0,0,1,0,0,0,0,0,0,0,0,0,0,10000046,SANTIAGO,PREBASICA,357420.87046,6301610.05611,PROVINCIAL ORIENTE,PREBASICA,CARMELITA CARVAJAL,9200 ISLA MOCHA,JARDIN INFANTIL
331,1486,24780 4, ,750,JULIO MONTEBRUNO,701,1,LA REINA,2261268,4,410000,665,1.11,1,0,0,0,6,10,0,0,4,0,0,45,40,0,0,84,0,0,0,1,84,0,0,0,0,1,0,1,0,0,0,0,0,0,0,0,0,0,24780 4,SANTIAGO,PREBASICA,355118.83203,6296804.25,PROVINCIAL ORIENTE,PREBASICA,CHISPITAS,701 JULIO MONTEBRUNO,JARDIN INFANTIL
332,1491,12134 7, ,1189,SIMON BOLIVAR,7240,1,LA REINA,2276211,4,445000,400,1.4,1,0,0,0,0,4,0,0,3,1,0,0,0,0,0,34,0,0,0,1,34,0,0,0,0,1,0,1,0,0,0,0,0,0,0,0,0,0,12134 7,SANTIAGO,PREBASICA,355431.27725,6298286.45366,PROVINCIAL ORIENTE,PREBASICA,NIDO DE GAVIOTAS,7240 SIMON BOLIVAR,JARDIN INFANTIL Y SALA CUNA
333,1495,9057 3, ,1104,SIMON GONZALEZ,8848,0,LA REINA,2731515,4,404000,0,0,1,0,0,0,0,4,0,0,1,0,1,0,0,0,0,18,0,0,0,1,18,0,0,0,0,1,0,1,0,0,0,0,0,0,0,0,0,0,9057 3,SANTIAGO,PREBASICA,356868.2791,6298220.55912,PROVINCIAL ORIENTE,PREBASICA,FARMHOUSE SCHOOL,8848 SIMON GONZALEZ,JARDIN INFANTIL
334,1501,9052 2, ,771,ARIOSTO,7369,1,LA REINA,2270362,4,485000,193,1.13,2,0,0,0,1,8,0,0,5,2,0,37,100,0,0,37,0,0,0,1,37,0,0,0,0,1,0,1,0,0,0,0,0,0,0,0,0,0,9052 2,SANTIAGO,PREBASICA,355501.81179,6299626.2168,PROVINCIAL ORIENTE,PREBASICA,LOS TROMPITOS,7369 ARIOSTO,JARDIN INFANTIL
335,1505,10000084, , ,QUILLAPUA,529,0,LA REINA,2739360,6,3300,3150,0,0,0,0,16,3,25,0,0,0,0,0,0,0,0,0,305,0,0,0,3,305,0,0,0,0,0,0,1,0,0,0,0,0,0,0,0,0,0,10000084,SANTIAGO,PREBASICA,357539.69449,6296998.225,PROVINCIAL ORIENTE,PREBASICA,PAIDAHUE,529 QUILLAGUA,JARDIN INFANTIL Y SALA CUNA
336,1516,8912 5, ,1138,CRISTOBAL COLON,5855,1,LAS CONDES,2283191,4,570000,250,9,1,0,3,0,3,10,0,0,2,2,10,0,0,0,0,35,0,0,0,1,35,0,0,0,0,1,0,1,0,0,0,0,0,0,0,0,0,0,8912 5,SANTIAGO,PREBASICA,354408.85905,6301398.06758,PROVINCIAL ORIENTE,PREBASICA,MY MELODY KINDERGARTEN SCHOOL,5855 CRISTOBAL COLON,JARDIN INFANTIL
337,1529,10000089, , ,NVA1,1626,0,NUNOA,2386510,6,3300,675,4.6,1,0,0,5,1,9,0,0,0,0,6,0,0,0,0,130,0,0,0,3,130,0,0,0,0,0,0,1,0,0,0,0,0,0,0,0,0,0,10000089,SANTIAGO,PREBASICA,349925.43519,6295476.80546,PROVINCIAL ORIENTE,PREBASICA,TIERRA DE NINOS,1626 NVA1,JARDIN INFANTIL Y SALA CUNA
338,1530,66664, , ,MARIANO SANCHEZ FONTECILLA,1596,0,LAS CONDES,2079784,4,755000,404,1.28,0,0,3,0,1,6,0,0,2,2,0,0,0,0,0,25,0,0,0,1,25,0,0,0,0,0,0,1,0,0,0,0,0,0,0,0,0,0,66664,SANTIAGO,PREBASICA,352574.48514,6299996.33118,PROVINCIAL ORIENTE,PREBASICA,COLEGIO COYANCURA,1596 MARIANO SANCHEZ FONTECILLA,JARDIN INFANTIL
339,1531,10000087, , ,BROWN SUR,1740,0,NUNOA,2711111,6,0,0,0,1,0,0,6,1,10,0,0,0,0,0,0,0,0,0,162,0,0,0,3,162,0,0,0,0,0,0,1,0,0,0,0,0,0,0,0,0,0,10000087,SANTIAGO,PREBASICA,351866.28145,6295272.87212,PROVINCIAL ORIENTE,PREBASICA,LICAN RAY,1740 BROWN SUR,JARDIN INFANTIL
340,1532,10000048, , ,MEDINA,14209,0,LO BARNECHEA,0,8,0,2244,0,0,0,0,2,22,25,0,0,0,0,0,0,0,0,0,249,0,0,0,3,249,0,0,0,0,0,0,1,0,0,0,0,0,0,0,0,0,0,10000048,SANTIAGO,PREBASICA,360131.93906,6308247.87474,PROVINCIAL ORIENTE,PREBASICA,SANTA ROSA,14209 MEDINA,JARDIN INFANTIL
341,1535,10000082, , ,LOS PEHUENCHES,9080,0,LAS CONDES,0,6,3000,967,2.64,1,0,0,3,1,5,0,0,0,0,0,0,0,0,0,74,0,0,0,3,74,0,0,0,0,0,0,1,0,0,0,0,0,0,0,0,0,0,10000082,SANTIAGO,PREBASICA,357064.7964,6301804.96934,PROVINCIAL ORIENTE,PREBASICA,PEHUENCHES,9080 LOS PEHUENCHES,JARDIN INFANTIL
342,1543,10000083, , ,ISLA MOCHA,9160,0,LAS CONDES,2290089,6,3300,1554,2.58,1,0,0,4,1,7,0,0,0,0,1,0,0,0,0,119,0,0,0,3,119,0,0,0,0,0,0,1,0,0,0,0,0,0,0,0,0,0,10000083,SANTIAGO,PREBASICA,357309.2683,6301645.47707,PROVINCIAL ORIENTE,PREBASICA,EL SAUCE,9160 ISLA MOCHA,JARDIN INFANTIL
343,1551,10000043, , ,PINTOR TOMAS SOMERSCALES,7950,0,LAS CONDES,0,8,5000,171,1.14,1,0,0,5,19,26,0,0,21,0,1,0,0,0,0,218,0,0,0,3,218,0,0,0,0,0,0,1,0,0,0,0,0,0,0,0,0,0,10000043,SANTIAGO,PREBASICA,355998.378,6300660.65838,PROVINCIAL ORIENTE,PREBASICA,LEONOR SOLAR,7950 PINTOR TOMAS SOMERSCALES,JARDIN INFANTIL
344,1552,10000047, , ,EL EUCALIPTUS,0,0,LO BARNECHEA,2173067,8,0,330,8.3,1,0,0,1,1,4,0,0,0,0,0,0,0,0,0,30,0,0,0,3,30,0,0,0,0,0,0,1,0,0,0,0,0,0,0,0,0,0,10000047,SANTIAGO,PREBASICA,359141.10275,6306815.4983,PROVINCIAL ORIENTE,PREBASICA,EL AROMITO,S N EL EUCALIPTUS,JARDIN INFANTIL
345,1555,10000090, , ,CALLE 8,1669,0,NUNOA,2711098,6,3300,1923,6,1,0,0,4,1,8,0,0,0,0,0,0,0,0,0,158,0,0,0,3,158,0,0,0,0,0,0,1,0,0,0,0,0,0,0,0,0,0,10000090,SANTIAGO,PREBASICA,352841.66884,6295434.14762,PROVINCIAL ORIENTE,PREBASICA,GIRASOL,1699 CALLE 8,JARDIN INFANTIL Y SALA CUNA
346,1557,10000092, , ,QUILLAGUA,3900,0,NUNOA,2711097,6,3300,2126,2.7,1,0,0,4,1,7,0,0,0,0,0,0,0,0,0,105,0,0,0,3,105,0,0,0,0,0,0,1,0,0,0,0,0,0,0,0,0,0,10000092,SANTIAGO,PREBASICA,352145.35646,6295729.08404,PROVINCIAL ORIENTE,PREBASICA,MUNDO MARAVILLOZO,3900 QUILLAGUA,JARDIN INFANTIL
347,1588,10000203, , ,BOMB CARLOS RIGOTTI,3221,0,RECOLETA,6228186,6,0,1110,2.88,0,0,0,4,1,7,0,0,0,0,0,0,0,0,0,104,0,0,0,3,104,0,0,0,0,0,0,1,0,0,0,0,0,0,0,0,0,0,10000203,SANTIAGO,PREBASICA,348313.94666,6303581.46049,PROVINCIAL NORTE,PREBASICA,HEIDY,3221 BOMB CARLOS RIGOTTI,JARDIN INFANTIL Y SALA CUNA
348,1589,10000201, , ,STA ANA,3384,0,RECOLETA,6226207,6,3000,15625,0,1,0,0,10,3,17,0,0,0,0,0,0,0,0,0,199,0,0,0,3,199,0,0,0,0,0,0,1,0,0,0,0,0,0,0,0,0,0,10000201,SANTIAGO,PREBASICA,348316.99083,6303957.53111,PROVINCIAL NORTE,PREBASICA,PEQUITAS,3384 STA ANA,JARDIN INFANTIL Y SALA CUNA
349,1590,10000186, , ,CONFERENCIA,0,0,SANTIAGO,6831253,6,2500,540,3.38,1,0,0,3,1,6,0,0,0,0,1,0,0,0,0,84,0,0,0,3,84,0,0,0,0,0,0,1,0,0,0,0,0,0,0,0,0,0,10000186,SANTIAGO,PREBASICA,344391.86659,6296156.76484,PROVINCIAL CENTRO,PREBASICA,LOS CACHORRITOS,1083 CONFERENCIA,SALA CUNA
350,1601,24643 3, , ,LAS HUALTATAS,5754,1,VITACURA,2207740,4,893700,5600,0,1,0,1,0,2,24,0,0,10,0,30,300,0,0,0,240,0,0,0,1,240,0,0,0,0,1,0,1,0,0,0,0,0,0,0,0,0,0,24643 3,SANTIAGO,PREBASICA,353603.97728,6303736.98143,PROVINCIAL ORIENTE,PREBASICA,COLEGIO ALEMAN DE SANTIAGO,5754 LAS HUALTATAS,JARDIN INFANTIL
351,1614,24679 4, ,1446,LAS HUALTATAS,7177,1,VITACURA,2193831,4,575000,300,1.8,1,0,0,0,1,8,0,0,1,0,0,0,0,0,0,27,0,0,0,1,27,0,0,0,0,1,0,1,0,0,0,0,0,0,0,0,0,0,24679 4,SANTIAGO,PREBASICA,354849.57319,6304298.38833,PROVINCIAL ORIENTE,PREBASICA,LITTLE STARS,7177 LAS HUALTATAS,JARDIN INFANTIL
352,1615,24425 2, ,1380,VITACURA,7867,0,VITACURA,2119877,4,660000,250,1.2,1,0,0,0,1,6,0,0,2,0,0,20,100,0,0,25,0,0,0,1,25,0,0,0,0,1,0,1,0,0,0,0,0,0,0,0,0,0,24425 2,SANTIAGO,PREBASICA,355071.04794,6304893.82321,PROVINCIAL ORIENTE,PREBASICA,CAMPANITA MONTESSORI CHILDREN'S,7867 VITACURA,JARDIN INFANTIL
353,1655,8807 2, ,1103,GRAJALES,2146,1,SANTIAGO,6722535,4,315000,200,1,1,0,0,0,1,5,0,0,1,0,1,0,0,0,0,34,0,0,0,1,34,0,0,0,0,1,0,1,0,0,0,0,0,0,0,0,0,0,8807 2,SANTIAGO,PREBASICA,345291.33338,6297421.41597,PROVINCIAL CENTRO,PREBASICA,PELUSIN,2146 GRAJALES,JARDIN INFANTIL
354,1669,24639 5, , ,AGUSTINAS,2682,1,SANTIAGO,6818609,1,10000,0,0,1,0,5,0,2,16,0,0,72,32,0,0,0,0,0,266,0,0,0,1,266,0,0,0,0,0,0,1,0,0,0,0,0,0,0,0,0,0,24639 5,SANTIAGO,PREBASICA,344564.88886,6298349.39388,PROVINCIAL CENTRO,PREBASICA,MIGUEL DE CERVANTES Y SAAVEDRA  ANEXO,2682 AGUSTINAS,JARDIN INFANTIL
355,1681,8809 9, ,1146,ARZ .GONZALEZ,479,1,SANTIAGO,6993144,4,345000,295,3.51,2,0,0,0,6,12,0,0,5,3,0,0,0,0,0,72,0,0,0,1,72,0,0,0,0,1,0,1,0,0,0,0,0,0,0,0,0,0,8809 9,SANTIAGO,PREBASICA,344899.1277,6298778.3842,PROVINCIAL CENTRO,PREBASICA,HEYDDIE,479 ARZ.GONZALEZ,JARDIN INFANTIL
356,1718,8802, ,1013,SGTO ALDEA,1057,4,SANTIAGO,569454,4,830000,900,7,6,0,3,0,2,18,0,0,4,0,2,0,0,0,0,130,0,0,0,1,130,0,0,0,0,1,0,1,0,0,0,0,0,0,0,0,0,0,8802,SANTIAGO,PREBASICA,346942.74556,6295582.522,PROVINCIAL CENTRO,PREBASICA,INSTITUCION SWEET,1057 SGTO ALDEA,JARDIN INFANTIL
357,1832,24701 4, ,1457,MEXICO,1142,1,INDEPENDENCIA,6215492,4,260000,0,0,1,0,0,0,1,4,0,0,2,0,0,0,0,0,0,19,0,0,0,1,19,0,0,0,0,1,0,1,0,0,0,0,0,0,0,0,0,0,24701 4,SANTIAGO,PREBASICA,346225.56398,6302492.96253,PROVINCIAL NORTE,PREBASICA,GARVALIN EL PELUSITA,1142 MEXICO,JARDIN INFANTIL
358,1839,10000204, , ,NORTE,498,0,RECOLETA,6212420,6,3300,1798,3.51,1,0,0,7,2,11,0,0,0,0,0,0,0,0,0,182,0,0,0,3,182,0,0,0,0,0,0,1,0,0,0,0,0,0,0,0,0,0,10000204,SANTIAGO,PREBASICA,347504.25406,6302990.31323,PROVINCIAL NORTE,PREBASICA,BAMBI,498 NORTE,JARDIN INFANTIL
359,1840,10000199, , ,EL GUANACO,3914,0,RECOLETA,6257331,6,2750,3327,0,1,0,0,15,7,28,0,0,0,0,1,0,0,0,0,278,0,0,0,3,278,0,0,0,0,0,0,1,0,0,0,0,0,0,0,0,0,0,10000199,SANTIAGO,PREBASICA,345928.69603,6304649.40089,PROVINCIAL NORTE,PREBASICA,SANTA MONICA,3914 EL GUANACO,JARDIN INFANTIL Y SALA CUNA
360,1842,10000027, , ,EL GUANACO,4284,0,RECOLETA,6252031,7,0,538,2.92,1,0,0,5,2,9,0,0,0,0,0,0,0,0,0,83,0,0,0,3,83,0,0,0,0,0,0,1,0,0,0,0,0,0,0,0,0,0,10000027,SANTIAGO,PREBASICA,345883.96478,6305127.17931,PROVINCIAL NORTE,PREBASICA,MILLARAY,4284 EL GUANACO,JARDIN INFANTIL
361,1845,10000029, , ,RAUL MONTT,1106,0,RECOLETA,6224435,7,0,859,3.19,1,0,0,3,10,15,0,0,0,0,0,0,0,0,0,167,0,0,0,3,167,0,0,0,0,0,0,1,0,0,0,0,0,0,0,0,0,0,10000029,SANTIAGO,PREBASICA,346331.54414,6304146.55623,PROVINCIAL NORTE,PREBASICA,C.A. MARTA ROSS DE EDWARDS,1106 RAUL MONTT,SALA CUNA
362,1850,24738 3, ,1474,LA SERENA,891,1,RECOLETA,6210327,4,275000,0,0,2,0,1,0,1,7,0,0,2,1,0,0,0,0,0,20,0,0,0,1,20,0,0,0,0,1,0,1,0,0,0,0,0,0,0,0,0,0,24738 3,SANTIAGO,PREBASICA,346790.18928,6303718.7348,PROVINCIAL NORTE,PREBASICA,ESCUELA DE PARVULOS PIN PIN SERAFIN,891LA SERENA,JARDIN INFANTIL
363,1851,10000205, , ,FRANCISCO CERDA,907,0,RECOLETA,6223228,6,2750,1400,5.8,1,0,0,12,6,23,0,0,0,0,0,0,0,0,0,217,0,0,0,3,217,0,0,0,0,0,0,1,0,0,0,0,0,0,0,0,0,0,10000205,SANTIAGO,PREBASICA,346769.25839,6304035.87956,PROVINCIAL NORTE,PREBASICA,DOMINGUITO,907 FRANCISCO CERDA,JARDIN INFANTIL
364,1854,10000202, , ,TTE JUAN COLIPI,627,0,RECOLETA,6226117,6,250,2187,4.16,1,0,0,9,4,16,0,0,0,0,0,0,0,0,0,141,0,0,0,3,141,0,0,0,0,0,0,1,0,0,0,0,0,0,0,0,0,0,10000202,SANTIAGO,PREBASICA,347269.65187,6304886.79473,PROVINCIAL NORTE,PREBASICA,NO ME OLVIDES,627 TTE JUAN COLIPI,JARDIN INFANTIL
365,1855,10000028, , ,TTE JUAN COLIPI,662,0,RECOLETA,6222892,7,0,3536,6.25,1,0,0,20,4,26,0,0,0,0,0,0,0,0,0,276,0,0,0,3,276,0,0,0,0,0,0,1,0,0,0,0,0,0,0,0,0,0,10000028,SANTIAGO,PREBASICA,347142.10703,6304929.25623,PROVINCIAL NORTE,PREBASICA,C.A. JAVIERA CARRERA,662 TTE JUAN COLIPI,SALA CUNA
366,1862,10000200, , ,PERU,1200,0,RECOLETA,7357951,6,0,0,0,1,0,0,3,1,6,0,0,3,0,0,0,0,0,0,83,0,0,0,3,83,0,0,0,0,0,0,1,0,0,0,0,0,0,0,0,0,0,10000200,SANTIAGO,PREBASICA,347593.44102,6301135.26245,PROVINCIAL NORTE,PREBASICA,PARQUE MARIA LUISA,1200 PERU,JARDIN INFANTIL
367,1874,10000194, , ,PEDRO AGUIRRE CERDA,5150,0,HUECHURABA,0,6,3300,3168,7.38,1,3,0,11,3,18,0,0,0,0,0,0,0,0,0,171,0,0,0,3,171,0,0,0,0,0,0,1,0,0,0,0,0,0,0,0,0,0,10000194,SANTIAGO,PREBASICA,347074.39024,6305482.36542,PROVINCIAL NORTE,PREBASICA,ESTRELLA ANDINA,5150 PEDRO AGUIRRE CERDA,JARDIN INFANTIL
368,1881,24786 3, ,1499,LUIS DE VALDIVIA,3060,1,RECOLETA,6213257,4,275000,0,0,1,0,1,0,0,5,0,0,2,2,0,0,0,0,0,29,0,0,0,1,29,0,0,0,0,1,0,1,0,0,0,0,0,0,0,0,0,0,24786 3,SANTIAGO,PREBASICA,347093.15625,6303258.11921,PROVINCIAL NORTE,PREBASICA,ESCUELA DE PARVULOS LOS CHIQUITINES,3060 LUIS DE VALDIVIA,JARDIN INFANTIL
369,1916,11945 8, ,1316,FERMIN VIVACETA,4782,2,CONCHALI,6235220,4,0,0,0,0,0,0,0,0,0,0,0,0,0,0,0,0,0,0,0,0,0,0,0,0,0,0,0,0,0,0,0,0,0,0,0,0,0,0,0,0,0,11945 8,SANTIAGO,PREBASICA,343814.34051,6304752.81546,PROVINCIAL NORTE,PREBASICA,PITUFINA,4782 FERMIN VIVACETA,JARDIN INFANTIL
370,1917,24607 7, , ,LOS VILOS,4787,2,CONCHALI,0,4,0,0,0,0,0,0,0,0,0,0,0,0,0,0,0,0,0,0,0,0,0,0,0,0,0,0,0,0,0,0,0,0,0,0,0,0,0,0,0,0,0,24607 7,SANTIAGO,PREBASICA,343703.92766,6304674.81886,PROVINCIAL NORTE,PREBASICA,NUESTRO HOGAR,4787 LOS VILOS,JARDIN INFANTIL
371,1919,24775 8, ,1495,PARRAL,2406,2,CONCHALI,0,4,0,0,0,0,0,0,0,0,0,0,0,0,0,0,0,0,0,0,0,0,0,0,0,0,0,0,0,0,0,0,0,0,0,0,0,0,0,0,0,0,0,24775 8,SANTIAGO,PREBASICA,343648.3885,6304256.75832,PROVINCIAL NORTE,PREBASICA,MUNDO FELIZ,2406 PARRAL,JARDIN INFANTIL
372,1927,25126 7, ,1634,EL ROBLE,1025,2,RECOLETA,0,4,0,0,0,0,0,0,0,0,0,0,0,0,0,0,0,0,0,0,0,0,0,0,0,0,0,0,0,0,0,0,0,0,0,0,0,0,0,0,0,0,0,25126 7,SANTIAGO,PREBASICA,346339.50008,6302866.7263,PROVINCIAL NORTE,PREBASICA,TIA MARIA ANGELICA,1025 EL ROBLE,JARDIN INFANTIL
373,1929,25125 9, ,1633,ZAPADORES,505,2,RECOLETA,7772979,4,0,0,0,0,0,0,0,0,0,0,0,0,0,0,0,0,0,0,0,0,0,0,0,0,0,0,0,0,0,0,0,0,0,0,0,0,0,0,0,0,0,25125 9,SANTIAGO,PREBASICA,348009.88207,6304011.8291,PROVINCIAL NORTE,PREBASICA,ALADDIN,505 LOS ZAPADORES,JARDIN INFANTIL
374,1932,25139 9, ,1641,FRANCISCO BILBAO,2921,2,PROVIDENCIA,0,4,0,0,0,0,0,0,0,0,0,0,0,0,0,0,0,0,0,0,0,0,0,0,0,0,0,0,0,0,0,0,0,0,0,0,0,0,0,0,0,0,0,25139 9,SANTIAGO,PREBASICA,352265.13121,6299337.97737,PROVINCIAL ORIENTE,PREBASICA,WILLQUIMVOE,2921 FRANCISCO BILBAO,JARDIN INFANTIL
375,1937,25176 3, ,1661,LAS HUALTATAS,5811,2,VITACURA,0,4,0,0,0,0,0,0,0,0,0,0,0,0,0,0,0,0,0,0,0,0,0,0,0,0,0,0,0,0,0,0,0,0,0,0,0,0,0,0,0,0,0,25176 3,SANTIAGO,PREBASICA,353634.96047,6303753.7539,PROVINCIAL ORIENTE,PREBASICA,ESCUELA PEQUENO REINO,5811 LAS HUALTATAS,JARDIN INFANTIL
376,1943,24768 5, ,1213,ALONSO DE CAMARGO,6615,2,LAS CONDES,2118397,4,0,0,0,0,0,0,0,0,0,0,0,0,0,0,0,0,0,0,0,0,0,0,0,0,0,0,0,0,0,0,0,0,0,0,0,0,0,0,0,0,0,24768 5,SANTIAGO,PREBASICA,355085.70164,6300946.17643,PROVINCIAL ORIENTE,PREBASICA,LOS PATITOS DE SAN PATRICIO,6615 ALONSO DE CAMARGO,JARDIN INFANTIL
377,1945,24925 4, ,1558,LA RECONQUISTA,816,2,LAS CONDES,0,4,0,0,0,0,0,0,0,0,0,0,0,0,0,0,0,0,0,0,0,0,0,0,0,0,0,0,0,0,0,0,0,0,0,0,0,0,0,0,0,0,0,24925 4,SANTIAGO,PREBASICA,354039.17416,6301590.8352,PROVINCIAL ORIENTE,PREBASICA,ESCUELA PARVULO ARLEQUIN,816 LA RECONQUISTA,JARDIN INFANTIL
378,1946,25093 -7, , ,CRISTOBAL COLON,8750,2,LAS CONDES,0,4,0,0,0,0,0,0,0,0,0,0,0,0,0,0,0,0,0,0,0,0,0,0,0,0,0,0,0,0,0,0,0,0,0,0,0,0,0,0,0,0,0,25093 -7,SANTIAGO,PREBASICA,356654.48064,6301458.79581,PROVINCIAL ORIENTE,PREBASICA,GRACE GARDEN,8750 CRISTOBAL COLON,JARDIN INFANTIL
379,1959,12093 6, ,1342,EMILIA TELLEZ,4900,2,NUNOA,2262378,4,0,0,0,0,0,0,0,0,0,0,0,0,0,0,0,0,0,0,0,0,0,0,0,0,0,0,0,0,0,0,0,0,0,0,0,0,0,0,0,0,0,12093 6,SANTIAGO,PREBASICA,353174.05664,6298620.76261,PROVINCIAL ORIENTE,PREBASICA,AMAPOLAS,4900 EMILIA TELLEZ,JARDIN INFANTIL
380,1961,25184 4, ,1664,MARCHANT PEREIRA,3111,2,NUNOA,0,4,0,0,0,0,0,0,0,0,0,0,0,0,0,0,0,0,0,0,0,0,0,0,0,0,0,0,0,0,0,0,0,0,0,0,0,0,0,0,0,0,0,25184 4,SANTIAGO,PREBASICA,350690.19426,6297555.51394,PROVINCIAL ORIENTE,PREBASICA,ESCUELA PARVULOS ALEXANDDER MONTESSORI,3111 MARCHANT PEREIRA,JARDIN INFANTIL
381,1964,24636 0, ,1432,LYNCH NORTE,320,2,LA REINA,2265111,4,0,0,0,0,0,0,0,0,0,0,0,0,0,0,0,0,0,0,0,0,0,0,0,0,0,0,0,0,0,0,0,0,0,0,0,0,0,0,0,0,0,24636 0,SANTIAGO,PREBASICA,354485.69569,6297766.01511,PROVINCIAL ORIENTE,PREBASICA,CHIPY,320 LYNCH NORTE,JARDIN INFANTIL
382,1966,25111 9, ,1624,PRINCIPE DE GALES,6450,2,LA REINA,2773029,4,0,0,0,0,0,0,0,0,0,0,0,0,0,0,0,0,0,0,0,0,0,0,0,0,0,0,0,0,0,0,0,0,0,0,0,0,0,0,0,0,0,25111 9,SANTIAGO,PREBASICA,354569.28281,6299036.05273,PROVINCIAL ORIENTE,PREBASICA,BARRIE MONTESSORI,6450 PRINCIPE DE GALES,JARDIN INFANTIL
383,1967,25156 9, ,1649,TOBALABA,8573,2,LA REINA,0,4,0,0,0,0,0,0,0,0,0,0,0,0,0,0,0,0,0,0,0,0,0,0,0,0,0,0,0,0,0,0,0,0,0,0,0,0,0,0,0,0,0,25156 9,SANTIAGO,PREBASICA,355659.89056,6296702.11732,PROVINCIAL ORIENTE,PREBASICA,ESCUELA DE PARVULOS ANTINIL,8573 TOBALABA,JARDIN INFANTIL
384,2009,24929 7, ,93,GRABIELA MISTRAL,3741,2,PUENTE ALTO,5456859,3,0,0,0,0,0,0,0,0,0,0,0,0,0,0,0,0,0,0,0,0,0,0,0,0,0,0,0,0,0,0,0,0,0,0,0,0,0,0,0,0,0,24929 7,SANTIAGO,PREBASICA,352858.23383,6279147.8597,PROVINCIAL CORDILLERA,PREBASICA,ESC DE PARVULOS PART NUEVA FLORENCIA,3741 GABRIELA MISTRAL,JARDIN INFANTIL
385,2066,10050 1, ,1148,JULIO BANADOS,1669,2,QUINTA NORMAL,7752369,4,0,0,0,0,0,0,0,0,0,0,0,0,0,0,0,0,0,0,0,0,0,0,0,0,0,0,0,0,0,0,0,0,0,0,0,0,0,0,0,0,0,10050 1,SANTIAGO,PREBASICA,342915.60351,6299649.52857,PROVINCIAL PONIENTE,PREBASICA,LOS CAPULLITOS,1669 JULIO BANADOS,JARDIN INFANTIL
386,2073,24961 0, ,1570,ISLA RIVERO,8713,2,PUDAHUEL,0,4,0,0,0,0,0,0,0,0,0,0,0,0,0,0,0,0,0,0,0,0,0,0,0,0,0,0,0,0,0,0,0,0,0,0,0,0,0,0,0,0,0,24961 0,SANTIAGO,PREBASICA,336524.42429,6296726.6967,PROVINCIAL PONIENTE,PREBASICA,ESCUELA PARVULO RENACER ALBORADA,8713 ISLA RIVERO,JARDIN INFANTIL
387,2115,12271 8, ,1373,LAS PARCELAS,6098,1,ESTACION CENTRAL,5312716,4,0,0,0,0,0,0,0,0,0,0,0,0,0,0,0,0,0,0,38,0,0,0,2,38,0,0,0,0,0,0,1,0,0,0,0,0,0,0,0,0,0,12271 8,SANTIAGO,PREBASICA,340036.2626,6295532.03054,PROVINCIAL PONIENTE,PREBASICA,ESCUELA PARTICULAR HERMANAS FRANCISCANAS,6098 LAS PARCELAS,JARDIN INFANTIL
388,2119,24609 3, ,1420,LAS CATALPAS,79,1,ESTACION CENTRAL,5313312,4,240000,898,8.66,1,3,1,0,1,6,0,0,10,0,0,32,100,0,0,61,0,0,0,1,61,0,0,0,0,0,0,1,0,0,0,0,0,0,0,0,0,0,24609 3,SANTIAGO,PREBASICA,341225.41753,6296502.23891,PROVINCIAL PONIENTE,PREBASICA,MADRE MARIA JOSE DE JESUS,79 LAS CATALPAS,JARDIN INFANTIL
389,2120,9916 3, ,655,LAS CATALPAS,79,1,ESTACION CENTRAL,7792840,3,57500,2000,0,1,12,1,0,2,16,0,0,20,0,3,142,100,0,0,220,0,0,0,1,220,0,0,0,0,0,0,1,0,0,0,0,0,0,0,0,0,0,9916 3,SANTIAGO,PREBASICA,341225.41753,6296502.23891,PROVINCIAL PONIENTE,PREBASICA,LOS PAISES BAJOS,79 LAS CATALPAS,JARDIN INFANTIL
390,2128,11862 1, ,1243,LUIS INFANTE CERDA,630,1,ESTACION CENTRAL,5381825,3,50000,200,1.5,1,2,1,0,1,5,0,0,6,1,0,40,100,0,0,50,0,0,0,1,50,0,0,0,0,0,0,1,0,0,0,0,0,0,0,0,0,0,11862 1,SANTIAGO,PREBASICA,342221.40631,6295474.00372,PROVINCIAL PONIENTE,PREBASICA,ESCUELA DE PARVULOS TRIBILIN,630 LUIS INFANTE CERDA,JARDIN INFANTIL
391,2130,9980 5, ,1183,GUILLERMO FRANKE,203,1,ESTACION CENTRAL,5331219,3,45000,195,1.11,1,1,0,0,0,2,0,0,2,1,0,36,100,0,0,36,0,0,0,1,36,0,0,0,0,0,0,1,0,0,0,0,0,0,0,0,0,0,9980 5,SANTIAGO,PREBASICA,342355.04378,6295964.873,PROVINCIAL PONIENTE,PREBASICA,ESCUELA DE PARVULOS RICITOS DE ORO,203 GUILLERMO FRANKE,JARDIN INFANTIL
392,2132,24477 5,E,0,21 DE MAYO,1830,1,ESTACION CENTRAL,0,1,2000,2400,9,4,7,0,0,1,12,0,0,3,0,0,130,85,0,0,183,0,0,0,1,183,0,0,0,0,0,0,1,0,0,0,0,0,0,0,0,0,0,24477 5,SANTIAGO,PREBASICA,342813.04275,6295134.96442,PROVINCIAL PONIENTE,PREBASICA,LOCAL ANEXO ESCUELA E NRO.36,1830 21 DE MAYO,JARDIN INFANTIL
393,2135,24674 3,D,57,LOS GLADIOLOS,4810,1,ESTACION CENTRAL,7794065,1,0,960,5.44,5,7,0,0,5,17,0,0,8,8,0,0,0,0,0,198,0,0,0,1,198,0,0,0,0,0,0,1,0,0,0,0,0,0,0,0,0,0,24674 3,SANTIAGO,PREBASICA,341989.17176,6296338.93727,PROVINCIAL PONIENTE,PREBASICA,CARLOS CONDELL DE LA HAZA,4810 LOS GLADIOLOS,JARDIN INFANTIL
394,2150,8810 2, ,1208,5 DE ABRIL,3961,1,ESTACION CENTRAL,7764581,4,215000,277,9.7,1,2,0,0,0,3,0,0,2,2,0,52,100,0,0,52,0,0,0,1,52,0,0,0,0,1,0,1,0,0,0,0,0,0,0,0,0,0,8810 2,SANTIAGO,PREBASICA,343112.77791,6296726.21337,PROVINCIAL PONIENTE,PREBASICA,ESCUELA DE PARVULOS ENRIQUE MAC IVER,3961 5 DE ABRIL,JARDIN INFANTIL
395,2204,12239 4, ,1532,COMERCIO,6134,1,CERRILLOS,5574418,4,220000,200,1,2,3,0,0,1,6,0,0,3,0,1,0,0,0,0,26,0,0,0,1,26,0,0,0,0,1,0,1,0,0,0,0,0,0,0,0,0,0,12239 4,SANTIAGO,PREBASICA,341015.61231,6292863.22655,PROVINCIAL PONIENTE,PREBASICA,HUALAIHUE,6134 COMERCIO,JARDIN INFANTIL
396,2216,11864 8, ,1304,CRNEL SOUPER,4844,1,ESTACION CENTRAL,7781232,4,400000,457,3,1,2,1,0,1,5,0,0,4,0,0,200,100,0,0,20,0,0,0,1,20,0,0,0,0,1,0,1,0,0,0,0,0,0,0,0,0,0,11864 8,SANTIAGO,PREBASICA,341966.30526,6296433.65471,PROVINCIAL PONIENTE,PREBASICA,INSTITUCION SWEET LAUTARO  C.I.I.,4844 CRNEL SOUPER,JARDIN INFANTIL
397,2256,10171 0, ,1025,LAGO URON,148,1,LO PRADO,6430128,3,44000,0,0,1,0,2,0,1,6,0,0,5,4,0,0,0,0,0,60,0,0,0,1,60,0,0,0,0,0,0,1,0,0,0,0,0,0,0,0,0,0,10171 0,SANTIAGO,PREBASICA,338810.42578,6297235.125,PROVINCIAL PONIENTE,PREBASICA,VILLA LOURDES,148 LAGO URON,JARDIN INFANTIL
398,2299,10195 8, ,1168,LOS LINGUES,7646,3,LO PRADO,6449739,4,177000,560,2,2,0,1,0,5,14,0,0,3,3,4,0,0,0,0,100,0,0,0,1,100,0,0,0,0,1,0,1,0,0,0,0,0,0,0,0,0,0,10195 8,SANTIAGO,PREBASICA,338603.32991,6298163.08336,PROVINCIAL PONIENTE,PREBASICA,PINOCHO,7646 LOS LINGUES,JARDIN INFANTIL
399,2316,24471 6, ,1357,LOS MAQUIS,0,1,RENCA,6411304,3,8000,800,0,1,0,1,0,1,7,0,0,0,0,0,0,0,0,0,84,0,0,0,1,84,0,0,0,0,0,0,1,0,0,0,0,0,0,0,0,0,0,24471 6,SANTIAGO,PREBASICA,342957.13678,6301793.864,PROVINCIAL PONIENTE,PREBASICA,SANTA MARIA DE LA PROVIDENCIA,1251 B LOS MAQUIS,JARDIN INFANTIL
400,2328,12273 4, ,1368,CRUZ GRANDE,950,1,RENCA,6421375,1,500,2192,5.96,1,0,0,0,3,12,0,0,1,0,0,240,40,0,0,231,0,0,0,1,231,0,0,0,0,0,0,1,0,0,0,0,0,0,0,0,0,0,12273 4,SANTIAGO,PREBASICA,339154.44241,6301772.16919,PROVINCIAL PONIENTE,PREBASICA,ESCUELA MUNICIPAL DE PARVULOS HERNAN DEL SOLAR A.,950 CRUZ GRANDE,JARDIN INFANTIL
401,2352,10036 6, ,1076,ESPECH,1563,1,QUINTA NORMAL,7751183,3,0,0,0,2,0,1,0,1,5,0,0,5,5,0,0,0,0,0,79,0,0,0,1,79,0,0,0,0,0,0,1,0,0,0,0,0,0,0,0,0,0,10036 6,SANTIAGO,PREBASICA,340333.08235,6299759.89892,PROVINCIAL PONIENTE,PREBASICA,PRESIDENTE ABRAHAM LINCOLN,1563 ESPECH,JARDIN INFANTIL
402,2360,10029 3, ,1083,LOA,6607,1,QUINTA NORMAL,7738226,6,0,2150,8.35,1,0,0,8,2,15,0,0,0,0,1,0,0,0,0,252,0,0,0,3,252,0,0,0,0,0,0,1,0,0,0,0,0,0,0,0,0,0,10029 3,SANTIAGO,PREBASICA,340476.87519,6301855.51157,PROVINCIAL PONIENTE,PREBASICA,TIA LUCY,6607 LOA,JARDIN INFANTIL
403,2390,24845 2, ,1524,CARRASCAL,4664,1,QUINTA NORMAL,7757030,4,295000,0,2.82,2,0,2,0,1,11,0,0,4,2,0,50,100,0,0,60,0,0,0,1,60,0,0,0,0,1,0,1,0,0,0,0,0,0,0,0,0,0,24845 2,SANTIAGO,PREBASICA,342181.69627,6300703.58671,PROVINCIAL PONIENTE,PREBASICA,DIVINA PASTORA DE JESUS,4664 CARRASCAL,JARDIN INFANTIL
404,2442,24458 9, ,70,ISLA TEJAS,3093,1,PUENTE ALTO,8506585,3,195000,500,1.5,0,0,0,0,0,1,0,0,0,0,1,0,0,0,0,2,0,0,0,1,2,0,0,0,0,0,0,1,0,0,0,0,0,0,0,0,0,0,24458 9,SANTIAGO,PREBASICA,352892.70703,6283055.95,PROVINCIAL CORDILLERA,PREBASICA,TIA ANITA,3093 ISLA TEJAS,JARDIN INFANTIL
405,2448,24752 9, ,76,ON PANTA,495,1,PUENTE ALTO,8503854,3,100000,1392,5.53,4,0,3,0,1,12,0,0,3,0,1,0,0,0,0,120,0,0,0,1,120,0,0,0,0,1,0,1,0,0,0,0,0,0,0,0,0,0,24752 9,SANTIAGO,PREBASICA,354206.84986,6281861.95049,PROVINCIAL CORDILLERA,PREBASICA,HERMANAS DE BETANIA,495 ON PANTA,JARDIN INFANTIL
406,2449,24821 5, ,80,ON PANTA,495,1,PUENTE ALTO,8503854,4,6000,1392,5.53,4,0,3,0,1,12,0,0,3,0,1,0,0,0,0,121,0,0,0,1,121,0,0,0,0,0,0,1,0,0,0,0,0,0,0,0,0,0,24821 5,SANTIAGO,PREBASICA,354206.84986,6281861.95049,PROVINCIAL CORDILLERA,PREBASICA,SANTA ROSA DE LIMA,495 ON PANTA,JARDIN INFANTIL
407,2485,12080 4, ,74,SAN ALFONSO,549,1,SAN BERNARDO,8591957,4,350000,600,4,1,0,4,0,1,11,0,0,5,2,5,0,0,0,0,120,0,0,0,1,120,0,0,0,0,1,0,1,0,0,0,0,0,0,0,0,0,0,12080 4,SANTIAGO,PREBASICA,341694.98657,6281038.30125,PROVINCIAL SUR,PREBASICA,INNSBRUCK,549 SAN ALFONSO,JARDIN INFANTIL
408,2525,24461 9, ,1246,NUEVA SAN MARTIN,1343,1,MAIPU,5318559,4,330000,700,1.5,1,0,1,0,2,8,0,0,6,0,1,50,100,0,0,54,0,0,0,1,54,0,0,0,0,1,0,1,0,0,0,0,0,0,0,0,0,0,24461 9,SANTIAGO,PREBASICA,335179.23032,6289177.75622,PROVINCIAL PONIENTE,PREBASICA,EL OLIMPO,1343 NUEVA SAN MARTIN,JARDIN INFANTIL
409,2526,12272 6, ,1374,AVENIDA SUR,1296,1,MAIPU,5340531,4,238000,306,1.2,1,0,0,0,2,4,0,0,5,0,0,0,0,0,0,38,0,0,0,1,38,0,0,0,0,1,0,1,0,0,0,0,0,0,0,0,0,0,12272 6,SANTIAGO,PREBASICA,335257.70625,6289515.225,PROVINCIAL PONIENTE,PREBASICA,LOS DUENDECITOS,1296 AVENIDA SUR,JARDIN INFANTIL
410,2529,9936 8, , ,GALICIA,2701,1,MAIPU,5312151,6,2500,2442,6.09,1,0,0,13,3,22,0,0,0,0,1,0,0,0,0,256,0,0,0,3,256,0,0,0,0,0,0,1,0,0,0,0,0,0,0,0,0,0,9936 8,SANTIAGO,PREBASICA,334999.68715,6291503.18889,PROVINCIAL PONIENTE,PREBASICA,MADRESELVA,2701 GALICIA,JARDIN INFANTIL
411,2533,24510 0, ,1409,CARLO MAGNO,166,1,MAIPU,5310542,4,200000,1700,6,1,0,0,0,0,4,0,0,4,0,1,0,0,0,0,25,0,0,0,1,25,0,0,0,0,1,0,1,0,0,0,0,0,0,0,0,0,0,24510 0,SANTIAGO,PREBASICA,335720.25997,6288910.06544,PROVINCIAL PONIENTE,PREBASICA,JARDIN INFANTIL PULGARCITO,166 CARLO MAGNO,JARDIN INFANTIL
412,2534,9920 1, ,1112,MONTECASINO,679,1,MAIPU,5579187,4,215000,300,1.5,1,0,1,0,1,5,0,0,3,0,1,0,0,0,0,47,0,0,0,1,47,0,0,0,0,1,0,1,0,0,0,0,0,0,0,0,0,0,9920 1,SANTIAGO,PREBASICA,336108.21266,6288964.07,PROVINCIAL PONIENTE,PREBASICA,JESUS NAZARENO,679 MONTECASINO,JARDIN INFANTIL
413,2564,12101 0, ,1334,LAS TERRAZAS,1910,1,MAIPU,0,4,280000,700,2,1,0,0,0,1,5,0,0,4,0,1,20,50,0,0,46,0,0,0,1,46,0,0,0,0,1,0,1,0,0,0,0,0,0,0,0,0,0,12101 0,SANTIAGO,PREBASICA,337478.84768,6290814.4045,PROVINCIAL PONIENTE,PREBASICA,MATILDE HUICI,1910 LAS TERRAZAS,JARDIN INFANTIL
414,2569,9943 0, ,1030,SEGUNDA TRANSVERSAL,2947,1,MAIPU,7414274,3,165000,300,1,1,0,1,0,1,5,0,0,3,0,1,20,100,0,0,52,0,0,0,1,52,0,0,0,0,0,0,1,0,0,0,0,0,0,0,0,0,0,9943 0,SANTIAGO,PREBASICA,337924.47527,6291751.47384,PROVINCIAL PONIENTE,PREBASICA,ENANO GROUMPY,2947 SEGUNDA TRANSVERSAL,JARDIN INFANTIL
415,2571,11827 3, , ,SEGUNDA TRANSVERSAL,3195,1,MAIPU,5572776,3,90000,640,1.6,2,0,0,0,1,7,0,0,15,15,15,0,0,0,0,88,0,0,0,1,88,0,0,0,0,0,0,1,0,0,0,0,0,0,0,0,0,0,11827 3,SANTIAGO,PREBASICA,337943.72524,6291848.83979,PROVINCIAL PONIENTE,PREBASICA,KRONBERG COLLEGE  ANEXO,3195 SEGUNDA TRANSVERSAL,JARDIN INFANTIL
416,2573,24765 0, ,1489,RVDO ALDO GIACHI,1244,1,MAIPU,0,4,220000,108,8.9,1,0,1,0,1,7,0,0,7,0,1,0,0,0,0,95,0,0,0,1,95,0,0,0,0,1,0,1,0,0,0,0,0,0,0,0,0,0,24765 0,SANTIAGO,PREBASICA,338158.65353,6292206.04475,PROVINCIAL PONIENTE,PREBASICA,LANCAHUE,1244 RVDO ALDO GIACHI,JARDIN INFANTIL
417,2575,24406 6, ,1077,WERNER VON BRAUN,4100,1,MAIPU,7432081,3,66000,250,1,3,0,0,0,1,11,0,0,6,1,1,150,100,0,0,256,0,0,0,1,256,0,0,0,0,0,0,1,0,0,0,0,0,0,0,0,0,0,24406 6,SANTIAGO,PREBASICA,337395.29766,6293568.925,PROVINCIAL PONIENTE,PREBASICA,KINDS SCHOOL,4100 WERNER VON BRAUN,JARDIN INFANTIL
418,2589,12102 9, ,1337,LAS ESPUELAS,741,1,MAIPU,5571567,3,130000,400,1.6,1,0,1,0,1,7,0,0,6,0,1,0,0,0,0,123,0,0,0,1,123,0,0,0,0,0,0,1,0,0,0,0,0,0,0,0,0,0,12102 9,SANTIAGO,PREBASICA,336008.73181,6288934.77509,PROVINCIAL PONIENTE,PREBASICA,LOS CARINOSITOS,741 LAS ESPUELAS,JARDIN INFANTIL
419,2651,24616 6, ,1424,CONCEPCION,465,1,COLINA,0,6,0,0,0,0,0,0,0,0,0,0,0,0,0,0,0,0,0,0,0,0,0,0,0,0,0,0,0,0,0,0,1,0,0,0,0,0,0,0,0,0,0,24616 6,COLINA,PREBASICA,343584.28681,6324839.71651,PROVINCIAL NORTE,PREBASICA,ESCUELA DE PARVULOS SNOOPY,465 CONCEPCION,JARDIN INFANTIL
420,2767,25076 7, ,83,21 DE MAYO,110,1,ISLA DE MAIPO,0,0,0,0,0,0,0,0,0,0,0,0,0,0,0,0,0,0,0,0,0,0,0,0,0,0,0,0,0,0,0,0,0,0,0,0,0,0,0,0,0,0,0,25076 7, ,PREBASICA,324362.91909,6263459.15561,PROVINCIAL TALAGANTE,PREBASICA,LOS DUENDES TRAVIESOS,110 21 DE MAYO,JARDIN INFANTIL
421,2818,10000024, , ,LA MEDIALUNA,528,0,HUECHURABA,6261411,7,0,900,4.8,0,1,0,3,0,4,0,0,0,0,0,0,0,0,0,66,0,0,0,3,66,0,0,0,0,0,0,1,0,0,0,0,0,0,0,0,0,0,10000024, ,PREBASICA,348650.26373,6307379.53141,PROVINCIAL NORTE,PREBASICA,C.A. ENTRE CERROS,528 LA MEDIALUNA,SALA CUNA
422, , , , , ,0, ,BUIN,0,0,0,0,0,0,0,0,0,0,0,0,0,0,0,0,0,0,0,0,0,0,0,0,0,0,0,0,0,0,0,0,0,0,0,0,0,0,0,0,0,0,0, , , ,0,0, , ,LOS TRES CHANCHITOS,783 CARLOS CONDELL,JARDIN INFANTIL
423, , , , , ,0, ,BUIN,0,0,0,0,0,0,0,0,0,0,0,0,0,0,0,0,0,0,0,0,0,0,0,0,0,0,0,0,0,0,0,0,0,0,0,0,0,0,0,0,0,0,0, , , ,0,0, , ,SONRISAS,511 MANUEL RODRIGUEZ,JARDIN INFANTIL Y SALA CUNA
424, , , , , ,0, ,BUIN,0,0,0,0,0,0,0,0,0,0,0,0,0,0,0,0,0,0,0,0,0,0,0,0,0,0,0,0,0,0,0,0,0,0,0,0,0,0,0,0,0,0,0, , , ,0,0, , ,PELUSITAS,107 SARGENTO ALDEA,JARDIN INFANTIL
425, , , , , ,0, ,CERRILLOS,0,0,0,0,0,0,0,0,0,0,0,0,0,0,0,0,0,0,0,0,0,0,0,0,0,0,0,0,0,0,0,0,0,0,0,0,0,0,0,0,0,0,0, , , ,0,0, , ,COPITO DE NIEVE,660 RIO LOA,JARDIN INFANTIL
426, , , , , ,0, ,CERRILLOS,0,0,0,0,0,0,0,0,0,0,0,0,0,0,0,0,0,0,0,0,0,0,0,0,0,0,0,0,0,0,0,0,0,0,0,0,0,0,0,0,0,0,0, , , ,0,0, , ,MY COLLEGE,731 ONGOLMO,JARDIN INFANTIL
427, , , , , ,0, ,CONCHALI,0,0,0,0,0,0,0,0,0,0,0,0,0,0,0,0,0,0,0,0,0,0,0,0,0,0,0,0,0,0,0,0,0,0,0,0,0,0,0,0,0,0,0, , , ,0,0, , ,LOS CAPULLITOS,4462 INDEPENDENCIA,JARDIN INFANTIL
428, , , , , ,0, ,EL BOSQUE,0,0,0,0,0,0,0,0,0,0,0,0,0,0,0,0,0,0,0,0,0,0,0,0,0,0,0,0,0,0,0,0,0,0,0,0,0,0,0,0,0,0,0, , , ,0,0, , ,MY LITTLE BABY,120 CENTRAL,JARDIN INFANTIL Y SALA CUNA
429, , , , , ,0, ,EL BOSQUE,0,0,0,0,0,0,0,0,0,0,0,0,0,0,0,0,0,0,0,0,0,0,0,0,0,0,0,0,0,0,0,0,0,0,0,0,0,0,0,0,0,0,0, , , ,0,0, , ,EL BOSQUE,325 ALEJANDRO GUZMAN,JARDIN INFANTIL
430, , , , , ,0, ,EL BOSQUE,0,0,0,0,0,0,0,0,0,0,0,0,0,0,0,0,0,0,0,0,0,0,0,0,0,0,0,0,0,0,0,0,0,0,0,0,0,0,0,0,0,0,0, , , ,0,0, , ,VOLCAN VILLARRICA,232 LO BLANCO,JARDIN INFANTIL
431, , , , , ,0, ,ESTACION CENTRAL,0,0,0,0,0,0,0,0,0,0,0,0,0,0,0,0,0,0,0,0,0,0,0,0,0,0,0,0,0,0,0,0,0,0,0,0,0,0,0,0,0,0,0, , , ,0,0, , ,MARIPOSITAS,4221 LIBER BERNARDO OHIGGINS,JARDIN INFANTIL
432, , , , , ,0, ,ESTACION CENTRAL,0,0,0,0,0,0,0,0,0,0,0,0,0,0,0,0,0,0,0,0,0,0,0,0,0,0,0,0,0,0,0,0,0,0,0,0,0,0,0,0,0,0,0, , , ,0,0, , ,GENESIS,6052 LOS JASMINES,JARDIN INFANTIL
433, , , , , ,0, ,ESTACION CENTRAL,0,0,0,0,0,0,0,0,0,0,0,0,0,0,0,0,0,0,0,0,0,0,0,0,0,0,0,0,0,0,0,0,0,0,0,0,0,0,0,0,0,0,0, , , ,0,0, , ,BAMBI,120 CARLOS PEZOA VELIZ,JARDIN INFANTIL
434, , , , , ,0, ,ESTACION CENTRAL,0,0,0,0,0,0,0,0,0,0,0,0,0,0,0,0,0,0,0,0,0,0,0,0,0,0,0,0,0,0,0,0,0,0,0,0,0,0,0,0,0,0,0, , , ,0,0, , ,HAPPY TRAIN LTDA,640 LAS REJAS SUR,JARDIN INFANTIL
435, , , , , ,0, ,ESTACION CENTRAL,0,0,0,0,0,0,0,0,0,0,0,0,0,0,0,0,0,0,0,0,0,0,0,0,0,0,0,0,0,0,0,0,0,0,0,0,0,0,0,0,0,0,0, , , ,0,0, , ,GIRASOL,5084 TITAN,JARDIN INFANTIL Y SALA CUNA
436, , , , , ,0, ,ESTACION CENTRAL,0,0,0,0,0,0,0,0,0,0,0,0,0,0,0,0,0,0,0,0,0,0,0,0,0,0,0,0,0,0,0,0,0,0,0,0,0,0,0,0,0,0,0, , , ,0,0, , ,HAMELIN,3833 AVDA 5 DE ABRIL,JARDIN INFANTIL
437, , , , , ,0, ,ESTACION CENTRAL,0,0,0,0,0,0,0,0,0,0,0,0,0,0,0,0,0,0,0,0,0,0,0,0,0,0,0,0,0,0,0,0,0,0,0,0,0,0,0,0,0,0,0, , , ,0,0, , ,TRENCITO FELIZ,452 LAS ARAUCARIAS,JARDIN INFANTIL
438, , , , , ,0, ,ESTACION CENTRAL,0,0,0,0,0,0,0,0,0,0,0,0,0,0,0,0,0,0,0,0,0,0,0,0,0,0,0,0,0,0,0,0,0,0,0,0,0,0,0,0,0,0,0, , , ,0,0, , ,BILIBRI,254 GASPAR DE ORENSE,JARDIN INFANTIL
439, , , , , ,0, ,HUECHURABA,0,0,0,0,0,0,0,0,0,0,0,0,0,0,0,0,0,0,0,0,0,0,0,0,0,0,0,0,0,0,0,0,0,0,0,0,0,0,0,0,0,0,0, , , ,0,0, , ,MI BEBE,1903 MEJILLONES,JARDIN INFANTIL
440, , , , , ,0, ,HUECHURABA,0,0,0,0,0,0,0,0,0,0,0,0,0,0,0,0,0,0,0,0,0,0,0,0,0,0,0,0,0,0,0,0,0,0,0,0,0,0,0,0,0,0,0, , , ,0,0, , ,CARAMELO,805 RINCONADA,JARDIN INFANTIL Y SALA CUNA
441, , , , , ,0, ,INDEPENDENCIA,0,0,0,0,0,0,0,0,0,0,0,0,0,0,0,0,0,0,0,0,0,0,0,0,0,0,0,0,0,0,0,0,0,0,0,0,0,0,0,0,0,0,0, , , ,0,0, , ,GAUCHITO HILL,2360 INDEPENDENCIA,JARDIN INFANTIL
442, , , , , ,0, ,INDEPENDENCIA,0,0,0,0,0,0,0,0,0,0,0,0,0,0,0,0,0,0,0,0,0,0,0,0,0,0,0,0,0,0,0,0,0,0,0,0,0,0,0,0,0,0,0, , , ,0,0, , ,ALAS DE COLIBRI,2236 DOMINGO STA MARIA,JARDIN INFANTIL
443, , , , , ,0, ,INDEPENDENCIA,0,0,0,0,0,0,0,0,0,0,0,0,0,0,0,0,0,0,0,0,0,0,0,0,0,0,0,0,0,0,0,0,0,0,0,0,0,0,0,0,0,0,0, , , ,0,0, , ,EL MUNDO DE WINNY,1731 FRANCIA,JARDIN INFANTIL
444, , , , , ,0, ,INDEPENDENCIA,0,0,0,0,0,0,0,0,0,0,0,0,0,0,0,0,0,0,0,0,0,0,0,0,0,0,0,0,0,0,0,0,0,0,0,0,0,0,0,0,0,0,0, , , ,0,0, , ,CHISPITA AMIGA,858 CARLOS MEDINA,JARDIN INFANTIL
445, , , , , ,0, ,INDEPENDENCIA,0,0,0,0,0,0,0,0,0,0,0,0,0,0,0,0,0,0,0,0,0,0,0,0,0,0,0,0,0,0,0,0,0,0,0,0,0,0,0,0,0,0,0, , , ,0,0, , ,IL BAMBINO,1788 ANTONIO J . VIAL,JARDIN INFANTIL
446, , , , , ,0, ,INDEPENDENCIA,0,0,0,0,0,0,0,0,0,0,0,0,0,0,0,0,0,0,0,0,0,0,0,0,0,0,0,0,0,0,0,0,0,0,0,0,0,0,0,0,0,0,0, , , ,0,0, , ,KIDÃ¯S DREAMS,1548 LOS NIDOS,JARDIN INFANTIL
447, , , , , ,0, ,INDEPENDENCIA,0,0,0,0,0,0,0,0,0,0,0,0,0,0,0,0,0,0,0,0,0,0,0,0,0,0,0,0,0,0,0,0,0,0,0,0,0,0,0,0,0,0,0, , , ,0,0, , ,ZUMBAYLLU,892 TTE BISSON,JARDIN INFANTIL
448, , , , , ,0, ,INDEPENDENCIA,0,0,0,0,0,0,0,0,0,0,0,0,0,0,0,0,0,0,0,0,0,0,0,0,0,0,0,0,0,0,0,0,0,0,0,0,0,0,0,0,0,0,0, , , ,0,0, , ,INGLES,319 ESCANILLA,JARDIN INFANTIL
449, , , , , ,0, ,LA CISTERNA,0,0,0,0,0,0,0,0,0,0,0,0,0,0,0,0,0,0,0,0,0,0,0,0,0,0,0,0,0,0,0,0,0,0,0,0,0,0,0,0,0,0,0, , , ,0,0, , ,LOS PASTORCITOS,9040 SALAS,JARDIN INFANTIL Y SALA CUNA
450, , , , , ,0, ,LA CISTERNA,0,0,0,0,0,0,0,0,0,0,0,0,0,0,0,0,0,0,0,0,0,0,0,0,0,0,0,0,0,0,0,0,0,0,0,0,0,0,0,0,0,0,0, , , ,0,0, , ,LE PETIT MONDE,184 ALMTE NEEF SUR,JARDIN INFANTIL
451, , , , , ,0, ,LA CISTERNA,0,0,0,0,0,0,0,0,0,0,0,0,0,0,0,0,0,0,0,0,0,0,0,0,0,0,0,0,0,0,0,0,0,0,0,0,0,0,0,0,0,0,0, , , ,0,0, , ,SAN BERNARDO,50 FERNANDO RIOJA,JARDIN INFANTIL
452, , , , , ,0, ,LA CISTERNA,0,0,0,0,0,0,0,0,0,0,0,0,0,0,0,0,0,0,0,0,0,0,0,0,0,0,0,0,0,0,0,0,0,0,0,0,0,0,0,0,0,0,0, , , ,0,0, , ,MAZAPAN,0101 21 DE MAYO,JARDIN INFANTIL
453, , , , , ,0, ,LA CISTERNA,0,0,0,0,0,0,0,0,0,0,0,0,0,0,0,0,0,0,0,0,0,0,0,0,0,0,0,0,0,0,0,0,0,0,0,0,0,0,0,0,0,0,0, , , ,0,0, , ,LOS VESPUCITOS LTDA.,1237 AMERICO VESPUCIO,JARDIN INFANTIL
454, , , , , ,0, ,LA CISTERNA,0,0,0,0,0,0,0,0,0,0,0,0,0,0,0,0,0,0,0,0,0,0,0,0,0,0,0,0,0,0,0,0,0,0,0,0,0,0,0,0,0,0,0, , , ,0,0, , ,ARCO IRIS,475 PEDRO AGUIRRE CERDA,JARDIN INFANTIL
455, , , , , ,0, ,LA CISTERNA,0,0,0,0,0,0,0,0,0,0,0,0,0,0,0,0,0,0,0,0,0,0,0,0,0,0,0,0,0,0,0,0,0,0,0,0,0,0,0,0,0,0,0, , , ,0,0, , ,CUNCUNA AMARILLA,80 STA CLARA,JARDIN INFANTIL
456, , , , , ,0, ,LA FLORIDA,0,0,0,0,0,0,0,0,0,0,0,0,0,0,0,0,0,0,0,0,0,0,0,0,0,0,0,0,0,0,0,0,0,0,0,0,0,0,0,0,0,0,0, , , ,0,0, , ,DUMBO,1609 GALENA,JARDIN INFANTIL
457, , , , , ,0, ,LA FLORIDA,0,0,0,0,0,0,0,0,0,0,0,0,0,0,0,0,0,0,0,0,0,0,0,0,0,0,0,0,0,0,0,0,0,0,0,0,0,0,0,0,0,0,0, , , ,0,0, , ,ALDEA ENSUENO,273 STA JULIA,JARDIN INFANTIL
458, , , , , ,0, ,LA FLORIDA,0,0,0,0,0,0,0,0,0,0,0,0,0,0,0,0,0,0,0,0,0,0,0,0,0,0,0,0,0,0,0,0,0,0,0,0,0,0,0,0,0,0,0, , , ,0,0, , ,ARQUITA DE NOE,1750 STA AMALIA,JARDIN INFANTIL
459, , , , , ,0, ,LA FLORIDA,0,0,0,0,0,0,0,0,0,0,0,0,0,0,0,0,0,0,0,0,0,0,0,0,0,0,0,0,0,0,0,0,0,0,0,0,0,0,0,0,0,0,0, , , ,0,0, , ,CRISTIANO MI PEQUENO MUNDO,901 JOSE MIGUEL CARRERA,JARDIN INFANTIL
460, , , , , ,0, ,LA FLORIDA,0,0,0,0,0,0,0,0,0,0,0,0,0,0,0,0,0,0,0,0,0,0,0,0,0,0,0,0,0,0,0,0,0,0,0,0,0,0,0,0,0,0,0, , , ,0,0, , ,PAPUCHO,9290 CANADA,JARDIN INFANTIL
461, , , , , ,0, ,LA FLORIDA,0,0,0,0,0,0,0,0,0,0,0,0,0,0,0,0,0,0,0,0,0,0,0,0,0,0,0,0,0,0,0,0,0,0,0,0,0,0,0,0,0,0,0, , , ,0,0, , ,LAS FLORCITAS,288 ANTUMALAL,JARDIN INFANTIL
462, , , , , ,0, ,LA FLORIDA,0,0,0,0,0,0,0,0,0,0,0,0,0,0,0,0,0,0,0,0,0,0,0,0,0,0,0,0,0,0,0,0,0,0,0,0,0,0,0,0,0,0,0, , , ,0,0, , ,PASTORCITOS DE MARIA,801 WALKER MARTINEZ,JARDIN INFANTIL
463, , , , , ,0, ,LA FLORIDA,0,0,0,0,0,0,0,0,0,0,0,0,0,0,0,0,0,0,0,0,0,0,0,0,0,0,0,0,0,0,0,0,0,0,0,0,0,0,0,0,0,0,0, , , ,0,0, , ,HAPPY GARDEN,8971 PSJE ENSENADA,JARDIN INFANTIL
464, , , , , ,0, ,LA FLORIDA,0,0,0,0,0,0,0,0,0,0,0,0,0,0,0,0,0,0,0,0,0,0,0,0,0,0,0,0,0,0,0,0,0,0,0,0,0,0,0,0,0,0,0, , , ,0,0, , ,NUESTRA SRA. DE COVADONGA,235 ATAHUALPA,JARDIN INFANTIL
465, , , , , ,0, ,LA FLORIDA,0,0,0,0,0,0,0,0,0,0,0,0,0,0,0,0,0,0,0,0,0,0,0,0,0,0,0,0,0,0,0,0,0,0,0,0,0,0,0,0,0,0,0, , , ,0,0, , ,ALMENDRA,305 TRINIDAD,JARDIN INFANTIL
466, , , , , ,0, ,LA FLORIDA,0,0,0,0,0,0,0,0,0,0,0,0,0,0,0,0,0,0,0,0,0,0,0,0,0,0,0,0,0,0,0,0,0,0,0,0,0,0,0,0,0,0,0, , , ,0,0, , ,CASCANUECES LTDA.,7705 LA FLORIDA,JARDIN INFANTIL
467, , , , , ,0, ,LA FLORIDA,0,0,0,0,0,0,0,0,0,0,0,0,0,0,0,0,0,0,0,0,0,0,0,0,0,0,0,0,0,0,0,0,0,0,0,0,0,0,0,0,0,0,0, , , ,0,0, , ,COCALAN,101 SAN JOSE DE LA ESTRELLA,JARDIN INFANTIL
468, , , , , ,0, ,LA GRANJA,0,0,0,0,0,0,0,0,0,0,0,0,0,0,0,0,0,0,0,0,0,0,0,0,0,0,0,0,0,0,0,0,0,0,0,0,0,0,0,0,0,0,0, , , ,0,0, , ,DELLOS,10463 MANUEL ROJAS,JARDIN INFANTIL
469, , , , , ,0, ,LA GRANJA,0,0,0,0,0,0,0,0,0,0,0,0,0,0,0,0,0,0,0,0,0,0,0,0,0,0,0,0,0,0,0,0,0,0,0,0,0,0,0,0,0,0,0, , , ,0,0, , ,FAROLITO,10192 PSJE 1,JARDIN INFANTIL
470, , , , , ,0, ,LA REINA,0,0,0,0,0,0,0,0,0,0,0,0,0,0,0,0,0,0,0,0,0,0,0,0,0,0,0,0,0,0,0,0,0,0,0,0,0,0,0,0,0,0,0, , , ,0,0, , ,AQUALUNA,6865 PDTE OVALLE,JARDIN INFANTIL
471, , , , , ,0, ,LA REINA,0,0,0,0,0,0,0,0,0,0,0,0,0,0,0,0,0,0,0,0,0,0,0,0,0,0,0,0,0,0,0,0,0,0,0,0,0,0,0,0,0,0,0, , , ,0,0, , ,PRINCIPE DE GALES,8771 PRINCIPE GALES,JARDIN INFANTIL
472, , , , , ,0, ,LA REINA,0,0,0,0,0,0,0,0,0,0,0,0,0,0,0,0,0,0,0,0,0,0,0,0,0,0,0,0,0,0,0,0,0,0,0,0,0,0,0,0,0,0,0, , , ,0,0, , ,SAINT ANGELUS LTDA.,50 PAULA JARAQUEMADA,JARDIN INFANTIL
473, , , , , ,0, ,LA REINA,0,0,0,0,0,0,0,0,0,0,0,0,0,0,0,0,0,0,0,0,0,0,0,0,0,0,0,0,0,0,0,0,0,0,0,0,0,0,0,0,0,0,0, , , ,0,0, , ,LITTLE BUCKINGHAN,1645 CARLOS OSSANDON,JARDIN INFANTIL Y SALA CUNA
474, , , , , ,0, ,LA REINA,0,0,0,0,0,0,0,0,0,0,0,0,0,0,0,0,0,0,0,0,0,0,0,0,0,0,0,0,0,0,0,0,0,0,0,0,0,0,0,0,0,0,0, , , ,0,0, , ,MATICES,1005 LORELEY,JARDIN INFANTIL
475, , , , , ,0, ,LA REINA,0,0,0,0,0,0,0,0,0,0,0,0,0,0,0,0,0,0,0,0,0,0,0,0,0,0,0,0,0,0,0,0,0,0,0,0,0,0,0,0,0,0,0, , , ,0,0, , ,SAN BENITO,7210 LA CANADA,JARDIN INFANTIL Y SALA CUNA
476, , , , , ,0, ,LA REINA,0,0,0,0,0,0,0,0,0,0,0,0,0,0,0,0,0,0,0,0,0,0,0,0,0,0,0,0,0,0,0,0,0,0,0,0,0,0,0,0,0,0,0, , , ,0,0, , ,IL GIARDINO,7700 LARRAIN,JARDIN INFANTIL Y SALA CUNA
477, , , , , ,0, ,LA REINA,0,0,0,0,0,0,0,0,0,0,0,0,0,0,0,0,0,0,0,0,0,0,0,0,0,0,0,0,0,0,0,0,0,0,0,0,0,0,0,0,0,0,0, , , ,0,0, , ,LA NUEVA ESCUELA,1290 MONS EDWARDS,JARDIN INFANTIL
478, , , , , ,0, ,LA REINA,0,0,0,0,0,0,0,0,0,0,0,0,0,0,0,0,0,0,0,0,0,0,0,0,0,0,0,0,0,0,0,0,0,0,0,0,0,0,0,0,0,0,0, , , ,0,0, , ,ANTILEN,2231 OSSA,JARDIN INFANTIL
479, , , , , ,0, ,LAMPA,0,0,0,0,0,0,0,0,0,0,0,0,0,0,0,0,0,0,0,0,0,0,0,0,0,0,0,0,0,0,0,0,0,0,0,0,0,0,0,0,0,0,0, , , ,0,0, , ,PLAY HOUSE,2640 LA MONTANA NORTE,JARDIN INFANTIL
480, , , , , ,0, ,LAMPA,0,0,0,0,0,0,0,0,0,0,0,0,0,0,0,0,0,0,0,0,0,0,0,0,0,0,0,0,0,0,0,0,0,0,0,0,0,0,0,0,0,0,0, , , ,0,0, , ,LARA PINTA EL SOL,2751 LAS MAGNOLIAS ORIENTE,JARDIN INFANTIL
481, , , , , ,0, ,LAS CONDES,0,0,0,0,0,0,0,0,0,0,0,0,0,0,0,0,0,0,0,0,0,0,0,0,0,0,0,0,0,0,0,0,0,0,0,0,0,0,0,0,0,0,0, , , ,0,0, , ,HORAS ALEGRES,7211 HERMANOS CABOT,JARDIN INFANTIL
482, , , , , ,0, ,LAS CONDES,0,0,0,0,0,0,0,0,0,0,0,0,0,0,0,0,0,0,0,0,0,0,0,0,0,0,0,0,0,0,0,0,0,0,0,0,0,0,0,0,0,0,0, , , ,0,0, , ,MARCO POLO,980 ALCANTARA,JARDIN INFANTIL
483, , , , , ,0, ,LAS CONDES,0,0,0,0,0,0,0,0,0,0,0,0,0,0,0,0,0,0,0,0,0,0,0,0,0,0,0,0,0,0,0,0,0,0,0,0,0,0,0,0,0,0,0, , , ,0,0, , ,LOS ANGELITOS,278 CUARTO CENTENARIO,JARDIN INFANTIL
484, , , , , ,0, ,LAS CONDES,0,0,0,0,0,0,0,0,0,0,0,0,0,0,0,0,0,0,0,0,0,0,0,0,0,0,0,0,0,0,0,0,0,0,0,0,0,0,0,0,0,0,0, , , ,0,0, , ,MY GREAT SPACE  EX. PAYU,7752 CRISTOBAL COLON,JARDIN INFANTIL
485, , , , , ,0, ,LAS CONDES,0,0,0,0,0,0,0,0,0,0,0,0,0,0,0,0,0,0,0,0,0,0,0,0,0,0,0,0,0,0,0,0,0,0,0,0,0,0,0,0,0,0,0, , , ,0,0, , ,TIERRA FELIZ LTDA,8905 ALEXANDER FLEMING,JARDIN INFANTIL
486, , , , , ,0, ,LAS CONDES,0,0,0,0,0,0,0,0,0,0,0,0,0,0,0,0,0,0,0,0,0,0,0,0,0,0,0,0,0,0,0,0,0,0,0,0,0,0,0,0,0,0,0, , , ,0,0, , ,NORITA,8960 PATRICIA ISIDORA,JARDIN INFANTIL
487, , , , , ,0, ,LAS CONDES,0,0,0,0,0,0,0,0,0,0,0,0,0,0,0,0,0,0,0,0,0,0,0,0,0,0,0,0,0,0,0,0,0,0,0,0,0,0,0,0,0,0,0, , , ,0,0, , ,PERSONITAS S.A.,1520 PADRE HURTADO CENTRAL,JARDIN INFANTIL
488, , , , , ,0, ,LAS CONDES,0,0,0,0,0,0,0,0,0,0,0,0,0,0,0,0,0,0,0,0,0,0,0,0,0,0,0,0,0,0,0,0,0,0,0,0,0,0,0,0,0,0,0, , , ,0,0, , ,SIMOLI,891 BELLO HORIZONTE,JARDIN INFANTIL
489, , , , , ,0, ,LAS CONDES,0,0,0,0,0,0,0,0,0,0,0,0,0,0,0,0,0,0,0,0,0,0,0,0,0,0,0,0,0,0,0,0,0,0,0,0,0,0,0,0,0,0,0, , , ,0,0, , ,AMANKAI,77 ALSACIA,JARDIN INFANTIL
490, , , , , ,0, ,LAS CONDES,0,0,0,0,0,0,0,0,0,0,0,0,0,0,0,0,0,0,0,0,0,0,0,0,0,0,0,0,0,0,0,0,0,0,0,0,0,0,0,0,0,0,0, , , ,0,0, , ,ANTILEN,4191 CRISTOBAL COLON,JARDIN INFANTIL
491, , , , , ,0, ,LAS CONDES,0,0,0,0,0,0,0,0,0,0,0,0,0,0,0,0,0,0,0,0,0,0,0,0,0,0,0,0,0,0,0,0,0,0,0,0,0,0,0,0,0,0,0, , , ,0,0, , ,INGLES,6060 FRANCISCO BILBAO,JARDIN INFANTIL
492, , , , , ,0, ,LAS CONDES,0,0,0,0,0,0,0,0,0,0,0,0,0,0,0,0,0,0,0,0,0,0,0,0,0,0,0,0,0,0,0,0,0,0,0,0,0,0,0,0,0,0,0, , , ,0,0, , ,CRECERES,7608 LOS DOMINICOS,JARDIN INFANTIL
493, , , , , ,0, ,LAS CONDES,0,0,0,0,0,0,0,0,0,0,0,0,0,0,0,0,0,0,0,0,0,0,0,0,0,0,0,0,0,0,0,0,0,0,0,0,0,0,0,0,0,0,0, , , ,0,0, , ,RINCON MAGICO,3299 CALLAO,JARDIN INFANTIL
494, , , , , ,0, ,LAS CONDES,0,0,0,0,0,0,0,0,0,0,0,0,0,0,0,0,0,0,0,0,0,0,0,0,0,0,0,0,0,0,0,0,0,0,0,0,0,0,0,0,0,0,0, , , ,0,0, , ,AMPALU,4331 ISABEL LA CATOLICA,JARDIN INFANTIL
495, , , , , ,0, ,LAS CONDES,0,0,0,0,0,0,0,0,0,0,0,0,0,0,0,0,0,0,0,0,0,0,0,0,0,0,0,0,0,0,0,0,0,0,0,0,0,0,0,0,0,0,0, , , ,0,0, , ,ARAUCARIA,188 AMERICO VESPUCIO NORTE,JARDIN INFANTIL
496, , , , , ,0, ,LAS CONDES,0,0,0,0,0,0,0,0,0,0,0,0,0,0,0,0,0,0,0,0,0,0,0,0,0,0,0,0,0,0,0,0,0,0,0,0,0,0,0,0,0,0,0, , , ,0,0, , ,CAMINITO,6697 LOS MILITARES,JARDIN INFANTIL Y SALA CUNA
497, , , , , ,0, ,LAS CONDES,0,0,0,0,0,0,0,0,0,0,0,0,0,0,0,0,0,0,0,0,0,0,0,0,0,0,0,0,0,0,0,0,0,0,0,0,0,0,0,0,0,0,0, , , ,0,0, , ,LA CALABAZA,450 PADRE HURTADO,JARDIN INFANTIL
498, , , , , ,0, ,LAS CONDES,0,0,0,0,0,0,0,0,0,0,0,0,0,0,0,0,0,0,0,0,0,0,0,0,0,0,0,0,0,0,0,0,0,0,0,0,0,0,0,0,0,0,0, , , ,0,0, , ,KIDS CORNER,7000 CRISTOBAL COLON,JARDIN INFANTIL
499, , , , , ,0, ,LAS CONDES,0,0,0,0,0,0,0,0,0,0,0,0,0,0,0,0,0,0,0,0,0,0,0,0,0,0,0,0,0,0,0,0,0,0,0,0,0,0,0,0,0,0,0, , , ,0,0, , ,QUERUBININES,653 LA CAPITANIA,JARDIN INFANTIL Y SALA CUNA
500, , , , , ,0, ,LAS CONDES,0,0,0,0,0,0,0,0,0,0,0,0,0,0,0,0,0,0,0,0,0,0,0,0,0,0,0,0,0,0,0,0,0,0,0,0,0,0,0,0,0,0,0, , , ,0,0, , ,SOC. EDUC. MONTESSORI SANTA MARIA DE LAS NI,7537 LOLCO,JARDIN INFANTIL
501, , , , , ,0, ,LAS CONDES,0,0,0,0,0,0,0,0,0,0,0,0,0,0,0,0,0,0,0,0,0,0,0,0,0,0,0,0,0,0,0,0,0,0,0,0,0,0,0,0,0,0,0, , , ,0,0, , ,LA GRANJITA,8587 CRISTOBAL COLON,JARDIN INFANTIL
502, , , , , ,0, ,LAS CONDES,0,0,0,0,0,0,0,0,0,0,0,0,0,0,0,0,0,0,0,0,0,0,0,0,0,0,0,0,0,0,0,0,0,0,0,0,0,0,0,0,0,0,0, , , ,0,0, , ,SONRISITAS,635 PADRE HURTADO CENTRAL,JARDIN INFANTIL Y SALA CUNA
503, , , , , ,0, ,LAS CONDES,0,0,0,0,0,0,0,0,0,0,0,0,0,0,0,0,0,0,0,0,0,0,0,0,0,0,0,0,0,0,0,0,0,0,0,0,0,0,0,0,0,0,0, , , ,0,0, , ,MI GRANJITA,713 HERNANDO DE MAGALLANES,JARDIN INFANTIL
504, , , , , ,0, ,LAS CONDES,0,0,0,0,0,0,0,0,0,0,0,0,0,0,0,0,0,0,0,0,0,0,0,0,0,0,0,0,0,0,0,0,0,0,0,0,0,0,0,0,0,0,0, , , ,0,0, , ,AGGU,9055 LAS VERBENAS,JARDIN INFANTIL
505, , , , , ,0, ,LAS CONDES,0,0,0,0,0,0,0,0,0,0,0,0,0,0,0,0,0,0,0,0,0,0,0,0,0,0,0,0,0,0,0,0,0,0,0,0,0,0,0,0,0,0,0, , , ,0,0, , ,CHIMPY EIRL,4369 VATICANO,JARDIN INFANTIL Y SALA CUNA
506, , , , , ,0, ,LAS CONDES,0,0,0,0,0,0,0,0,0,0,0,0,0,0,0,0,0,0,0,0,0,0,0,0,0,0,0,0,0,0,0,0,0,0,0,0,0,0,0,0,0,0,0, , , ,0,0, , ,HUMPTY DUMPTY,6378 CALLE CABILDO,JARDIN INFANTIL Y SALA CUNA
507, , , , , ,0, ,LAS CONDES,0,0,0,0,0,0,0,0,0,0,0,0,0,0,0,0,0,0,0,0,0,0,0,0,0,0,0,0,0,0,0,0,0,0,0,0,0,0,0,0,0,0,0, , , ,0,0, , ,PERSONITAS S.A.,1560 PADRE HURTADO CENTRAL,JARDIN INFANTIL Y SALA CUNA
508, , , , , ,0, ,LAS CONDES,0,0,0,0,0,0,0,0,0,0,0,0,0,0,0,0,0,0,0,0,0,0,0,0,0,0,0,0,0,0,0,0,0,0,0,0,0,0,0,0,0,0,0, , , ,0,0, , ,REMANSO,237 FELIX DE AMESTI,JARDIN INFANTIL
509, , , , , ,0, ,LAS CONDES,0,0,0,0,0,0,0,0,0,0,0,0,0,0,0,0,0,0,0,0,0,0,0,0,0,0,0,0,0,0,0,0,0,0,0,0,0,0,0,0,0,0,0, , , ,0,0, , ,CENTRO EDUCACIONAL J. I. Y S. C. CHOCOLATE,919 MANQUEHUE SUR,JARDIN INFANTIL Y SALA CUNA
510, , , , , ,0, ,LAS CONDES,0,0,0,0,0,0,0,0,0,0,0,0,0,0,0,0,0,0,0,0,0,0,0,0,0,0,0,0,0,0,0,0,0,0,0,0,0,0,0,0,0,0,0, , , ,0,0, , ,ANDALUE,1166 SEBASTIAN EL CANO,JARDIN INFANTIL
511, , , , , ,0, ,LAS CONDES,0,0,0,0,0,0,0,0,0,0,0,0,0,0,0,0,0,0,0,0,0,0,0,0,0,0,0,0,0,0,0,0,0,0,0,0,0,0,0,0,0,0,0, , , ,0,0, , ,BENJAMIN,2938 BENJAMIN,JARDIN INFANTIL
512, , , , , ,0, ,LAS CONDES,0,0,0,0,0,0,0,0,0,0,0,0,0,0,0,0,0,0,0,0,0,0,0,0,0,0,0,0,0,0,0,0,0,0,0,0,0,0,0,0,0,0,0, , , ,0,0, , ,ABRACADABRA,6571 LOS MILITARES,JARDIN INFANTIL
513, , , , , ,0, ,LAS CONDES,0,0,0,0,0,0,0,0,0,0,0,0,0,0,0,0,0,0,0,0,0,0,0,0,0,0,0,0,0,0,0,0,0,0,0,0,0,0,0,0,0,0,0, , , ,0,0, , ,CARAMELO,14272 LA QUEBRADA,JARDIN INFANTIL
514, , , , , ,0, ,LAS CONDES,0,0,0,0,0,0,0,0,0,0,0,0,0,0,0,0,0,0,0,0,0,0,0,0,0,0,0,0,0,0,0,0,0,0,0,0,0,0,0,0,0,0,0, , , ,0,0, , ,SOL DEL INCA,310 ROSARIO SUR,JARDIN INFANTIL
515, , , , , ,0, ,LAS CONDES,0,0,0,0,0,0,0,0,0,0,0,0,0,0,0,0,0,0,0,0,0,0,0,0,0,0,0,0,0,0,0,0,0,0,0,0,0,0,0,0,0,0,0, , , ,0,0, , ,DREAM GARDEN,6935 GARCIA PICA,JARDIN INFANTIL Y SALA CUNA
516, , , , , ,0, ,LAS CONDES,0,0,0,0,0,0,0,0,0,0,0,0,0,0,0,0,0,0,0,0,0,0,0,0,0,0,0,0,0,0,0,0,0,0,0,0,0,0,0,0,0,0,0, , , ,0,0, , ,DOMINIC,7716 LOS DOMINICOS,JARDIN INFANTIL
517, , , , , ,0, ,LAS CONDES,0,0,0,0,0,0,0,0,0,0,0,0,0,0,0,0,0,0,0,0,0,0,0,0,0,0,0,0,0,0,0,0,0,0,0,0,0,0,0,0,0,0,0, , , ,0,0, , ,NIDO DE GOLONDRINAS,1803 TOMAS MORO,JARDIN INFANTIL
518, , , , , ,0, ,LAS CONDES,0,0,0,0,0,0,0,0,0,0,0,0,0,0,0,0,0,0,0,0,0,0,0,0,0,0,0,0,0,0,0,0,0,0,0,0,0,0,0,0,0,0,0, , , ,0,0, , ,CRECER FELIZ,7520 NANDU,JARDIN INFANTIL
519, , , , , ,0, ,LAS CONDES,0,0,0,0,0,0,0,0,0,0,0,0,0,0,0,0,0,0,0,0,0,0,0,0,0,0,0,0,0,0,0,0,0,0,0,0,0,0,0,0,0,0,0, , , ,0,0, , ,PAPELUCHO,711 CRISTOBAL COLON,JARDIN INFANTIL
520, , , , , ,0, ,LAS CONDES,0,0,0,0,0,0,0,0,0,0,0,0,0,0,0,0,0,0,0,0,0,0,0,0,0,0,0,0,0,0,0,0,0,0,0,0,0,0,0,0,0,0,0, , , ,0,0, , ,GRACE GARDEN,8800 CRISTOBAL COLON,JARDIN INFANTIL
521, , , , , ,0, ,LAS CONDES,0,0,0,0,0,0,0,0,0,0,0,0,0,0,0,0,0,0,0,0,0,0,0,0,0,0,0,0,0,0,0,0,0,0,0,0,0,0,0,0,0,0,0, , , ,0,0, , ,PANES,4621 MARTIN DE ZAMORA,JARDIN INFANTIL
522, , , , , ,0, ,LAS CONDES,0,0,0,0,0,0,0,0,0,0,0,0,0,0,0,0,0,0,0,0,0,0,0,0,0,0,0,0,0,0,0,0,0,0,0,0,0,0,0,0,0,0,0, , , ,0,0, , ,MINIMUNDO,1376 CUNUMANQUI,JARDIN INFANTIL
523, , , , , ,0, ,LAS CONDES,0,0,0,0,0,0,0,0,0,0,0,0,0,0,0,0,0,0,0,0,0,0,0,0,0,0,0,0,0,0,0,0,0,0,0,0,0,0,0,0,0,0,0, , , ,0,0, , ,HAPPY HOURS,429 OXFORD,JARDIN INFANTIL
524, , , , , ,0, ,LAS CONDES,0,0,0,0,0,0,0,0,0,0,0,0,0,0,0,0,0,0,0,0,0,0,0,0,0,0,0,0,0,0,0,0,0,0,0,0,0,0,0,0,0,0,0, , , ,0,0, , ,PAMPANITOS,1991 FLORENCIO BARRIOS,JARDIN INFANTIL
525, , , , , ,0, ,LAS CONDES,0,0,0,0,0,0,0,0,0,0,0,0,0,0,0,0,0,0,0,0,0,0,0,0,0,0,0,0,0,0,0,0,0,0,0,0,0,0,0,0,0,0,0, , , ,0,0, , ,GIROS,116 AUGUSTO LEGIA SUR,JARDIN INFANTIL
526, , , , , ,0, ,LO BARNECHEA,0,0,0,0,0,0,0,0,0,0,0,0,0,0,0,0,0,0,0,0,0,0,0,0,0,0,0,0,0,0,0,0,0,0,0,0,0,0,0,0,0,0,0, , , ,0,0, , ,MIS AMIGOS,14372 LAS CONDES,JARDIN INFANTIL
527, , , , , ,0, ,LO BARNECHEA,0,0,0,0,0,0,0,0,0,0,0,0,0,0,0,0,0,0,0,0,0,0,0,0,0,0,0,0,0,0,0,0,0,0,0,0,0,0,0,0,0,0,0, , , ,0,0, , ,MARIA SOLEDAD,550 PADRE A. ARTEAGA BARROS,JARDIN INFANTIL
528, , , , , ,0, ,LO BARNECHEA,0,0,0,0,0,0,0,0,0,0,0,0,0,0,0,0,0,0,0,0,0,0,0,0,0,0,0,0,0,0,0,0,0,0,0,0,0,0,0,0,0,0,0, , , ,0,0, , ,RUNNINGBROOK,13476 EL RODEO,JARDIN INFANTIL
529, , , , , ,0, ,LO BARNECHEA,0,0,0,0,0,0,0,0,0,0,0,0,0,0,0,0,0,0,0,0,0,0,0,0,0,0,0,0,0,0,0,0,0,0,0,0,0,0,0,0,0,0,0, , , ,0,0, , ,ZAPATITO ROTO,13276 ROBLES,JARDIN INFANTIL
530, , , , , ,0, ,LO BARNECHEA,0,0,0,0,0,0,0,0,0,0,0,0,0,0,0,0,0,0,0,0,0,0,0,0,0,0,0,0,0,0,0,0,0,0,0,0,0,0,0,0,0,0,0, , , ,0,0, , ,CUENTACUENTOS,13479 EL RODEO,JARDIN INFANTIL
531, , , , , ,0, ,LO BARNECHEA,0,0,0,0,0,0,0,0,0,0,0,0,0,0,0,0,0,0,0,0,0,0,0,0,0,0,0,0,0,0,0,0,0,0,0,0,0,0,0,0,0,0,0, , , ,0,0, , ,LOS DUENDECITOS,13877 NIDO DE AGUILA,JARDIN INFANTIL
532, , , , , ,0, ,LO PRADO,0,0,0,0,0,0,0,0,0,0,0,0,0,0,0,0,0,0,0,0,0,0,0,0,0,0,0,0,0,0,0,0,0,0,0,0,0,0,0,0,0,0,0, , , ,0,0, , ,HANSEL Y GRETEL,5978 SAN PABLO,JARDIN INFANTIL
533, , , , , ,0, ,LO PRADO,0,0,0,0,0,0,0,0,0,0,0,0,0,0,0,0,0,0,0,0,0,0,0,0,0,0,0,0,0,0,0,0,0,0,0,0,0,0,0,0,0,0,0, , , ,0,0, , ,BURBUJITAS,1068 LOS LIRIOS,JARDIN INFANTIL
534, , , , , ,0, ,LO PRADO,0,0,0,0,0,0,0,0,0,0,0,0,0,0,0,0,0,0,0,0,0,0,0,0,0,0,0,0,0,0,0,0,0,0,0,0,0,0,0,0,0,0,0, , , ,0,0, , ,HAPPY DAYS,823 LAS ACACIAS,JARDIN INFANTIL
535, , , , , ,0, ,MACUL,0,0,0,0,0,0,0,0,0,0,0,0,0,0,0,0,0,0,0,0,0,0,0,0,0,0,0,0,0,0,0,0,0,0,0,0,0,0,0,0,0,0,0, , , ,0,0, , ,ARTECOLOR,4664 ITALO MARTINEZ,JARDIN INFANTIL
536, , , , , ,0, ,MACUL,0,0,0,0,0,0,0,0,0,0,0,0,0,0,0,0,0,0,0,0,0,0,0,0,0,0,0,0,0,0,0,0,0,0,0,0,0,0,0,0,0,0,0, , , ,0,0, , ,GIROLIN,3626 DOCTOR AMADOR NEGHME,JARDIN INFANTIL
537, , , , , ,0, ,MACUL,0,0,0,0,0,0,0,0,0,0,0,0,0,0,0,0,0,0,0,0,0,0,0,0,0,0,0,0,0,0,0,0,0,0,0,0,0,0,0,0,0,0,0, , , ,0,0, , ,CACHARRITO,2940 PREMIO NOBEL,JARDIN INFANTIL
538, , , , , ,0, ,MACUL,0,0,0,0,0,0,0,0,0,0,0,0,0,0,0,0,0,0,0,0,0,0,0,0,0,0,0,0,0,0,0,0,0,0,0,0,0,0,0,0,0,0,0, , , ,0,0, , ,RINCONCITO FELIZ,1873 ESTADIO COLO COLO,JARDIN INFANTIL
539, , , , , ,0, ,MACUL,0,0,0,0,0,0,0,0,0,0,0,0,0,0,0,0,0,0,0,0,0,0,0,0,0,0,0,0,0,0,0,0,0,0,0,0,0,0,0,0,0,0,0, , , ,0,0, , ,ESTRELLITAS DE BELEN,2985 JOAQUIN RODRIGUEZ,JARDIN INFANTIL
540, , , , , ,0, ,MACUL,0,0,0,0,0,0,0,0,0,0,0,0,0,0,0,0,0,0,0,0,0,0,0,0,0,0,0,0,0,0,0,0,0,0,0,0,0,0,0,0,0,0,0, , , ,0,0, , ,TENVILU,3141 STA CRISTINA,JARDIN INFANTIL
541, , , , , ,0, ,MACUL,0,0,0,0,0,0,0,0,0,0,0,0,0,0,0,0,0,0,0,0,0,0,0,0,0,0,0,0,0,0,0,0,0,0,0,0,0,0,0,0,0,0,0, , , ,0,0, , ,CASITA FELIZ,1862 LOS COPIHUES,JARDIN INFANTIL
542, , , , , ,0, ,MAIPU,0,0,0,0,0,0,0,0,0,0,0,0,0,0,0,0,0,0,0,0,0,0,0,0,0,0,0,0,0,0,0,0,0,0,0,0,0,0,0,0,0,0,0, , , ,0,0, , ,PEQUITAS,210 ARGENTINA,JARDIN INFANTIL
543, , , , , ,0, ,MAIPU,0,0,0,0,0,0,0,0,0,0,0,0,0,0,0,0,0,0,0,0,0,0,0,0,0,0,0,0,0,0,0,0,0,0,0,0,0,0,0,0,0,0,0, , , ,0,0, , ,SOC. EDUC. SAN FRANCISCO LTDA. TOMMYS GARD,2892 PRIMERA TRANSVERSAL,JARDIN INFANTIL
544, , , , , ,0, ,MAIPU,0,0,0,0,0,0,0,0,0,0,0,0,0,0,0,0,0,0,0,0,0,0,0,0,0,0,0,0,0,0,0,0,0,0,0,0,0,0,0,0,0,0,0, , , ,0,0, , ,SOC. EDUC. BAEZA LTDA. EL PALACIO DE LOS NI,621 SUR,JARDIN INFANTIL
545, , , , , ,0, ,MAIPU,0,0,0,0,0,0,0,0,0,0,0,0,0,0,0,0,0,0,0,0,0,0,0,0,0,0,0,0,0,0,0,0,0,0,0,0,0,0,0,0,0,0,0, , , ,0,0, , ,LOS REYECITOS,4425 PAJARITOS,JARDIN INFANTIL
546, , , , , ,0, ,MAIPU,0,0,0,0,0,0,0,0,0,0,0,0,0,0,0,0,0,0,0,0,0,0,0,0,0,0,0,0,0,0,0,0,0,0,0,0,0,0,0,0,0,0,0, , , ,0,0, , ,LUZ DE LUNA,55 CENTENARIO,JARDIN INFANTIL
547, , , , , ,0, ,MAIPU,0,0,0,0,0,0,0,0,0,0,0,0,0,0,0,0,0,0,0,0,0,0,0,0,0,0,0,0,0,0,0,0,0,0,0,0,0,0,0,0,0,0,0, , , ,0,0, , ,REMOLINO LTDA,250 AVDA 3 PONIENTE,JARDIN INFANTIL
548, , , , , ,0, ,MAIPU,0,0,0,0,0,0,0,0,0,0,0,0,0,0,0,0,0,0,0,0,0,0,0,0,0,0,0,0,0,0,0,0,0,0,0,0,0,0,0,0,0,0,0, , , ,0,0, , ,SAN JOSE,1033 NUEVA SAN MARTIN,JARDIN INFANTIL Y SALA CUNA
549, , , , , ,0, ,MAIPU,0,0,0,0,0,0,0,0,0,0,0,0,0,0,0,0,0,0,0,0,0,0,0,0,0,0,0,0,0,0,0,0,0,0,0,0,0,0,0,0,0,0,0, , , ,0,0, , ,LOS ANGELITOS,1843 NUEVA SAN MARTIN,JARDIN INFANTIL
550, , , , , ,0, ,MAIPU,0,0,0,0,0,0,0,0,0,0,0,0,0,0,0,0,0,0,0,0,0,0,0,0,0,0,0,0,0,0,0,0,0,0,0,0,0,0,0,0,0,0,0, , , ,0,0, , ,PUDU,1726 DEL REY,JARDIN INFANTIL
551, , , , , ,0, ,MAIPU,0,0,0,0,0,0,0,0,0,0,0,0,0,0,0,0,0,0,0,0,0,0,0,0,0,0,0,0,0,0,0,0,0,0,0,0,0,0,0,0,0,0,0, , , ,0,0, , ,ABEJITA ZUM ZUM,205 CENTENARIO,JARDIN INFANTIL
552, , , , , ,0, ,MAIPU,0,0,0,0,0,0,0,0,0,0,0,0,0,0,0,0,0,0,0,0,0,0,0,0,0,0,0,0,0,0,0,0,0,0,0,0,0,0,0,0,0,0,0, , , ,0,0, , ,SEMILLITAS,155 CENTRAL,JARDIN INFANTIL
553, , , , , ,0, ,MAIPU,0,0,0,0,0,0,0,0,0,0,0,0,0,0,0,0,0,0,0,0,0,0,0,0,0,0,0,0,0,0,0,0,0,0,0,0,0,0,0,0,0,0,0, , , ,0,0, , ,LOS PAJARITOS,97 FERNANDO RIESCO,JARDIN INFANTIL
554, , , , , ,0, ,MAIPU,0,0,0,0,0,0,0,0,0,0,0,0,0,0,0,0,0,0,0,0,0,0,0,0,0,0,0,0,0,0,0,0,0,0,0,0,0,0,0,0,0,0,0, , , ,0,0, , ,CARACOL,290 LOS DIAMANTES,JARDIN INFANTIL
555, , , , , ,0, ,MAIPU,0,0,0,0,0,0,0,0,0,0,0,0,0,0,0,0,0,0,0,0,0,0,0,0,0,0,0,0,0,0,0,0,0,0,0,0,0,0,0,0,0,0,0, , , ,0,0, , ,LOS VOLANTINES,1071 PAJARITOS,JARDIN INFANTIL
556, , , , , ,0, ,MAIPU,0,0,0,0,0,0,0,0,0,0,0,0,0,0,0,0,0,0,0,0,0,0,0,0,0,0,0,0,0,0,0,0,0,0,0,0,0,0,0,0,0,0,0, , , ,0,0, , ,ABRA CADABRA,56 PSJE CARLOS SANTANA,JARDIN INFANTIL
557, , , , , ,0, ,MAIPU,0,0,0,0,0,0,0,0,0,0,0,0,0,0,0,0,0,0,0,0,0,0,0,0,0,0,0,0,0,0,0,0,0,0,0,0,0,0,0,0,0,0,0, , , ,0,0, , ,ALBORADA,286 LUIS GANDARILLAS,JARDIN INFANTIL
558, , , , , ,0, ,MAIPU,0,0,0,0,0,0,0,0,0,0,0,0,0,0,0,0,0,0,0,0,0,0,0,0,0,0,0,0,0,0,0,0,0,0,0,0,0,0,0,0,0,0,0, , , ,0,0, , ,CHIQUITOS,401 PARQUE CENTRAL ORIENTE,JARDIN INFANTIL
559, , , , , ,0, ,MAIPU,0,0,0,0,0,0,0,0,0,0,0,0,0,0,0,0,0,0,0,0,0,0,0,0,0,0,0,0,0,0,0,0,0,0,0,0,0,0,0,0,0,0,0, , , ,0,0, , ,ESTRELLITAS MAGICAS,4687 CALETERA PAJARITOS,JARDIN INFANTIL
560, , , , , ,0, ,MELIPILLA,0,0,0,0,0,0,0,0,0,0,0,0,0,0,0,0,0,0,0,0,0,0,0,0,0,0,0,0,0,0,0,0,0,0,0,0,0,0,0,0,0,0,0, , , ,0,0, , ,SANTA SOFIA,550 VICUNA MACKENNA,JARDIN INFANTIL
561, , , , , ,0, ,NUNOA,0,0,0,0,0,0,0,0,0,0,0,0,0,0,0,0,0,0,0,0,0,0,0,0,0,0,0,0,0,0,0,0,0,0,0,0,0,0,0,0,0,0,0, , , ,0,0, , ,SOCIEDAD EDUCACIONAL J.I.MI INFANCIA LTDA,476 EXEQUIEL FERNANDEZ,JARDIN INFANTIL
562, , , , , ,0, ,NUNOA,0,0,0,0,0,0,0,0,0,0,0,0,0,0,0,0,0,0,0,0,0,0,0,0,0,0,0,0,0,0,0,0,0,0,0,0,0,0,0,0,0,0,0, , , ,0,0, , ,SAINT FLOWER,2937 JOSE DOMINGO CANAS,JARDIN INFANTIL
563, , , , , ,0, ,NUNOA,0,0,0,0,0,0,0,0,0,0,0,0,0,0,0,0,0,0,0,0,0,0,0,0,0,0,0,0,0,0,0,0,0,0,0,0,0,0,0,0,0,0,0, , , ,0,0, , ,MATILDE HUICI,2435 JOSE DOMINGO CANAS,JARDIN INFANTIL
564, , , , , ,0, ,NUNOA,0,0,0,0,0,0,0,0,0,0,0,0,0,0,0,0,0,0,0,0,0,0,0,0,0,0,0,0,0,0,0,0,0,0,0,0,0,0,0,0,0,0,0, , , ,0,0, , ,HELLEN,4563 EMILIA TELLES,JARDIN INFANTIL
565, , , , , ,0, ,NUNOA,0,0,0,0,0,0,0,0,0,0,0,0,0,0,0,0,0,0,0,0,0,0,0,0,0,0,0,0,0,0,0,0,0,0,0,0,0,0,0,0,0,0,0, , , ,0,0, , ,MUNDO ENCANTADO,2499 MANUEL MONTT,JARDIN INFANTIL
566, , , , , ,0, ,NUNOA,0,0,0,0,0,0,0,0,0,0,0,0,0,0,0,0,0,0,0,0,0,0,0,0,0,0,0,0,0,0,0,0,0,0,0,0,0,0,0,0,0,0,0, , , ,0,0, , ,PARQUE DE LOS PEQUES,4690 ESTRELLA SOLITARIA,JARDIN INFANTIL
567, , , , , ,0, ,NUNOA,0,0,0,0,0,0,0,0,0,0,0,0,0,0,0,0,0,0,0,0,0,0,0,0,0,0,0,0,0,0,0,0,0,0,0,0,0,0,0,0,0,0,0, , , ,0,0, , ,NENES,5590 LOS AGUSTINOS,JARDIN INFANTIL
568, , , , , ,0, ,NUNOA,0,0,0,0,0,0,0,0,0,0,0,0,0,0,0,0,0,0,0,0,0,0,0,0,0,0,0,0,0,0,0,0,0,0,0,0,0,0,0,0,0,0,0, , , ,0,0, , ,DESPERTARES.,2904 DUBLE ALMEYDA,JARDIN INFANTIL
569, , , , , ,0, ,NUNOA,0,0,0,0,0,0,0,0,0,0,0,0,0,0,0,0,0,0,0,0,0,0,0,0,0,0,0,0,0,0,0,0,0,0,0,0,0,0,0,0,0,0,0, , , ,0,0, , ,LA RANA TANA,3719 PDTE BATLLE Y ORDONEZ,JARDIN INFANTIL
570, , , , , ,0, ,NUNOA,0,0,0,0,0,0,0,0,0,0,0,0,0,0,0,0,0,0,0,0,0,0,0,0,0,0,0,0,0,0,0,0,0,0,0,0,0,0,0,0,0,0,0, , , ,0,0, , ,ARROZ CON LECHE,1770 DUBLE ALMEYDA,JARDIN INFANTIL
571, , , , , ,0, ,NUNOA,0,0,0,0,0,0,0,0,0,0,0,0,0,0,0,0,0,0,0,0,0,0,0,0,0,0,0,0,0,0,0,0,0,0,0,0,0,0,0,0,0,0,0, , , ,0,0, , ,MACARENA,2960 ALONSO DE ERCILLA,JARDIN INFANTIL Y SALA CUNA
572, , , , , ,0, ,NUNOA,0,0,0,0,0,0,0,0,0,0,0,0,0,0,0,0,0,0,0,0,0,0,0,0,0,0,0,0,0,0,0,0,0,0,0,0,0,0,0,0,0,0,0, , , ,0,0, , ,PAMI LTDA,745 COVENTRY,JARDIN INFANTIL
573, , , , , ,0, ,NUNOA,0,0,0,0,0,0,0,0,0,0,0,0,0,0,0,0,0,0,0,0,0,0,0,0,0,0,0,0,0,0,0,0,0,0,0,0,0,0,0,0,0,0,0, , , ,0,0, , ,TRIBILIN,1392 JORGE CANNING,JARDIN INFANTIL
574, , , , , ,0, ,NUNOA,0,0,0,0,0,0,0,0,0,0,0,0,0,0,0,0,0,0,0,0,0,0,0,0,0,0,0,0,0,0,0,0,0,0,0,0,0,0,0,0,0,0,0, , , ,0,0, , ,CHAMIN I,4312 ALCALDE EDUARDO CASTILLO VELASCO,JARDIN INFANTIL
575, , , , , ,0, ,NUNOA,0,0,0,0,0,0,0,0,0,0,0,0,0,0,0,0,0,0,0,0,0,0,0,0,0,0,0,0,0,0,0,0,0,0,0,0,0,0,0,0,0,0,0, , , ,0,0, , ,AUCA LTDA.,2651 JOSE DOMINGO CANAS,JARDIN INFANTIL
576, , , , , ,0, ,NUNOA,0,0,0,0,0,0,0,0,0,0,0,0,0,0,0,0,0,0,0,0,0,0,0,0,0,0,0,0,0,0,0,0,0,0,0,0,0,0,0,0,0,0,0, , , ,0,0, , ,PARVULONAUTAS LTDA.,3199 RICARDO LYON,JARDIN INFANTIL
577, , , , , ,0, ,NUNOA,0,0,0,0,0,0,0,0,0,0,0,0,0,0,0,0,0,0,0,0,0,0,0,0,0,0,0,0,0,0,0,0,0,0,0,0,0,0,0,0,0,0,0, , , ,0,0, , ,QUERUBIN,2790 PEDRO DE VALDIVIA,JARDIN INFANTIL
578, , , , , ,0, ,NUNOA,0,0,0,0,0,0,0,0,0,0,0,0,0,0,0,0,0,0,0,0,0,0,0,0,0,0,0,0,0,0,0,0,0,0,0,0,0,0,0,0,0,0,0, , , ,0,0, , ,SPRING FLOWERS  EX SUNS FLOWER,815 HAMBURGO,JARDIN INFANTIL
579, , , , , ,0, ,NUNOA,0,0,0,0,0,0,0,0,0,0,0,0,0,0,0,0,0,0,0,0,0,0,0,0,0,0,0,0,0,0,0,0,0,0,0,0,0,0,0,0,0,0,0, , , ,0,0, , ,RAILEN,194 JUAN MOYA,JARDIN INFANTIL
580, , , , , ,0, ,NUNOA,0,0,0,0,0,0,0,0,0,0,0,0,0,0,0,0,0,0,0,0,0,0,0,0,0,0,0,0,0,0,0,0,0,0,0,0,0,0,0,0,0,0,0, , , ,0,0, , ,SEMILLITA,1777 REPUBLICA DE ISRAEL,JARDIN INFANTIL Y SALA CUNA
581, , , , , ,0, ,NUNOA,0,0,0,0,0,0,0,0,0,0,0,0,0,0,0,0,0,0,0,0,0,0,0,0,0,0,0,0,0,0,0,0,0,0,0,0,0,0,0,0,0,0,0, , , ,0,0, , ,SER,71 AMERICO VESPUCIO,JARDIN INFANTIL
582, , , , , ,0, ,NUNOA,0,0,0,0,0,0,0,0,0,0,0,0,0,0,0,0,0,0,0,0,0,0,0,0,0,0,0,0,0,0,0,0,0,0,0,0,0,0,0,0,0,0,0, , , ,0,0, , ,MI RINCON,4106 SIMON BOLIVAR,JARDIN INFANTIL
583, , , , , ,0, ,NUNOA,0,0,0,0,0,0,0,0,0,0,0,0,0,0,0,0,0,0,0,0,0,0,0,0,0,0,0,0,0,0,0,0,0,0,0,0,0,0,0,0,0,0,0, , , ,0,0, , ,ANUMRAYEN,927 LO ENCALADA,JARDIN INFANTIL
584, , , , , ,0, ,NUNOA,0,0,0,0,0,0,0,0,0,0,0,0,0,0,0,0,0,0,0,0,0,0,0,0,0,0,0,0,0,0,0,0,0,0,0,0,0,0,0,0,0,0,0, , , ,0,0, , ,SOC. EDUCACIONAL MY LITTLE COUNTRY,951 COVENTRY,JARDIN INFANTIL
585, , , , , ,0, ,NUNOA,0,0,0,0,0,0,0,0,0,0,0,0,0,0,0,0,0,0,0,0,0,0,0,0,0,0,0,0,0,0,0,0,0,0,0,0,0,0,0,0,0,0,0, , , ,0,0, , ,DINO,3442 JOSE IGNACIO VERGARA,JARDIN INFANTIL
586, , , , , ,0, ,PAC,0,0,0,0,0,0,0,0,0,0,0,0,0,0,0,0,0,0,0,0,0,0,0,0,0,0,0,0,0,0,0,0,0,0,0,0,0,0,0,0,0,0,0, , , ,0,0, , ,DIA FELIZ,2521 LAZO,JARDIN INFANTIL
587, , , , , ,0, ,PENALOLEN,0,0,0,0,0,0,0,0,0,0,0,0,0,0,0,0,0,0,0,0,0,0,0,0,0,0,0,0,0,0,0,0,0,0,0,0,0,0,0,0,0,0,0, , , ,0,0, , ,VALLE ENCANTADO,2705 ALBERTO VALENZUELA LLANOS,JARDIN INFANTIL
588, , , , , ,0, ,PENALOLEN,0,0,0,0,0,0,0,0,0,0,0,0,0,0,0,0,0,0,0,0,0,0,0,0,0,0,0,0,0,0,0,0,0,0,0,0,0,0,0,0,0,0,0, , , ,0,0, , ,PRALINE LTDA.,11920 MARIANO SANCHEZ FONTECILLA,JARDIN INFANTIL Y SALA CUNA
589, , , , , ,0, ,PENALOLEN,0,0,0,0,0,0,0,0,0,0,0,0,0,0,0,0,0,0,0,0,0,0,0,0,0,0,0,0,0,0,0,0,0,0,0,0,0,0,0,0,0,0,0, , , ,0,0, , ,LA TORTUGA TUGA,6809 QUILIN,JARDIN INFANTIL
590, , , , , ,0, ,PENALOLEN,0,0,0,0,0,0,0,0,0,0,0,0,0,0,0,0,0,0,0,0,0,0,0,0,0,0,0,0,0,0,0,0,0,0,0,0,0,0,0,0,0,0,0, , , ,0,0, , ,CARACOLA,5100 LAS TORRES,JARDIN INFANTIL
591, , , , , ,0, ,PENALOLEN,0,0,0,0,0,0,0,0,0,0,0,0,0,0,0,0,0,0,0,0,0,0,0,0,0,0,0,0,0,0,0,0,0,0,0,0,0,0,0,0,0,0,0, , , ,0,0, , ,CREACIONES,11748 MARIANO SANCHEZ FONTECILLA,JARDIN INFANTIL Y SALA CUNA
592, , , , , ,0, ,PENALOLEN,0,0,0,0,0,0,0,0,0,0,0,0,0,0,0,0,0,0,0,0,0,0,0,0,0,0,0,0,0,0,0,0,0,0,0,0,0,0,0,0,0,0,0, , , ,0,0, , ,RESBALIN,3847 CASABLANCA,JARDIN INFANTIL Y SALA CUNA
593, , , , , ,0, ,PENALOLEN,0,0,0,0,0,0,0,0,0,0,0,0,0,0,0,0,0,0,0,0,0,0,0,0,0,0,0,0,0,0,0,0,0,0,0,0,0,0,0,0,0,0,0, , , ,0,0, , ,GIRACOLORES,13976 MARIANO SANCHEZ FONTECILLA,JARDIN INFANTIL
594, , , , , ,0, ,PROVIDENCIA,0,0,0,0,0,0,0,0,0,0,0,0,0,0,0,0,0,0,0,0,0,0,0,0,0,0,0,0,0,0,0,0,0,0,0,0,0,0,0,0,0,0,0, , , ,0,0, , ,AZULILLO,2333 POCURO,JARDIN INFANTIL
595, , , , , ,0, ,PROVIDENCIA,0,0,0,0,0,0,0,0,0,0,0,0,0,0,0,0,0,0,0,0,0,0,0,0,0,0,0,0,0,0,0,0,0,0,0,0,0,0,0,0,0,0,0, , , ,0,0, , ,LA CASA DEL BAMBINI,2121 AUSTRIA,JARDIN INFANTIL
596, , , , , ,0, ,PROVIDENCIA,0,0,0,0,0,0,0,0,0,0,0,0,0,0,0,0,0,0,0,0,0,0,0,0,0,0,0,0,0,0,0,0,0,0,0,0,0,0,0,0,0,0,0, , , ,0,0, , ,PEQUELANDIA LTDA.,1202 SUECIA,JARDIN INFANTIL Y SALA CUNA
597, , , , , ,0, ,PROVIDENCIA,0,0,0,0,0,0,0,0,0,0,0,0,0,0,0,0,0,0,0,0,0,0,0,0,0,0,0,0,0,0,0,0,0,0,0,0,0,0,0,0,0,0,0, , , ,0,0, , ,LEKIS,1718  ELIODORO YANEZ,JARDIN INFANTIL
598, , , , , ,0, ,PROVIDENCIA,0,0,0,0,0,0,0,0,0,0,0,0,0,0,0,0,0,0,0,0,0,0,0,0,0,0,0,0,0,0,0,0,0,0,0,0,0,0,0,0,0,0,0, , , ,0,0, , ,SIEMBRA DULZURA,913 MATILDE SALAMANCA,JARDIN INFANTIL
599, , , , , ,0, ,PROVIDENCIA,0,0,0,0,0,0,0,0,0,0,0,0,0,0,0,0,0,0,0,0,0,0,0,0,0,0,0,0,0,0,0,0,0,0,0,0,0,0,0,0,0,0,0, , , ,0,0, , ,LAS LILAS,2424 CALIFORNIA,JARDIN INFANTIL
600, , , , , ,0, ,PROVIDENCIA,0,0,0,0,0,0,0,0,0,0,0,0,0,0,0,0,0,0,0,0,0,0,0,0,0,0,0,0,0,0,0,0,0,0,0,0,0,0,0,0,0,0,0, , , ,0,0, , ,HOUSE GARDEN,1437 RICARDO LYON,JARDIN INFANTIL
601, , , , , ,0, ,PROVIDENCIA,0,0,0,0,0,0,0,0,0,0,0,0,0,0,0,0,0,0,0,0,0,0,0,0,0,0,0,0,0,0,0,0,0,0,0,0,0,0,0,0,0,0,0, , , ,0,0, , ,MI AMIGUITO,1497 CARLOS WILSON,JARDIN INFANTIL
602, , , , , ,0, ,PROVIDENCIA,0,0,0,0,0,0,0,0,0,0,0,0,0,0,0,0,0,0,0,0,0,0,0,0,0,0,0,0,0,0,0,0,0,0,0,0,0,0,0,0,0,0,0, , , ,0,0, , ,MANINA LTDA.,2882 MARCEL DUHAUT,JARDIN INFANTIL Y SALA CUNA
603, , , , , ,0, ,PROVIDENCIA,0,0,0,0,0,0,0,0,0,0,0,0,0,0,0,0,0,0,0,0,0,0,0,0,0,0,0,0,0,0,0,0,0,0,0,0,0,0,0,0,0,0,0, , , ,0,0, , ,MANCHITAS DE COLORES,1983 AMAPOLAS,JARDIN INFANTIL Y SALA CUNA
604, , , , , ,0, ,PROVIDENCIA,0,0,0,0,0,0,0,0,0,0,0,0,0,0,0,0,0,0,0,0,0,0,0,0,0,0,0,0,0,0,0,0,0,0,0,0,0,0,0,0,0,0,0, , , ,0,0, , ,CLINICA SANTA MARIA S.A.,745 FERNANDO MANTEROLA,JARDIN INFANTIL
605, , , , , ,0, ,PROVIDENCIA,0,0,0,0,0,0,0,0,0,0,0,0,0,0,0,0,0,0,0,0,0,0,0,0,0,0,0,0,0,0,0,0,0,0,0,0,0,0,0,0,0,0,0, , , ,0,0, , ,POCURO LTDA,2476 POCURO,JARDIN INFANTIL
606, , , , , ,0, ,PROVIDENCIA,0,0,0,0,0,0,0,0,0,0,0,0,0,0,0,0,0,0,0,0,0,0,0,0,0,0,0,0,0,0,0,0,0,0,0,0,0,0,0,0,0,0,0, , , ,0,0, , ,MANANTIAL,300 ANTONIO BELLET,JARDIN INFANTIL
607, , , , , ,0, ,PROVIDENCIA,0,0,0,0,0,0,0,0,0,0,0,0,0,0,0,0,0,0,0,0,0,0,0,0,0,0,0,0,0,0,0,0,0,0,0,0,0,0,0,0,0,0,0, , , ,0,0, , ,CHAPO,937 CLEMENTE FABRES,JARDIN INFANTIL
608, , , , , ,0, ,PROVIDENCIA,0,0,0,0,0,0,0,0,0,0,0,0,0,0,0,0,0,0,0,0,0,0,0,0,0,0,0,0,0,0,0,0,0,0,0,0,0,0,0,0,0,0,0, , , ,0,0, , ,CRUCERO,286 CRUCERO EXETER,JARDIN INFANTIL Y SALA CUNA
609, , , , , ,0, ,PROVIDENCIA,0,0,0,0,0,0,0,0,0,0,0,0,0,0,0,0,0,0,0,0,0,0,0,0,0,0,0,0,0,0,0,0,0,0,0,0,0,0,0,0,0,0,0, , , ,0,0, , ,LA SOLUCION,470 ANTONIO VARAS,JARDIN INFANTIL
610, , , , , ,0, ,PROVIDENCIA,0,0,0,0,0,0,0,0,0,0,0,0,0,0,0,0,0,0,0,0,0,0,0,0,0,0,0,0,0,0,0,0,0,0,0,0,0,0,0,0,0,0,0, , , ,0,0, , ,BIG HOUSE,2435 ELIODORO YANEZ,JARDIN INFANTIL
611, , , , , ,0, ,PROVIDENCIA,0,0,0,0,0,0,0,0,0,0,0,0,0,0,0,0,0,0,0,0,0,0,0,0,0,0,0,0,0,0,0,0,0,0,0,0,0,0,0,0,0,0,0, , , ,0,0, , ,KUNAQUNITA,734 ROMAN DIAZ,JARDIN INFANTIL
612, , , , , ,0, ,PROVIDENCIA,0,0,0,0,0,0,0,0,0,0,0,0,0,0,0,0,0,0,0,0,0,0,0,0,0,0,0,0,0,0,0,0,0,0,0,0,0,0,0,0,0,0,0, , , ,0,0, , ,FANTASIA MUSICAL,576 MARIA LUISA SANTANDER,JARDIN INFANTIL Y SALA CUNA
613, , , , , ,0, ,PROVIDENCIA,0,0,0,0,0,0,0,0,0,0,0,0,0,0,0,0,0,0,0,0,0,0,0,0,0,0,0,0,0,0,0,0,0,0,0,0,0,0,0,0,0,0,0, , , ,0,0, , ,ARAUCARIA,1736 FEDERICO FROEBEL,JARDIN INFANTIL
614, , , , , ,0, ,PROVIDENCIA,0,0,0,0,0,0,0,0,0,0,0,0,0,0,0,0,0,0,0,0,0,0,0,0,0,0,0,0,0,0,0,0,0,0,0,0,0,0,0,0,0,0,0, , , ,0,0, , ,TIMONEL,2536 DIEGO DE ALMAGRO,JARDIN INFANTIL Y SALA CUNA
615, , , , , ,0, ,PROVIDENCIA,0,0,0,0,0,0,0,0,0,0,0,0,0,0,0,0,0,0,0,0,0,0,0,0,0,0,0,0,0,0,0,0,0,0,0,0,0,0,0,0,0,0,0, , , ,0,0, , ,LOS MUNECOS,2139 RICARDO LYON,JARDIN INFANTIL
616, , , , , ,0, ,PROVIDENCIA,0,0,0,0,0,0,0,0,0,0,0,0,0,0,0,0,0,0,0,0,0,0,0,0,0,0,0,0,0,0,0,0,0,0,0,0,0,0,0,0,0,0,0, , , ,0,0, , ,SEMINARIO,92 SEMINARIO,JARDIN INFANTIL
617, , , , , ,0, ,PROVIDENCIA,0,0,0,0,0,0,0,0,0,0,0,0,0,0,0,0,0,0,0,0,0,0,0,0,0,0,0,0,0,0,0,0,0,0,0,0,0,0,0,0,0,0,0, , , ,0,0, , ,CAROLINA,2480 FRANCISCO BILBAO,JARDIN INFANTIL
618, , , , , ,0, ,PUDAHUEL,0,0,0,0,0,0,0,0,0,0,0,0,0,0,0,0,0,0,0,0,0,0,0,0,0,0,0,0,0,0,0,0,0,0,0,0,0,0,0,0,0,0,0, , , ,0,0, , ,ARCO IRIS,251 AMERICO VESPUCIO,JARDIN INFANTIL
619, , , , , ,0, ,PUDAHUEL,0,0,0,0,0,0,0,0,0,0,0,0,0,0,0,0,0,0,0,0,0,0,0,0,0,0,0,0,0,0,0,0,0,0,0,0,0,0,0,0,0,0,0, , , ,0,0, , ,RAYITO DE LUZ,231 AMERICO VESPUCIO,JARDIN INFANTIL
620, , , , , ,0, ,PUENTE ALTO,0,0,0,0,0,0,0,0,0,0,0,0,0,0,0,0,0,0,0,0,0,0,0,0,0,0,0,0,0,0,0,0,0,0,0,0,0,0,0,0,0,0,0, , , ,0,0, , ,ANAKENA DE PUENTE ALTO,1102 ARQUITECTO EUGENIO CERDA,JARDIN INFANTIL
621, , , , , ,0, ,PUENTE ALTO,0,0,0,0,0,0,0,0,0,0,0,0,0,0,0,0,0,0,0,0,0,0,0,0,0,0,0,0,0,0,0,0,0,0,0,0,0,0,0,0,0,0,0, , , ,0,0, , ,BAMBINI,55 TTE BELLO,JARDIN INFANTIL
622, , , , , ,0, ,PUENTE ALTO,0,0,0,0,0,0,0,0,0,0,0,0,0,0,0,0,0,0,0,0,0,0,0,0,0,0,0,0,0,0,0,0,0,0,0,0,0,0,0,0,0,0,0, , , ,0,0, , ,MY LITLE BABY,287 TTE BELLO,JARDIN INFANTIL Y SALA CUNA
623, , , , , ,0, ,PUENTE ALTO,0,0,0,0,0,0,0,0,0,0,0,0,0,0,0,0,0,0,0,0,0,0,0,0,0,0,0,0,0,0,0,0,0,0,0,0,0,0,0,0,0,0,0, , , ,0,0, , ,STA GEMITA DE GALGANI,97 NORUEGA,JARDIN INFANTIL
624, , , , , ,0, ,PUENTE ALTO,0,0,0,0,0,0,0,0,0,0,0,0,0,0,0,0,0,0,0,0,0,0,0,0,0,0,0,0,0,0,0,0,0,0,0,0,0,0,0,0,0,0,0, , , ,0,0, , ,UN MUNDO DE AMOR,332 ANGEL PIOMENTEL,JARDIN INFANTIL
625, , , , , ,0, ,PUENTE ALTO,0,0,0,0,0,0,0,0,0,0,0,0,0,0,0,0,0,0,0,0,0,0,0,0,0,0,0,0,0,0,0,0,0,0,0,0,0,0,0,0,0,0,0, , , ,0,0, , ,MARIA MONTESSORI,148 GENARO SALINAS,JARDIN INFANTIL
626, , , , , ,0, ,PUENTE ALTO,0,0,0,0,0,0,0,0,0,0,0,0,0,0,0,0,0,0,0,0,0,0,0,0,0,0,0,0,0,0,0,0,0,0,0,0,0,0,0,0,0,0,0, , , ,0,0, , ,FUTURO,265 GANDARILLAS,JARDIN INFANTIL
627, , , , , ,0, ,PUENTE ALTO,0,0,0,0,0,0,0,0,0,0,0,0,0,0,0,0,0,0,0,0,0,0,0,0,0,0,0,0,0,0,0,0,0,0,0,0,0,0,0,0,0,0,0, , , ,0,0, , ,GENTE MENUDA,127 ANGEL PIMENTEL,JARDIN INFANTIL
628, , , , , ,0, ,PUENTE ALTO,0,0,0,0,0,0,0,0,0,0,0,0,0,0,0,0,0,0,0,0,0,0,0,0,0,0,0,0,0,0,0,0,0,0,0,0,0,0,0,0,0,0,0, , , ,0,0, , ,MI PRIMER HORIZONTE,2588 CONCHA Y TORO,JARDIN INFANTIL
629, , , , , ,0, ,PUENTE ALTO,0,0,0,0,0,0,0,0,0,0,0,0,0,0,0,0,0,0,0,0,0,0,0,0,0,0,0,0,0,0,0,0,0,0,0,0,0,0,0,0,0,0,0, , , ,0,0, , ,CONEJITA,132 ARQUITRECTO EUGENIO CERDA,JARDIN INFANTIL
630, , , , , ,0, ,QUILICURA,0,0,0,0,0,0,0,0,0,0,0,0,0,0,0,0,0,0,0,0,0,0,0,0,0,0,0,0,0,0,0,0,0,0,0,0,0,0,0,0,0,0,0, , , ,0,0, , ,CUNA DE TALENTOS,202 OHIGGINS,JARDIN INFANTIL
631, , , , , ,0, ,QUILICURA,0,0,0,0,0,0,0,0,0,0,0,0,0,0,0,0,0,0,0,0,0,0,0,0,0,0,0,0,0,0,0,0,0,0,0,0,0,0,0,0,0,0,0, , , ,0,0, , ,KAI   KAI,177 OHIGGINS,JARDIN INFANTIL
632, , , , , ,0, ,QUILICURA,0,0,0,0,0,0,0,0,0,0,0,0,0,0,0,0,0,0,0,0,0,0,0,0,0,0,0,0,0,0,0,0,0,0,0,0,0,0,0,0,0,0,0, , , ,0,0, , ,LOS PEKES,1476 MANUEL ANTONIO MATTA,JARDIN INFANTIL
633, , , , , ,0, ,QUILICURA,0,0,0,0,0,0,0,0,0,0,0,0,0,0,0,0,0,0,0,0,0,0,0,0,0,0,0,0,0,0,0,0,0,0,0,0,0,0,0,0,0,0,0, , , ,0,0, , ,TRAVESURAS,1484 LOS MAITENES,JARDIN INFANTIL
634, , , , , ,0, ,QUINTA NORMAL,0,0,0,0,0,0,0,0,0,0,0,0,0,0,0,0,0,0,0,0,0,0,0,0,0,0,0,0,0,0,0,0,0,0,0,0,0,0,0,0,0,0,0, , , ,0,0, , ,SEMILLITA,5955 CARRASCAL,JARDIN INFANTIL
635, , , , , ,0, ,QUINTA NORMAL,0,0,0,0,0,0,0,0,0,0,0,0,0,0,0,0,0,0,0,0,0,0,0,0,0,0,0,0,0,0,0,0,0,0,0,0,0,0,0,0,0,0,0, , , ,0,0, , ,PESTANITAS,2076 CORRIENTES,JARDIN INFANTIL
636, , , , , ,0, ,QUINTA NORMAL,0,0,0,0,0,0,0,0,0,0,0,0,0,0,0,0,0,0,0,0,0,0,0,0,0,0,0,0,0,0,0,0,0,0,0,0,0,0,0,0,0,0,0, , , ,0,0, , ,CAPULLITO,415 LAS REJAS NORTE,JARDIN INFANTIL
637, , , , , ,0, ,QUINTA NORMAL,0,0,0,0,0,0,0,0,0,0,0,0,0,0,0,0,0,0,0,0,0,0,0,0,0,0,0,0,0,0,0,0,0,0,0,0,0,0,0,0,0,0,0, , , ,0,0, , ,MUNDO FELIZ,2624 VICTOR HUGO,JARDIN INFANTIL
638, , , , , ,0, ,RECOLETA,0,0,0,0,0,0,0,0,0,0,0,0,0,0,0,0,0,0,0,0,0,0,0,0,0,0,0,0,0,0,0,0,0,0,0,0,0,0,0,0,0,0,0, , , ,0,0, , ,CASCANUECES,690 EINSTEIN,JARDIN INFANTIL
639, , , , , ,0, ,RECOLETA,0,0,0,0,0,0,0,0,0,0,0,0,0,0,0,0,0,0,0,0,0,0,0,0,0,0,0,0,0,0,0,0,0,0,0,0,0,0,0,0,0,0,0, , , ,0,0, , ,LEKIS,637 PERU,JARDIN INFANTIL
640, , , , , ,0, ,RECOLETA,0,0,0,0,0,0,0,0,0,0,0,0,0,0,0,0,0,0,0,0,0,0,0,0,0,0,0,0,0,0,0,0,0,0,0,0,0,0,0,0,0,0,0, , , ,0,0, , ,ANTIYAL,3661 RECOLETA,JARDIN INFANTIL
641, , , , , ,0, ,RECOLETA,0,0,0,0,0,0,0,0,0,0,0,0,0,0,0,0,0,0,0,0,0,0,0,0,0,0,0,0,0,0,0,0,0,0,0,0,0,0,0,0,0,0,0, , , ,0,0, , ,ARROZ CON LECHE,328 MAESTRANZA LIDIA TORRES,JARDIN INFANTIL
642, , , , , ,0, ,RECOLETA,0,0,0,0,0,0,0,0,0,0,0,0,0,0,0,0,0,0,0,0,0,0,0,0,0,0,0,0,0,0,0,0,0,0,0,0,0,0,0,0,0,0,0, , , ,0,0, , ,SOC. EDUC. STRAUSS LTDA.SALA CUNA STRAUSS,3107 CALLE 1,JARDIN INFANTIL
643, , , , , ,0, ,RENCA,0,0,0,0,0,0,0,0,0,0,0,0,0,0,0,0,0,0,0,0,0,0,0,0,0,0,0,0,0,0,0,0,0,0,0,0,0,0,0,0,0,0,0, , , ,0,0, , ,TIA YITA,2812 DOMINGO SANTA MARIA,JARDIN INFANTIL
644, , , , , ,0, ,SAN BERNARDO,0,0,0,0,0,0,0,0,0,0,0,0,0,0,0,0,0,0,0,0,0,0,0,0,0,0,0,0,0,0,0,0,0,0,0,0,0,0,0,0,0,0,0, , , ,0,0, , ,KIDS` KIGDOM,167 DEMOSTENES RIVERA,JARDIN INFANTIL
645, , , , , ,0, ,SAN BERNARDO,0,0,0,0,0,0,0,0,0,0,0,0,0,0,0,0,0,0,0,0,0,0,0,0,0,0,0,0,0,0,0,0,0,0,0,0,0,0,0,0,0,0,0, , , ,0,0, , ,DESPERTARES NUESTRO MUNDO,537 URMENETA,JARDIN INFANTIL
646, , , , , ,0, ,SAN BERNARDO,0,0,0,0,0,0,0,0,0,0,0,0,0,0,0,0,0,0,0,0,0,0,0,0,0,0,0,0,0,0,0,0,0,0,0,0,0,0,0,0,0,0,0, , , ,0,0, , ,NADEL,77 ESMERALDA,JARDIN INFANTIL
647, , , , , ,0, ,SAN BERNARDO,0,0,0,0,0,0,0,0,0,0,0,0,0,0,0,0,0,0,0,0,0,0,0,0,0,0,0,0,0,0,0,0,0,0,0,0,0,0,0,0,0,0,0, , , ,0,0, , ,PEQUESOL,330 VICTORIA,JARDIN INFANTIL
648, , , , , ,0, ,SAN BERNARDO,0,0,0,0,0,0,0,0,0,0,0,0,0,0,0,0,0,0,0,0,0,0,0,0,0,0,0,0,0,0,0,0,0,0,0,0,0,0,0,0,0,0,0, , , ,0,0, , ,INNSBRUCK,541 SAN ALFONSO,JARDIN INFANTIL
649, , , , , ,0, ,SAN BERNARDO,0,0,0,0,0,0,0,0,0,0,0,0,0,0,0,0,0,0,0,0,0,0,0,0,0,0,0,0,0,0,0,0,0,0,0,0,0,0,0,0,0,0,0, , , ,0,0, , ,LAS CAMELIAS,1962 PORTALES,JARDIN INFANTIL
650, , , , , ,0, ,SAN BERNARDO,0,0,0,0,0,0,0,0,0,0,0,0,0,0,0,0,0,0,0,0,0,0,0,0,0,0,0,0,0,0,0,0,0,0,0,0,0,0,0,0,0,0,0, , , ,0,0, , ,REMOLINO,165 OHIGGINS,JARDIN INFANTIL
651, , , , , ,0, ,SAN JOAQUIN,0,0,0,0,0,0,0,0,0,0,0,0,0,0,0,0,0,0,0,0,0,0,0,0,0,0,0,0,0,0,0,0,0,0,0,0,0,0,0,0,0,0,0, , , ,0,0, , ,KAISER GARTEN,170 ARACENA INFANTE,JARDIN INFANTIL
652, , , , , ,0, ,SAN JOAQUIN,0,0,0,0,0,0,0,0,0,0,0,0,0,0,0,0,0,0,0,0,0,0,0,0,0,0,0,0,0,0,0,0,0,0,0,0,0,0,0,0,0,0,0, , , ,0,0, , ,SAN AGUSTIN DE HIPONA,2231 IGNACIO VALDIVIESO,JARDIN INFANTIL
653, , , , , ,0, ,SAN MIGUEL,0,0,0,0,0,0,0,0,0,0,0,0,0,0,0,0,0,0,0,0,0,0,0,0,0,0,0,0,0,0,0,0,0,0,0,0,0,0,0,0,0,0,0, , , ,0,0, , ,LOS ENANITOS,3721 BARTOLO SOTO,JARDIN INFANTIL
654, , , , , ,0, ,SAN MIGUEL,0,0,0,0,0,0,0,0,0,0,0,0,0,0,0,0,0,0,0,0,0,0,0,0,0,0,0,0,0,0,0,0,0,0,0,0,0,0,0,0,0,0,0, , , ,0,0, , ,HAPPY CLASS ENGLISH KINDERGARTEN,1165 BLANCO VIEL,JARDIN INFANTIL
655, , , , , ,0, ,SAN MIGUEL,0,0,0,0,0,0,0,0,0,0,0,0,0,0,0,0,0,0,0,0,0,0,0,0,0,0,0,0,0,0,0,0,0,0,0,0,0,0,0,0,0,0,0, , , ,0,0, , ,NENES,1171 TERESA VIAL,JARDIN INFANTIL
656, , , , , ,0, ,SAN MIGUEL,0,0,0,0,0,0,0,0,0,0,0,0,0,0,0,0,0,0,0,0,0,0,0,0,0,0,0,0,0,0,0,0,0,0,0,0,0,0,0,0,0,0,0, , , ,0,0, , ,LITTLE BEE COLLEGE LTDA.,3203 LLANO SUBERCASEAUX,JARDIN INFANTIL
657, , , , , ,0, ,SAN MIGUEL,0,0,0,0,0,0,0,0,0,0,0,0,0,0,0,0,0,0,0,0,0,0,0,0,0,0,0,0,0,0,0,0,0,0,0,0,0,0,0,0,0,0,0, , , ,0,0, , ,RUKANTU,1284 SALESIANOS,JARDIN INFANTIL
658, , , , , ,0, ,SAN MIGUEL,0,0,0,0,0,0,0,0,0,0,0,0,0,0,0,0,0,0,0,0,0,0,0,0,0,0,0,0,0,0,0,0,0,0,0,0,0,0,0,0,0,0,0, , , ,0,0, , ,ANTU,4109 LLANO SUBERCASEAUX,JARDIN INFANTIL
659, , , , , ,0, ,SAN MIGUEL,0,0,0,0,0,0,0,0,0,0,0,0,0,0,0,0,0,0,0,0,0,0,0,0,0,0,0,0,0,0,0,0,0,0,0,0,0,0,0,0,0,0,0, , , ,0,0, , ,CARITA FELIZ,1178 ANA LUISA,JARDIN INFANTIL
660, , , , , ,0, ,SAN MIGUEL,0,0,0,0,0,0,0,0,0,0,0,0,0,0,0,0,0,0,0,0,0,0,0,0,0,0,0,0,0,0,0,0,0,0,0,0,0,0,0,0,0,0,0, , , ,0,0, , ,KID PLACE,1320 LA MARINA,JARDIN INFANTIL
661, , , , , ,0, ,SAN RAMON,0,0,0,0,0,0,0,0,0,0,0,0,0,0,0,0,0,0,0,0,0,0,0,0,0,0,0,0,0,0,0,0,0,0,0,0,0,0,0,0,0,0,0, , , ,0,0, , ,MI PEQUENO MUNDO,1508 PARROQUIA,JARDIN INFANTIL
662, , , , , ,0, ,SANTIAGO,0,0,0,0,0,0,0,0,0,0,0,0,0,0,0,0,0,0,0,0,0,0,0,0,0,0,0,0,0,0,0,0,0,0,0,0,0,0,0,0,0,0,0, , , ,0,0, , ,BARCO IRIS,139 GRAL JOFRE,JARDIN INFANTIL
663, , , , , ,0, ,SANTIAGO,0,0,0,0,0,0,0,0,0,0,0,0,0,0,0,0,0,0,0,0,0,0,0,0,0,0,0,0,0,0,0,0,0,0,0,0,0,0,0,0,0,0,0, , , ,0,0, , ,ARCA MAGICA,2335 STA MONICA,JARDIN INFANTIL
664, , , , , ,0, ,SANTIAGO,0,0,0,0,0,0,0,0,0,0,0,0,0,0,0,0,0,0,0,0,0,0,0,0,0,0,0,0,0,0,0,0,0,0,0,0,0,0,0,0,0,0,0, , , ,0,0, , ,MI REFUGIO,1750 BASCUNAN GUERRERO,JARDIN INFANTIL
665, , , , , ,0, ,SANTIAGO,0,0,0,0,0,0,0,0,0,0,0,0,0,0,0,0,0,0,0,0,0,0,0,0,0,0,0,0,0,0,0,0,0,0,0,0,0,0,0,0,0,0,0, , , ,0,0, , ,CAPREDENA,102 BULNES,JARDIN INFANTIL
666, , , , , ,0, ,SANTIAGO,0,0,0,0,0,0,0,0,0,0,0,0,0,0,0,0,0,0,0,0,0,0,0,0,0,0,0,0,0,0,0,0,0,0,0,0,0,0,0,0,0,0,0, , , ,0,0, , ,GRACE GARDEN,78 SERRANO,JARDIN INFANTIL
667, , , , , ,0, ,SANTIAGO,0,0,0,0,0,0,0,0,0,0,0,0,0,0,0,0,0,0,0,0,0,0,0,0,0,0,0,0,0,0,0,0,0,0,0,0,0,0,0,0,0,0,0, , , ,0,0, , ,AMANECER,210 ALMTE LATORRE,JARDIN INFANTIL
668, , , , , ,0, ,SANTIAGO,0,0,0,0,0,0,0,0,0,0,0,0,0,0,0,0,0,0,0,0,0,0,0,0,0,0,0,0,0,0,0,0,0,0,0,0,0,0,0,0,0,0,0, , , ,0,0, , ,OCLOC,2043 MONEDA,JARDIN INFANTIL
669, , , , , ,0, ,SANTIAGO,0,0,0,0,0,0,0,0,0,0,0,0,0,0,0,0,0,0,0,0,0,0,0,0,0,0,0,0,0,0,0,0,0,0,0,0,0,0,0,0,0,0,0, , , ,0,0, , ,PAPELUCHO,732 TARAPACA,JARDIN INFANTIL
670, , , , , ,0, ,SANTIAGO,0,0,0,0,0,0,0,0,0,0,0,0,0,0,0,0,0,0,0,0,0,0,0,0,0,0,0,0,0,0,0,0,0,0,0,0,0,0,0,0,0,0,0, , , ,0,0, , ,EL POLLITO BAILARIN,1858 ROSAS,JARDIN INFANTIL
671, , , , , ,0, ,SANTIAGO,0,0,0,0,0,0,0,0,0,0,0,0,0,0,0,0,0,0,0,0,0,0,0,0,0,0,0,0,0,0,0,0,0,0,0,0,0,0,0,0,0,0,0, , , ,0,0, , ,NENITOS,2210 YUNGAY,JARDIN INFANTIL Y SALA CUNA
672, , , , , ,0, ,SANTIAGO,0,0,0,0,0,0,0,0,0,0,0,0,0,0,0,0,0,0,0,0,0,0,0,0,0,0,0,0,0,0,0,0,0,0,0,0,0,0,0,0,0,0,0, , , ,0,0, , ,CUCULINA,739 ANIBAL LETELIER,JARDIN INFANTIL
673, , , , , ,0, ,SANTIAGO,0,0,0,0,0,0,0,0,0,0,0,0,0,0,0,0,0,0,0,0,0,0,0,0,0,0,0,0,0,0,0,0,0,0,0,0,0,0,0,0,0,0,0, , , ,0,0, , ,PIERROT,44 VIRGINIA OPAZO,JARDIN INFANTIL
674, , , , , ,0, ,SANTIAGO,0,0,0,0,0,0,0,0,0,0,0,0,0,0,0,0,0,0,0,0,0,0,0,0,0,0,0,0,0,0,0,0,0,0,0,0,0,0,0,0,0,0,0, , , ,0,0, , ,CONTRALORIA GENERAL DE LA REPLUBLICA,78 TEATINOS,JARDIN INFANTIL
675, , , , , ,0, ,SANTIAGO,0,0,0,0,0,0,0,0,0,0,0,0,0,0,0,0,0,0,0,0,0,0,0,0,0,0,0,0,0,0,0,0,0,0,0,0,0,0,0,0,0,0,0, , , ,0,0, , ,GRACE GARDEN,612 PADRE ALONSO OVALLE,JARDIN INFANTIL
676, , , , , ,0, ,SANTIAGO,0,0,0,0,0,0,0,0,0,0,0,0,0,0,0,0,0,0,0,0,0,0,0,0,0,0,0,0,0,0,0,0,0,0,0,0,0,0,0,0,0,0,0, , , ,0,0, , ,BALU,1440 SAN ALFONSO,JARDIN INFANTIL Y SALA CUNA
677, , , , , ,0, ,SANTIAGO,0,0,0,0,0,0,0,0,0,0,0,0,0,0,0,0,0,0,0,0,0,0,0,0,0,0,0,0,0,0,0,0,0,0,0,0,0,0,0,0,0,0,0, , , ,0,0, , ,MATERNAL,84 PASEO PHILIPS,JARDIN INFANTIL
678, , , , , ,0, ,SANTIAGO,0,0,0,0,0,0,0,0,0,0,0,0,0,0,0,0,0,0,0,0,0,0,0,0,0,0,0,0,0,0,0,0,0,0,0,0,0,0,0,0,0,0,0, , , ,0,0, , ,VIDITA  EX. PIPO`S,720 AMUNATEGUI,JARDIN INFANTIL Y SALA CUNA
679, , , , , ,0, ,SANTIAGO,0,0,0,0,0,0,0,0,0,0,0,0,0,0,0,0,0,0,0,0,0,0,0,0,0,0,0,0,0,0,0,0,0,0,0,0,0,0,0,0,0,0,0, , , ,0,0, , ,CUCULINA,717 ANIBAL LETELIER,JARDIN INFANTIL
680, , , , , ,0, ,SANTIAGO,0,0,0,0,0,0,0,0,0,0,0,0,0,0,0,0,0,0,0,0,0,0,0,0,0,0,0,0,0,0,0,0,0,0,0,0,0,0,0,0,0,0,0, , , ,0,0, , ,PAPUCHO,612 PADRE ALONSO OVALLE,JARDIN INFANTIL
681, , , , , ,0, ,SANTIAGO,0,0,0,0,0,0,0,0,0,0,0,0,0,0,0,0,0,0,0,0,0,0,0,0,0,0,0,0,0,0,0,0,0,0,0,0,0,0,0,0,0,0,0, , , ,0,0, , ,SOC. DE EDUCACION Y CUIDADO DEL MENOR LTDA.,16 PHILLIPS,JARDIN INFANTIL
682, , , , , ,0, ,SANTIAGO,0,0,0,0,0,0,0,0,0,0,0,0,0,0,0,0,0,0,0,0,0,0,0,0,0,0,0,0,0,0,0,0,0,0,0,0,0,0,0,0,0,0,0, , , ,0,0, , ,PEQUENA CATERINA,712 PARIS,JARDIN INFANTIL
683, , , , , ,0, ,SANTIAGO,0,0,0,0,0,0,0,0,0,0,0,0,0,0,0,0,0,0,0,0,0,0,0,0,0,0,0,0,0,0,0,0,0,0,0,0,0,0,0,0,0,0,0, , , ,0,0, , ,ANTU CONIS,2211 SALVADOR SANFUENTES,JARDIN INFANTIL
684, , , , , ,0, ,SANTIAGO,0,0,0,0,0,0,0,0,0,0,0,0,0,0,0,0,0,0,0,0,0,0,0,0,0,0,0,0,0,0,0,0,0,0,0,0,0,0,0,0,0,0,0, , , ,0,0, , ,LOS ANGELITOS,991 STA ROSA,JARDIN INFANTIL
685, , , , , ,0, ,SANTIAGO,0,0,0,0,0,0,0,0,0,0,0,0,0,0,0,0,0,0,0,0,0,0,0,0,0,0,0,0,0,0,0,0,0,0,0,0,0,0,0,0,0,0,0, , , ,0,0, , ,RAYITOS DE SOL,73 BRASIL,JARDIN INFANTIL
686, , , , , ,0, ,SANTIAGO,0,0,0,0,0,0,0,0,0,0,0,0,0,0,0,0,0,0,0,0,0,0,0,0,0,0,0,0,0,0,0,0,0,0,0,0,0,0,0,0,0,0,0, , , ,0,0, , ,SOC. EDUC. NUNEZ Y CIA LTDA. LOS MANOSITOS,1444 SAN IGNACIO,JARDIN INFANTIL
687, , , , , ,0, ,SANTIAGO,0,0,0,0,0,0,0,0,0,0,0,0,0,0,0,0,0,0,0,0,0,0,0,0,0,0,0,0,0,0,0,0,0,0,0,0,0,0,0,0,0,0,0, , , ,0,0, , ,TIA SARITA,167 SAN IGNACIO,JARDIN INFANTIL
688, , , , , ,0, ,SANTIAGO,0,0,0,0,0,0,0,0,0,0,0,0,0,0,0,0,0,0,0,0,0,0,0,0,0,0,0,0,0,0,0,0,0,0,0,0,0,0,0,0,0,0,0, , , ,0,0, , ,HANS CRHISTIAN ANDERSEN,953 LIRA,JARDIN INFANTIL
689, , , , , ,0, ,SANTIAGO,0,0,0,0,0,0,0,0,0,0,0,0,0,0,0,0,0,0,0,0,0,0,0,0,0,0,0,0,0,0,0,0,0,0,0,0,0,0,0,0,0,0,0, , , ,0,0, , ,MIRADAS Y SONRISAS,32 STA VICTORIA,JARDIN INFANTIL
690, , , , , ,0, ,SANTIAGO,0,0,0,0,0,0,0,0,0,0,0,0,0,0,0,0,0,0,0,0,0,0,0,0,0,0,0,0,0,0,0,0,0,0,0,0,0,0,0,0,0,0,0, , , ,0,0, , ,MAR Y SOL,2750 YUNGAY,JARDIN INFANTIL Y SALA CUNA
691, , , , , ,0, ,SANTIAGO,0,0,0,0,0,0,0,0,0,0,0,0,0,0,0,0,0,0,0,0,0,0,0,0,0,0,0,0,0,0,0,0,0,0,0,0,0,0,0,0,0,0,0, , , ,0,0, , ,ZONA DE NINOS,2037 ALMTE HURTADO,JARDIN INFANTIL
692, , , , , ,0, ,SANTIAGO,0,0,0,0,0,0,0,0,0,0,0,0,0,0,0,0,0,0,0,0,0,0,0,0,0,0,0,0,0,0,0,0,0,0,0,0,0,0,0,0,0,0,0, , , ,0,0, , ,MI OSITO AZUL,204 VICHUQUEN,JARDIN INFANTIL
693, , , , , ,0, ,SANTIAGO,0,0,0,0,0,0,0,0,0,0,0,0,0,0,0,0,0,0,0,0,0,0,0,0,0,0,0,0,0,0,0,0,0,0,0,0,0,0,0,0,0,0,0, , , ,0,0, , ,VENADITO,1790 CATEDRAL,JARDIN INFANTIL
694, , , , , ,0, ,SANTIAGO,0,0,0,0,0,0,0,0,0,0,0,0,0,0,0,0,0,0,0,0,0,0,0,0,0,0,0,0,0,0,0,0,0,0,0,0,0,0,0,0,0,0,0, , , ,0,0, , ,FANTASIA,2352 ERASMO ESCALA,JARDIN INFANTIL
695, , , , , ,0, ,SANTIAGO,0,0,0,0,0,0,0,0,0,0,0,0,0,0,0,0,0,0,0,0,0,0,0,0,0,0,0,0,0,0,0,0,0,0,0,0,0,0,0,0,0,0,0, , , ,0,0, , ,COMUNIDAD EDUCATIVA NIDO AZUL,430 SERRANO,JARDIN INFANTIL
696, , , , , ,0, ,VITACURA,0,0,0,0,0,0,0,0,0,0,0,0,0,0,0,0,0,0,0,0,0,0,0,0,0,0,0,0,0,0,0,0,0,0,0,0,0,0,0,0,0,0,0, , , ,0,0, , ,LILIPUT,5442 LAS HUALTATAS,JARDIN INFANTIL
697, , , , , ,0, ,VITACURA,0,0,0,0,0,0,0,0,0,0,0,0,0,0,0,0,0,0,0,0,0,0,0,0,0,0,0,0,0,0,0,0,0,0,0,0,0,0,0,0,0,0,0, , , ,0,0, , ,SANTA TERESITA,4099 NARCISO GOYCOLEA,JARDIN INFANTIL
698, , , , , ,0, ,VITACURA,0,0,0,0,0,0,0,0,0,0,0,0,0,0,0,0,0,0,0,0,0,0,0,0,0,0,0,0,0,0,0,0,0,0,0,0,0,0,0,0,0,0,0, , , ,0,0, , ,SOC. EDUC. PARQUE LTDA.,4274 EL COIGUE,JARDIN INFANTIL Y SALA CUNA
699, , , , , ,0, ,VITACURA,0,0,0,0,0,0,0,0,0,0,0,0,0,0,0,0,0,0,0,0,0,0,0,0,0,0,0,0,0,0,0,0,0,0,0,0,0,0,0,0,0,0,0, , , ,0,0, , ,MILLAPI,2258 PADRE HURTADO,JARDIN INFANTIL
700, , , , , ,0, ,VITACURA,0,0,0,0,0,0,0,0,0,0,0,0,0,0,0,0,0,0,0,0,0,0,0,0,0,0,0,0,0,0,0,0,0,0,0,0,0,0,0,0,0,0,0, , , ,0,0, , ,PEQUESCLUB LTDA,1760 EL NOGAL,JARDIN INFANTIL
701, , , , , ,0, ,VITACURA,0,0,0,0,0,0,0,0,0,0,0,0,0,0,0,0,0,0,0,0,0,0,0,0,0,0,0,0,0,0,0,0,0,0,0,0,0,0,0,0,0,0,0, , , ,0,0, , ,MONTESSORI RAYHUE II,6532 CARMEN FARINA,JARDIN INFANTIL
702, , , , , ,0, ,VITACURA,0,0,0,0,0,0,0,0,0,0,0,0,0,0,0,0,0,0,0,0,0,0,0,0,0,0,0,0,0,0,0,0,0,0,0,0,0,0,0,0,0,0,0, , , ,0,0, , ,CASCANUECES,4274 EL COIGUE,JARDIN INFANTIL Y SALA CUNA
703, , , , , ,0, ,VITACURA,0,0,0,0,0,0,0,0,0,0,0,0,0,0,0,0,0,0,0,0,0,0,0,0,0,0,0,0,0,0,0,0,0,0,0,0,0,0,0,0,0,0,0, , , ,0,0, , ,SAN MATIAS,8844 LO BELTRAN,JARDIN INFANTIL
704, , , , , ,0, ,VITACURA,0,0,0,0,0,0,0,0,0,0,0,0,0,0,0,0,0,0,0,0,0,0,0,0,0,0,0,0,0,0,0,0,0,0,0,0,0,0,0,0,0,0,0, , , ,0,0, , ,UKIKA,9932 LOS DRAGONES,JARDIN INFANTIL
705, , , , , ,0, ,VITACURA,0,0,0,0,0,0,0,0,0,0,0,0,0,0,0,0,0,0,0,0,0,0,0,0,0,0,0,0,0,0,0,0,0,0,0,0,0,0,0,0,0,0,0, , , ,0,0, , ,RINCON MAGICO,3606 LAS NIEVES,JARDIN INFANTIL
706, , , , , ,0, ,CERRILLOS,0,0,0,0,0,0,0,0,0,0,0,0,0,0,0,0,0,0,0,0,0,0,0,0,0,0,0,0,0,0,0,0,0,0,0,0,0,0,0,0,0,0,0, , , ,0,0, , ,RAYITO DE SOL,595 LA PRIMAVERA SUR,JARDIN INFANTIL
707, , , , , ,0, ,RECOLETA,0,0,0,0,0,0,0,0,0,0,0,0,0,0,0,0,0,0,0,0,0,0,0,0,0,0,0,0,0,0,0,0,0,0,0,0,0,0,0,0,0,0,0, , , ,0,0, , ,BAMBI,599 CALLE NORTE,JARDIN INFANTIL
708, , , , , ,0, ,SAN JOAQUIN,0,0,0,0,0,0,0,0,0,0,0,0,0,0,0,0,0,0,0,0,0,0,0,0,0,0,0,0,0,0,0,0,0,0,0,0,0,0,0,0,0,0,0, , , ,0,0, , ,RAYITO DE SOL,4239 PSJE CONCEPCION,JARDIN INFANTIL
709, , , , , ,0, ,SAN MIGUEL,0,0,0,0,0,0,0,0,0,0,0,0,0,0,0,0,0,0,0,0,0,0,0,0,0,0,0,0,0,0,0,0,0,0,0,0,0,0,0,0,0,0,0, , , ,0,0, , ,NAZARETH,593 TANENBAUN,JARDIN INFANTIL
710, , , , , ,0, ,COLINA,0,0,0,0,0,0,0,0,0,0,0,0,0,0,0,0,0,0,0,0,0,0,0,0,0,0,0,0,0,0,0,0,0,0,0,0,0,0,0,0,0,0,0, , , ,0,0, , ,NINITO JESUS DE,259 ACONCAGUA,JARDIN INFANTIL
711, , , , , ,0, ,ISLA DE MAIPO,0,0,0,0,0,0,0,0,0,0,0,0,0,0,0,0,0,0,0,0,0,0,0,0,0,0,0,0,0,0,0,0,0,0,0,0,0,0,0,0,0,0,0, , , ,0,0, , ,LOS ISLENITOS,541 IGNACIO CARRERA PINTO,JARDIN INFANTIL Y SALA CUNA
712, , , , , ,0, ,CERRILLOS,0,0,0,0,0,0,0,0,0,0,0,0,0,0,0,0,0,0,0,0,0,0,0,0,0,0,0,0,0,0,0,0,0,0,0,0,0,0,0,0,0,0,0, , , ,0,0, , ,OESTE,2545 CARRIEL SUR,JARDIN INFANTIL
713, , , , , ,0, ,CERRILLOS,0,0,0,0,0,0,0,0,0,0,0,0,0,0,0,0,0,0,0,0,0,0,0,0,0,0,0,0,0,0,0,0,0,0,0,0,0,0,0,0,0,0,0, , , ,0,0, , ,OESTE,2600 CALLE NUEVA UNO,JARDIN INFANTIL
714, , , , , ,0, ,CERRILLOS,0,0,0,0,0,0,0,0,0,0,0,0,0,0,0,0,0,0,0,0,0,0,0,0,0,0,0,0,0,0,0,0,0,0,0,0,0,0,0,0,0,0,0, , , ,0,0, , ,SOCIEDAD EDUCACIONAL HORIZONTE LTDA.,598 AVDA LAS AMERICAS,JARDIN INFANTIL
715, , , , , ,0, ,CONCHALI,0,0,0,0,0,0,0,0,0,0,0,0,0,0,0,0,0,0,0,0,0,0,0,0,0,0,0,0,0,0,0,0,0,0,0,0,0,0,0,0,0,0,0, , , ,0,0, , ,TRUPAM,1538 CARDENAL JOSE MARIA CARO,JARDIN INFANTIL
716, , , , , ,0, ,ESTACION CENTRAL,0,0,0,0,0,0,0,0,0,0,0,0,0,0,0,0,0,0,0,0,0,0,0,0,0,0,0,0,0,0,0,0,0,0,0,0,0,0,0,0,0,0,0, , , ,0,0, , ,HELLO CHILDREN,6901 LOS PAJARITOS,JARDIN INFANTIL Y SALA CUNA
717, , , , , ,0, ,EL BOSQUE,0,0,0,0,0,0,0,0,0,0,0,0,0,0,0,0,0,0,0,0,0,0,0,0,0,0,0,0,0,0,0,0,0,0,0,0,0,0,0,0,0,0,0, , , ,0,0, , ,EL MUNDO DISNEY,34 HELIOTROPOS,JARDIN INFANTIL
718, , , , , ,0, ,ESTACION CENTRAL,0,0,0,0,0,0,0,0,0,0,0,0,0,0,0,0,0,0,0,0,0,0,0,0,0,0,0,0,0,0,0,0,0,0,0,0,0,0,0,0,0,0,0, , , ,0,0, , ,CHARBEL,284 LAGUNA ABASCAL,JARDIN INFANTIL
719, , , , , ,0, ,ESTACION CENTRAL,0,0,0,0,0,0,0,0,0,0,0,0,0,0,0,0,0,0,0,0,0,0,0,0,0,0,0,0,0,0,0,0,0,0,0,0,0,0,0,0,0,0,0, , , ,0,0, , ,CENTRAL,91 OBISPO MANUEL UMANA,JARDIN INFANTIL
720, , , , , ,0, ,HUECHURABA,0,0,0,0,0,0,0,0,0,0,0,0,0,0,0,0,0,0,0,0,0,0,0,0,0,0,0,0,0,0,0,0,0,0,0,0,0,0,0,0,0,0,0, , , ,0,0, , ,MANDARINO,8077 PEDRO FONTOVA,JARDIN INFANTIL
721, , , , , ,0, ,HUECHURABA,0,0,0,0,0,0,0,0,0,0,0,0,0,0,0,0,0,0,0,0,0,0,0,0,0,0,0,0,0,0,0,0,0,0,0,0,0,0,0,0,0,0,0, , , ,0,0, , ,GOLONDRINAS,6843 PSJE LAS GOLONDRINAS,JARDIN INFANTIL
722, , , , , ,0, ,HUECHURABA,0,0,0,0,0,0,0,0,0,0,0,0,0,0,0,0,0,0,0,0,0,0,0,0,0,0,0,0,0,0,0,0,0,0,0,0,0,0,0,0,0,0,0, , , ,0,0, , ,FAMILY FARM,1220 CACIQUES CHILENOS SUR,JARDIN INFANTIL
723, , , , , ,0, ,HUECHURABA,0,0,0,0,0,0,0,0,0,0,0,0,0,0,0,0,0,0,0,0,0,0,0,0,0,0,0,0,0,0,0,0,0,0,0,0,0,0,0,0,0,0,0, , , ,0,0, , ,LA VINA,1505 CALLE DE LA VINA,JARDIN INFANTIL Y SALA CUNA
724, , , , , ,0, ,INDEPENDENCIA,0,0,0,0,0,0,0,0,0,0,0,0,0,0,0,0,0,0,0,0,0,0,0,0,0,0,0,0,0,0,0,0,0,0,0,0,0,0,0,0,0,0,0, , , ,0,0, , ,GI GI,1550 FRANCIA,JARDIN INFANTIL
725, , , , , ,0, ,LA FLORIDA,0,0,0,0,0,0,0,0,0,0,0,0,0,0,0,0,0,0,0,0,0,0,0,0,0,0,0,0,0,0,0,0,0,0,0,0,0,0,0,0,0,0,0, , , ,0,0, , ,ALTO MACUL,5950 MACUL ALTO,JARDIN INFANTIL
726, , , , , ,0, ,LA FLORIDA,0,0,0,0,0,0,0,0,0,0,0,0,0,0,0,0,0,0,0,0,0,0,0,0,0,0,0,0,0,0,0,0,0,0,0,0,0,0,0,0,0,0,0, , , ,0,0, , ,CHIP Y DALE,6885 COLOMBIA,JARDIN INFANTIL
727, , , , , ,0, ,LAS CONDES,0,0,0,0,0,0,0,0,0,0,0,0,0,0,0,0,0,0,0,0,0,0,0,0,0,0,0,0,0,0,0,0,0,0,0,0,0,0,0,0,0,0,0, , , ,0,0, , ,OSITO TEDDY  EX PEQUENITOS,92 LOS BARBECHOS,JARDIN INFANTIL
728, , , , , ,0, ,LAS CONDES,0,0,0,0,0,0,0,0,0,0,0,0,0,0,0,0,0,0,0,0,0,0,0,0,0,0,0,0,0,0,0,0,0,0,0,0,0,0,0,0,0,0,0, , , ,0,0, , ,CLINICA LAS CONDES,334 ROSA oHIGGINS,JARDIN INFANTIL Y SALA CUNA
729, , , , , ,0, ,LO BARNECHEA,0,0,0,0,0,0,0,0,0,0,0,0,0,0,0,0,0,0,0,0,0,0,0,0,0,0,0,0,0,0,0,0,0,0,0,0,0,0,0,0,0,0,0, , , ,0,0, , ,LA CHOLITA,309 CALLE 1 ORIENTE,JARDIN INFANTIL
730, , , , , ,0, ,LO ESPEJO,0,0,0,0,0,0,0,0,0,0,0,0,0,0,0,0,0,0,0,0,0,0,0,0,0,0,0,0,0,0,0,0,0,0,0,0,0,0,0,0,0,0,0, , , ,0,0, , ,HEIDI,3751 QUIRIQUINA,JARDIN INFANTIL
731, , , , , ,0, ,LO PRADO,0,0,0,0,0,0,0,0,0,0,0,0,0,0,0,0,0,0,0,0,0,0,0,0,0,0,0,0,0,0,0,0,0,0,0,0,0,0,0,0,0,0,0, , , ,0,0, , ,MY GARDEN,6135 SAN PABLO,JARDIN INFANTIL
732, , , , , ,0, ,LO PRADO,0,0,0,0,0,0,0,0,0,0,0,0,0,0,0,0,0,0,0,0,0,0,0,0,0,0,0,0,0,0,0,0,0,0,0,0,0,0,0,0,0,0,0, , , ,0,0, , ,MY LITTLE HOME,47 VIRGO,JARDIN INFANTIL
733, , , , , ,0, ,LO PRADO,0,0,0,0,0,0,0,0,0,0,0,0,0,0,0,0,0,0,0,0,0,0,0,0,0,0,0,0,0,0,0,0,0,0,0,0,0,0,0,0,0,0,0, , , ,0,0, , ,MY LITTLE HOME,5326 FOBOS,JARDIN INFANTIL Y SALA CUNA
734, , , , , ,0, ,MACUL,0,0,0,0,0,0,0,0,0,0,0,0,0,0,0,0,0,0,0,0,0,0,0,0,0,0,0,0,0,0,0,0,0,0,0,0,0,0,0,0,0,0,0, , , ,0,0, , ,RIKKI TIKKI TAVI,2065 CALLE 12 NORTE,JARDIN INFANTIL
735, , , , , ,0, ,MACUL,0,0,0,0,0,0,0,0,0,0,0,0,0,0,0,0,0,0,0,0,0,0,0,0,0,0,0,0,0,0,0,0,0,0,0,0,0,0,0,0,0,0,0, , , ,0,0, , ,OS MENINOS,2790 LOS ACADEMICOS,JARDIN INFANTIL
736, , , , , ,0, ,MACUL,0,0,0,0,0,0,0,0,0,0,0,0,0,0,0,0,0,0,0,0,0,0,0,0,0,0,0,0,0,0,0,0,0,0,0,0,0,0,0,0,0,0,0, , , ,0,0, , ,DULCE DE LECHE,3200 PSJE AMADOR NEGHME,JARDIN INFANTIL
737, , , , , ,0, ,MACUL,0,0,0,0,0,0,0,0,0,0,0,0,0,0,0,0,0,0,0,0,0,0,0,0,0,0,0,0,0,0,0,0,0,0,0,0,0,0,0,0,0,0,0, , , ,0,0, , ,PEQUENO HIAWATA,4600 MACUL,JARDIN INFANTIL
738, , , , , ,0, ,MAIPU,0,0,0,0,0,0,0,0,0,0,0,0,0,0,0,0,0,0,0,0,0,0,0,0,0,0,0,0,0,0,0,0,0,0,0,0,0,0,0,0,0,0,0, , , ,0,0, , ,SOC. EDUC. ANDY PAZ,4284 EL ROSAL,JARDIN INFANTIL
739, , , , , ,0, ,MAIPU,0,0,0,0,0,0,0,0,0,0,0,0,0,0,0,0,0,0,0,0,0,0,0,0,0,0,0,0,0,0,0,0,0,0,0,0,0,0,0,0,0,0,0, , , ,0,0, , ,ANDY PAZ VERSALLES,5509 MAR DE DRAKE,JARDIN INFANTIL
740, , , , , ,0, ,MAIPU,0,0,0,0,0,0,0,0,0,0,0,0,0,0,0,0,0,0,0,0,0,0,0,0,0,0,0,0,0,0,0,0,0,0,0,0,0,0,0,0,0,0,0, , , ,0,0, , ,CRI CRI,198 ING EDUARDO DOMINGUEZ,JARDIN INFANTIL
741, , , , , ,0, ,MAIPU,0,0,0,0,0,0,0,0,0,0,0,0,0,0,0,0,0,0,0,0,0,0,0,0,0,0,0,0,0,0,0,0,0,0,0,0,0,0,0,0,0,0,0, , , ,0,0, , ,ANDYPAZ,3250 PDTE GERMAN RIESCO,JARDIN INFANTIL
742, , , , , ,0, ,MAIPU,0,0,0,0,0,0,0,0,0,0,0,0,0,0,0,0,0,0,0,0,0,0,0,0,0,0,0,0,0,0,0,0,0,0,0,0,0,0,0,0,0,0,0, , , ,0,0, , ,MI FANTASIA,601 PUNMAVIDA,JARDIN INFANTIL
743, , , , , ,0, ,MELIPILLA,0,0,0,0,0,0,0,0,0,0,0,0,0,0,0,0,0,0,0,0,0,0,0,0,0,0,0,0,0,0,0,0,0,0,0,0,0,0,0,0,0,0,0, , , ,0,0, , ,CORP. MUNIC. DE MELIPILLA PARA LA EDUC.,366 SAN AGUSTIN,JARDIN INFANTIL
744, , , , , ,0, ,NUNOA,0,0,0,0,0,0,0,0,0,0,0,0,0,0,0,0,0,0,0,0,0,0,0,0,0,0,0,0,0,0,0,0,0,0,0,0,0,0,0,0,0,0,0, , , ,0,0, , ,KOKORI EIRL,63 ALCALDE JORGE MONCKEBERG,JARDIN INFANTIL
745, , , , , ,0, ,NUNOA,0,0,0,0,0,0,0,0,0,0,0,0,0,0,0,0,0,0,0,0,0,0,0,0,0,0,0,0,0,0,0,0,0,0,0,0,0,0,0,0,0,0,0, , , ,0,0, , ,CARRUSEL,782 PEDRO HEMRICK LING,JARDIN INFANTIL
746, , , , , ,0, ,PENALOLEN,0,0,0,0,0,0,0,0,0,0,0,0,0,0,0,0,0,0,0,0,0,0,0,0,0,0,0,0,0,0,0,0,0,0,0,0,0,0,0,0,0,0,0, , , ,0,0, , ,HAPPY TIMES,7820 EL VALLE,JARDIN INFANTIL
747, , , , , ,0, ,PENALOLEN,0,0,0,0,0,0,0,0,0,0,0,0,0,0,0,0,0,0,0,0,0,0,0,0,0,0,0,0,0,0,0,0,0,0,0,0,0,0,0,0,0,0,0, , , ,0,0, , ,MONTESSORI ANTUMEN,8701 EL VALLE,JARDIN INFANTIL
748, , , , , ,0, ,PENALOLEN,0,0,0,0,0,0,0,0,0,0,0,0,0,0,0,0,0,0,0,0,0,0,0,0,0,0,0,0,0,0,0,0,0,0,0,0,0,0,0,0,0,0,0, , , ,0,0, , ,ILLAPITAS,6056 CALLE A,JARDIN INFANTIL
749, , , , , ,0, ,NUNOA,0,0,0,0,0,0,0,0,0,0,0,0,0,0,0,0,0,0,0,0,0,0,0,0,0,0,0,0,0,0,0,0,0,0,0,0,0,0,0,0,0,0,0, , , ,0,0, , ,MAGIC FLOWERS,1650 DUBLE ALMEYDA,JARDIN INFANTIL
750, , , , , ,0, ,PROVIDENCIA,0,0,0,0,0,0,0,0,0,0,0,0,0,0,0,0,0,0,0,0,0,0,0,0,0,0,0,0,0,0,0,0,0,0,0,0,0,0,0,0,0,0,0, , , ,0,0, , ,HAPPY HOUSE,173 URBANO VERGARA,JARDIN INFANTIL
751, , , , , ,0, ,PROVIDENCIA,0,0,0,0,0,0,0,0,0,0,0,0,0,0,0,0,0,0,0,0,0,0,0,0,0,0,0,0,0,0,0,0,0,0,0,0,0,0,0,0,0,0,0, , , ,0,0, , ,ARMONIA,1210 REGIMIENTO CAZADORES,JARDIN INFANTIL
752, , , , , ,0, ,PROVIDENCIA,0,0,0,0,0,0,0,0,0,0,0,0,0,0,0,0,0,0,0,0,0,0,0,0,0,0,0,0,0,0,0,0,0,0,0,0,0,0,0,0,0,0,0, , , ,0,0, , ,CASTILLITO AZUL,2856 DR PEDRO LAUTARO FERRER,JARDIN INFANTIL
753, , , , , ,0, ,PENALOLEN,0,0,0,0,0,0,0,0,0,0,0,0,0,0,0,0,0,0,0,0,0,0,0,0,0,0,0,0,0,0,0,0,0,0,0,0,0,0,0,0,0,0,0, , , ,0,0, , ,INGLES CHOCOLATE HOUSE,8511 EL VALLE,JARDIN INFANTIL
754, , , , , ,0, ,PUDAHUEL,0,0,0,0,0,0,0,0,0,0,0,0,0,0,0,0,0,0,0,0,0,0,0,0,0,0,0,0,0,0,0,0,0,0,0,0,0,0,0,0,0,0,0, , , ,0,0, , ,TERESITA LTDA,455 SERRANO,JARDIN INFANTIL
755, , , , , ,0, ,PUDAHUEL,0,0,0,0,0,0,0,0,0,0,0,0,0,0,0,0,0,0,0,0,0,0,0,0,0,0,0,0,0,0,0,0,0,0,0,0,0,0,0,0,0,0,0, , , ,0,0, , ,VITAMINA,AEROPUERTO INTERNACIONAL PUDAHUEL,JARDIN INFANTIL
756, , , , , ,0, ,PUENTE ALTO,0,0,0,0,0,0,0,0,0,0,0,0,0,0,0,0,0,0,0,0,0,0,0,0,0,0,0,0,0,0,0,0,0,0,0,0,0,0,0,0,0,0,0, , , ,0,0, , ,RAYUN,6000 CERRO PUNTA NEGRA,JARDIN INFANTIL
757, , , , , ,0, ,PUENTE ALTO,0,0,0,0,0,0,0,0,0,0,0,0,0,0,0,0,0,0,0,0,0,0,0,0,0,0,0,0,0,0,0,0,0,0,0,0,0,0,0,0,0,0,0, , , ,0,0, , ,EL MUNDO DE LOS NINOS,1102 NEMESIO VICUNA,JARDIN INFANTIL
758, , , , , ,0, ,PROVIDENCIA,0,0,0,0,0,0,0,0,0,0,0,0,0,0,0,0,0,0,0,0,0,0,0,0,0,0,0,0,0,0,0,0,0,0,0,0,0,0,0,0,0,0,0, , , ,0,0, , ,MERCEDES ESQUERRA BRIZUELA  ACHS,73 JOFRE,JARDIN INFANTIL
759, , , , , ,0, ,PUENTE ALTO,0,0,0,0,0,0,0,0,0,0,0,0,0,0,0,0,0,0,0,0,0,0,0,0,0,0,0,0,0,0,0,0,0,0,0,0,0,0,0,0,0,0,0, , , ,0,0, , ,PANDITA,105 RIO CALLE CALLE,JARDIN INFANTIL
760, , , , , ,0, ,PUENTE ALTO,0,0,0,0,0,0,0,0,0,0,0,0,0,0,0,0,0,0,0,0,0,0,0,0,0,0,0,0,0,0,0,0,0,0,0,0,0,0,0,0,0,0,0, , , ,0,0, , ,PUEBLITO DEL ESTE,4404 CAMINO DEL AGUA,JARDIN INFANTIL
761, , , , , ,0, ,RECOLETA,0,0,0,0,0,0,0,0,0,0,0,0,0,0,0,0,0,0,0,0,0,0,0,0,0,0,0,0,0,0,0,0,0,0,0,0,0,0,0,0,0,0,0, , , ,0,0, , ,NAZARETH,1910 CINCO NORTE,JARDIN INFANTIL
762, , , , , ,0, ,SAN JOAQUIN,0,0,0,0,0,0,0,0,0,0,0,0,0,0,0,0,0,0,0,0,0,0,0,0,0,0,0,0,0,0,0,0,0,0,0,0,0,0,0,0,0,0,0, , , ,0,0, , ,CARRUSEL,298 JUAN SEBASTIAN BACH,JARDIN INFANTIL
763, , , , , ,0, ,SAN MIGUEL,0,0,0,0,0,0,0,0,0,0,0,0,0,0,0,0,0,0,0,0,0,0,0,0,0,0,0,0,0,0,0,0,0,0,0,0,0,0,0,0,0,0,0, , , ,0,0, , ,PLANETA CELESTE,1114 SEPTIMA AVENIDA,JARDIN INFANTIL
764, , , , , ,0, ,SAN MIGUEL,0,0,0,0,0,0,0,0,0,0,0,0,0,0,0,0,0,0,0,0,0,0,0,0,0,0,0,0,0,0,0,0,0,0,0,0,0,0,0,0,0,0,0, , , ,0,0, , ,MIS NINOS FELICES,1468 CUARTA AVENIDA,JARDIN INFANTIL
765, , , , , ,0, ,SAN MIGUEL,0,0,0,0,0,0,0,0,0,0,0,0,0,0,0,0,0,0,0,0,0,0,0,0,0,0,0,0,0,0,0,0,0,0,0,0,0,0,0,0,0,0,0, , , ,0,0, , ,MIS NINOS FELICES,1319 CUARTA AVENIDA,JARDIN INFANTIL
766, , , , , ,0, ,SANTIAGO,0,0,0,0,0,0,0,0,0,0,0,0,0,0,0,0,0,0,0,0,0,0,0,0,0,0,0,0,0,0,0,0,0,0,0,0,0,0,0,0,0,0,0, , , ,0,0, , ,SALA CUNA SUIZA,1428 PADRE FELIPE GOMEZ DE VIDAURRE,SALA CUNA
767, , , , , ,0, ,MAIPU,0,0,0,0,0,0,0,0,0,0,0,0,0,0,0,0,0,0,0,0,0,0,0,0,0,0,0,0,0,0,0,0,0,0,0,0,0,0,0,0,0,0,0, , , ,0,0, , ,EL DESPERTAR,1441 ASUNCION,JARDIN INFANTIL Y SALA CUNA
768, , , , , ,0, ,TALAGANTE,0,0,0,0,0,0,0,0,0,0,0,0,0,0,0,0,0,0,0,0,0,0,0,0,0,0,0,0,0,0,0,0,0,0,0,0,0,0,0,0,0,0,0, , , ,0,0, , ,EL PEQUENO PRINCIPE,1076 JUANA CANALES,JARDIN INFANTIL
769, , , , , ,0, ,TALAGANTE,0,0,0,0,0,0,0,0,0,0,0,0,0,0,0,0,0,0,0,0,0,0,0,0,0,0,0,0,0,0,0,0,0,0,0,0,0,0,0,0,0,0,0, , , ,0,0, , ,GIRASOL,1183 BALMACEDA,JARDIN INFANTIL
770, , , , , ,0, ,TALAGANTE,0,0,0,0,0,0,0,0,0,0,0,0,0,0,0,0,0,0,0,0,0,0,0,0,0,0,0,0,0,0,0,0,0,0,0,0,0,0,0,0,0,0,0, , , ,0,0, , ,ARCO IRIS,546 JOSE LEYAN,JARDIN INFANTIL
771, , , , , ,0, ,VITACURA,0,0,0,0,0,0,0,0,0,0,0,0,0,0,0,0,0,0,0,0,0,0,0,0,0,0,0,0,0,0,0,0,0,0,0,0,0,0,0,0,0,0,0, , , ,0,0, , ,CASCANUECES,1493 CHARLES DICKENS,JARDIN INFANTIL
772, , , , , ,0, ,VITACURA,0,0,0,0,0,0,0,0,0,0,0,0,0,0,0,0,0,0,0,0,0,0,0,0,0,0,0,0,0,0,0,0,0,0,0,0,0,0,0,0,0,0,0, , , ,0,0, , ,COSAS DE CHICOS,1370 MONTE OLIMPO,JARDIN INFANTIL
773, , , , , ,0, ,MACUL,0,0,0,0,0,0,0,0,0,0,0,0,0,0,0,0,0,0,0,0,0,0,0,0,0,0,0,0,0,0,0,0,0,0,0,0,0,0,0,0,0,0,0, , , ,0,0, , ,PERUCHO,2265 BROWN SUR,JARDIN INFANTIL
774, , , , , ,0, ,QUINTA NORMAL,0,0,0,0,0,0,0,0,0,0,0,0,0,0,0,0,0,0,0,0,0,0,0,0,0,0,0,0,0,0,0,0,0,0,0,0,0,0,0,0,0,0,0, , , ,0,0, , ,RENACER,6603 PSJE LOA,JARDIN INFANTIL Y SALA CUNA
775, , , , , ,0, ,SAN JOAQUIN,0,0,0,0,0,0,0,0,0,0,0,0,0,0,0,0,0,0,0,0,0,0,0,0,0,0,0,0,0,0,0,0,0,0,0,0,0,0,0,0,0,0,0, , , ,0,0, , ,LOS COPIHUES,352 ALVAREZ DE TOLEDO,JARDIN INFANTIL
776, , , , , ,0, ,TALAGANTE,0,0,0,0,0,0,0,0,0,0,0,0,0,0,0,0,0,0,0,0,0,0,0,0,0,0,0,0,0,0,0,0,0,0,0,0,0,0,0,0,0,0,0, , , ,0,0, , ,LAS PALMERAS,1187 ARTURO PRAT,JARDIN INFANTIL Y SALA CUNA
777, , , , , ,0, ,TALAGANTE,0,0,0,0,0,0,0,0,0,0,0,0,0,0,0,0,0,0,0,0,0,0,0,0,0,0,0,0,0,0,0,0,0,0,0,0,0,0,0,0,0,0,0, , , ,0,0, , ,LOS ENANITOS DE TALAGANTE,1065 JUANA CANALES,JARDIN INFANTIL
778, , , , , ,0, ,HUECHURABA,0,0,0,0,0,0,0,0,0,0,0,0,0,0,0,0,0,0,0,0,0,0,0,0,0,0,0,0,0,0,0,0,0,0,0,0,0,0,0,0,0,0,0, , , ,0,0, , ,EL ARCA,7130 STA MARTA,JARDIN INFANTIL Y SALA CUNA
779, , , , , ,0, ,LA FLORIDA,0,0,0,0,0,0,0,0,0,0,0,0,0,0,0,0,0,0,0,0,0,0,0,0,0,0,0,0,0,0,0,0,0,0,0,0,0,0,0,0,0,0,0, , , ,0,0, , ,BRITISH NURSERY SCHOOL,7905 PSJE VERACRUZ,JARDIN INFANTIL Y SALA CUNA
780, , , , , ,0, ,LA FLORIDA,0,0,0,0,0,0,0,0,0,0,0,0,0,0,0,0,0,0,0,0,0,0,0,0,0,0,0,0,0,0,0,0,0,0,0,0,0,0,0,0,0,0,0, , , ,0,0, , ,GUSANITO,9403 STA VIVIANA,JARDIN INFANTIL Y SALA CUNA
781, , , , , ,0, ,LA FLORIDA,0,0,0,0,0,0,0,0,0,0,0,0,0,0,0,0,0,0,0,0,0,0,0,0,0,0,0,0,0,0,0,0,0,0,0,0,0,0,0,0,0,0,0, , , ,0,0, , ,PEQUENOS INVENTORES,293 ROJAS MAGALLANES,JARDIN INFANTIL Y SALA CUNA
782, , , , , ,0, ,LA REINA,0,0,0,0,0,0,0,0,0,0,0,0,0,0,0,0,0,0,0,0,0,0,0,0,0,0,0,0,0,0,0,0,0,0,0,0,0,0,0,0,0,0,0, , , ,0,0, , ,KIDLAND,8729 HELSBY,JARDIN INFANTIL Y SALA CUNA
783, , , , , ,0, ,LA REINA,0,0,0,0,0,0,0,0,0,0,0,0,0,0,0,0,0,0,0,0,0,0,0,0,0,0,0,0,0,0,0,0,0,0,0,0,0,0,0,0,0,0,0, , , ,0,0, , ,RINCONCITO,435 PEPE VILA,JARDIN INFANTIL Y SALA CUNA
784, , , , , ,0, ,LA REINA,0,0,0,0,0,0,0,0,0,0,0,0,0,0,0,0,0,0,0,0,0,0,0,0,0,0,0,0,0,0,0,0,0,0,0,0,0,0,0,0,0,0,0, , , ,0,0, , ,SAN NICOLAS,7218 PRINCIPE DE GALES,JARDIN INFANTIL Y SALA CUNA
785, , , , , ,0, ,LAS CONDES,0,0,0,0,0,0,0,0,0,0,0,0,0,0,0,0,0,0,0,0,0,0,0,0,0,0,0,0,0,0,0,0,0,0,0,0,0,0,0,0,0,0,0, , , ,0,0, , ,ARBOLIRIS,4805 VASCO DE GAMA,JARDIN INFANTIL Y SALA CUNA
786, , , , , ,0, ,LAS CONDES,0,0,0,0,0,0,0,0,0,0,0,0,0,0,0,0,0,0,0,0,0,0,0,0,0,0,0,0,0,0,0,0,0,0,0,0,0,0,0,0,0,0,0, , , ,0,0, , ,ANTILEN 3,1098 AMERICO VESPUCIO SUR,JARDIN INFANTIL Y SALA CUNA
787, , , , , ,0, ,LAS CONDES,0,0,0,0,0,0,0,0,0,0,0,0,0,0,0,0,0,0,0,0,0,0,0,0,0,0,0,0,0,0,0,0,0,0,0,0,0,0,0,0,0,0,0, , , ,0,0, , ,AQUARELA,4810 JOSE DE MORALEDA,JARDIN INFANTIL Y SALA CUNA
788, , , , , ,0, ,LAS CONDES,0,0,0,0,0,0,0,0,0,0,0,0,0,0,0,0,0,0,0,0,0,0,0,0,0,0,0,0,0,0,0,0,0,0,0,0,0,0,0,0,0,0,0, , , ,0,0, , ,MAZAPAN,6419 LOS MILITARES,JARDIN INFANTIL Y SALA CUNA
789, , , , , ,0, ,LAS CONDES,0,0,0,0,0,0,0,0,0,0,0,0,0,0,0,0,0,0,0,0,0,0,0,0,0,0,0,0,0,0,0,0,0,0,0,0,0,0,0,0,0,0,0, , , ,0,0, , ,MONTESSORI LLANCATU,7531 CHESTERTON,JARDIN INFANTIL Y SALA CUNA
790, , , , , ,0, ,MAIPU,0,0,0,0,0,0,0,0,0,0,0,0,0,0,0,0,0,0,0,0,0,0,0,0,0,0,0,0,0,0,0,0,0,0,0,0,0,0,0,0,0,0,0, , , ,0,0, , ,ABEJITA ZUM ZUM,205 CENTENARIO,JARDIN INFANTIL Y SALA CUNA
791, , , , , ,0, ,NUNOA,0,0,0,0,0,0,0,0,0,0,0,0,0,0,0,0,0,0,0,0,0,0,0,0,0,0,0,0,0,0,0,0,0,0,0,0,0,0,0,0,0,0,0, , , ,0,0, , ,COMO TU,1685 LUIS BELTRAND,JARDIN INFANTIL Y SALA CUNA
792, , , , , ,0, ,NUNOA,0,0,0,0,0,0,0,0,0,0,0,0,0,0,0,0,0,0,0,0,0,0,0,0,0,0,0,0,0,0,0,0,0,0,0,0,0,0,0,0,0,0,0, , , ,0,0, , ,MACARENA 2,3724 SIMON BOLIVAR,JARDIN INFANTIL Y SALA CUNA
793, , , , , ,0, ,NUNOA,0,0,0,0,0,0,0,0,0,0,0,0,0,0,0,0,0,0,0,0,0,0,0,0,0,0,0,0,0,0,0,0,0,0,0,0,0,0,0,0,0,0,0, , , ,0,0, , ,MUNDO DE NINOS,1339 CIRUJANO VIDELA,JARDIN INFANTIL Y SALA CUNA
794, , , , , ,0, ,NUNOA,0,0,0,0,0,0,0,0,0,0,0,0,0,0,0,0,0,0,0,0,0,0,0,0,0,0,0,0,0,0,0,0,0,0,0,0,0,0,0,0,0,0,0, , , ,0,0, , ,NOVASOL,4777 PDTE JOSE BATTLE Y ORDONEZ,JARDIN INFANTIL Y SALA CUNA
795, , , , , ,0, ,NUNOA,0,0,0,0,0,0,0,0,0,0,0,0,0,0,0,0,0,0,0,0,0,0,0,0,0,0,0,0,0,0,0,0,0,0,0,0,0,0,0,0,0,0,0, , , ,0,0, , ,GASPARIN,2535 SIMON BOLIVAR,JARDIN INFANTIL Y SALA CUNA
796, , , , , ,0, ,PENALOLEN,0,0,0,0,0,0,0,0,0,0,0,0,0,0,0,0,0,0,0,0,0,0,0,0,0,0,0,0,0,0,0,0,0,0,0,0,0,0,0,0,0,0,0, , , ,0,0, , ,CHIMPY 2,6865 QUILIN,JARDIN INFANTIL Y SALA CUNA
797, , , , , ,0, ,PENALOLEN,0,0,0,0,0,0,0,0,0,0,0,0,0,0,0,0,0,0,0,0,0,0,0,0,0,0,0,0,0,0,0,0,0,0,0,0,0,0,0,0,0,0,0, , , ,0,0, , ,CHIMPY 3,7059 QUEB DE MACUL,JARDIN INFANTIL Y SALA CUNA
798, , , , , ,0, ,PROVIDENCIA,0,0,0,0,0,0,0,0,0,0,0,0,0,0,0,0,0,0,0,0,0,0,0,0,0,0,0,0,0,0,0,0,0,0,0,0,0,0,0,0,0,0,0, , , ,0,0, , ,EL INGENIO,2412 RICARDO LYON,JARDIN INFANTIL Y SALA CUNA
799, , , , , ,0, ,PROVIDENCIA,0,0,0,0,0,0,0,0,0,0,0,0,0,0,0,0,0,0,0,0,0,0,0,0,0,0,0,0,0,0,0,0,0,0,0,0,0,0,0,0,0,0,0, , , ,0,0, , ,LITTLE LIGHT,172 LA CONCEPCION,JARDIN INFANTIL Y SALA CUNA
800, , , , , ,0, ,PROVIDENCIA,0,0,0,0,0,0,0,0,0,0,0,0,0,0,0,0,0,0,0,0,0,0,0,0,0,0,0,0,0,0,0,0,0,0,0,0,0,0,0,0,0,0,0, , , ,0,0, , ,PLIN PLIN,1606 LAS AMAPOLAS,JARDIN INFANTIL Y SALA CUNA
801, , , , , ,0, ,PROVIDENCIA,0,0,0,0,0,0,0,0,0,0,0,0,0,0,0,0,0,0,0,0,0,0,0,0,0,0,0,0,0,0,0,0,0,0,0,0,0,0,0,0,0,0,0, , , ,0,0, , ,THE GARDEN COLLEGE,380 FRANCISCO BILBAO,JARDIN INFANTIL Y SALA CUNA
802, , , , , ,0, ,SAN MIGUEL,0,0,0,0,0,0,0,0,0,0,0,0,0,0,0,0,0,0,0,0,0,0,0,0,0,0,0,0,0,0,0,0,0,0,0,0,0,0,0,0,0,0,0, , , ,0,0, , ,CARRINGTON HIGH,1307 MAGDALENA VICUNA,JARDIN INFANTIL Y SALA CUNA
803, , , , , ,0, ,SAN MIGUEL,0,0,0,0,0,0,0,0,0,0,0,0,0,0,0,0,0,0,0,0,0,0,0,0,0,0,0,0,0,0,0,0,0,0,0,0,0,0,0,0,0,0,0, , , ,0,0, , ,CRECER CREANDO,5146 GAUSS,JARDIN INFANTIL Y SALA CUNA
804, , , , , ,0, ,SANTIAGO,0,0,0,0,0,0,0,0,0,0,0,0,0,0,0,0,0,0,0,0,0,0,0,0,0,0,0,0,0,0,0,0,0,0,0,0,0,0,0,0,0,0,0, , , ,0,0, , ,LOS MALULOS,1411 PEDRO LEON UGALDE,JARDIN INFANTIL Y SALA CUNA
805, , , , , ,0, ,SANTIAGO,0,0,0,0,0,0,0,0,0,0,0,0,0,0,0,0,0,0,0,0,0,0,0,0,0,0,0,0,0,0,0,0,0,0,0,0,0,0,0,0,0,0,0, , , ,0,0, , ,MANCHITAS DE COLORES,1983 LAS AMAPOLAS,JARDIN INFANTIL Y SALA CUNA
806, , , , , ,0, ,SANTIAGO,0,0,0,0,0,0,0,0,0,0,0,0,0,0,0,0,0,0,0,0,0,0,0,0,0,0,0,0,0,0,0,0,0,0,0,0,0,0,0,0,0,0,0, , , ,0,0, , ,NUEVOS AMIGOS,618 CLUB HIPICO,JARDIN INFANTIL Y SALA CUNA
807, , , , , ,0, ,SANTIAGO,0,0,0,0,0,0,0,0,0,0,0,0,0,0,0,0,0,0,0,0,0,0,0,0,0,0,0,0,0,0,0,0,0,0,0,0,0,0,0,0,0,0,0, , , ,0,0, , ,TIA SARITA,167 SAN IGNACIO DE LOYOLA,JARDIN INFANTIL Y SALA CUNA
808, , , , , ,0, ,CERRILLOS,0,0,0,0,0,0,0,0,0,0,0,0,0,0,0,0,0,0,0,0,0,0,0,0,0,0,0,0,0,0,0,0,0,0,0,0,0,0,0,0,0,0,0, , , ,0,0, , ,MONTESSORI AMIGUITOS WENUICAN,731 PDTE SALVADOR ALLENDE,JARDIN INFANTIL Y SALA CUNA
809, , , , , ,0, ,LA FLORIDA,0,0,0,0,0,0,0,0,0,0,0,0,0,0,0,0,0,0,0,0,0,0,0,0,0,0,0,0,0,0,0,0,0,0,0,0,0,0,0,0,0,0,0, , , ,0,0, , ,LA VARA DEL ALMENDRO,11577 PSJE NACIMIENTO,JARDIN INFANTIL Y SALA CUNA
810, , , , , ,0, ,CERRO NAVIA,0,0,0,0,0,0,0,0,0,0,0,0,0,0,0,0,0,0,0,0,0,0,0,0,0,0,0,0,0,0,0,0,0,0,0,0,0,0,0,0,0,0,0, , , ,0,0, , ,CENTRO DESARROLLO INFANTIL TEMPRANO,1616 LISBOA,SALA CUNA
811, , , , , ,0, ,LA FLORIDA,0,0,0,0,0,0,0,0,0,0,0,0,0,0,0,0,0,0,0,0,0,0,0,0,0,0,0,0,0,0,0,0,0,0,0,0,0,0,0,0,0,0,0, , , ,0,0, , ,CIDERELLA,1396 ESMERALDA,SALA CUNA
812, , , , , ,0, ,LA GRANJA,0,0,0,0,0,0,0,0,0,0,0,0,0,0,0,0,0,0,0,0,0,0,0,0,0,0,0,0,0,0,0,0,0,0,0,0,0,0,0,0,0,0,0, , , ,0,0, , ,SEMILLA,7790 CANETE,SALA CUNA
813, , , , , ,0, ,LA PINTANA,0,0,0,0,0,0,0,0,0,0,0,0,0,0,0,0,0,0,0,0,0,0,0,0,0,0,0,0,0,0,0,0,0,0,0,0,0,0,0,0,0,0,0, , , ,0,0, , ,CENTRO DESARROLLO INFANTIL TEMPRANO,567 LLICO,SALA CUNA
814, , , , , ,0, ,NUNOA,0,0,0,0,0,0,0,0,0,0,0,0,0,0,0,0,0,0,0,0,0,0,0,0,0,0,0,0,0,0,0,0,0,0,0,0,0,0,0,0,0,0,0, , , ,0,0, , ,HOGAR MISION DE MARIA,1316 BREMEN,SALA CUNA
815, , , , , ,0, ,PADRE HURTADO,0,0,0,0,0,0,0,0,0,0,0,0,0,0,0,0,0,0,0,0,0,0,0,0,0,0,0,0,0,0,0,0,0,0,0,0,0,0,0,0,0,0,0, , , ,0,0, , ,PADRE HURTADO,451 SAN GUILLERMO,SALA CUNA
816, , , , , ,0, ,PAINE,0,0,0,0,0,0,0,0,0,0,0,0,0,0,0,0,0,0,0,0,0,0,0,0,0,0,0,0,0,0,0,0,0,0,0,0,0,0,0,0,0,0,0, , , ,0,0, , ,PAULA JARAQUEMADA,570 CONCEPCION,SALA CUNA
817, , , , , ,0, ,PENALOLEN,0,0,0,0,0,0,0,0,0,0,0,0,0,0,0,0,0,0,0,0,0,0,0,0,0,0,0,0,0,0,0,0,0,0,0,0,0,0,0,0,0,0,0, , , ,0,0, , ,EL SEMBRADOR,4569 LOS CEREZOS,SALA CUNA
818, , , , , ,0, ,PENALOLEN,0,0,0,0,0,0,0,0,0,0,0,0,0,0,0,0,0,0,0,0,0,0,0,0,0,0,0,0,0,0,0,0,0,0,0,0,0,0,0,0,0,0,0, , , ,0,0, , ,CENTRO DESARROLLO INFANTIL TEMPRANO,1137 VALLE HERMOSO,SALA CUNA
819, , , , , ,0, ,PENALOLEN,0,0,0,0,0,0,0,0,0,0,0,0,0,0,0,0,0,0,0,0,0,0,0,0,0,0,0,0,0,0,0,0,0,0,0,0,0,0,0,0,0,0,0, , , ,0,0, , ,CRISTO JOVEN,2285 GRAL BAQUEDANO,SALA CUNA
820, , , , , ,0, ,PROVIDENCIA,0,0,0,0,0,0,0,0,0,0,0,0,0,0,0,0,0,0,0,0,0,0,0,0,0,0,0,0,0,0,0,0,0,0,0,0,0,0,0,0,0,0,0, , , ,0,0, , ,COPORACION GRADA,1437 LA SIERRA,SALA CUNA
821, , , , , ,0, ,PUDAHUEL,0,0,0,0,0,0,0,0,0,0,0,0,0,0,0,0,0,0,0,0,0,0,0,0,0,0,0,0,0,0,0,0,0,0,0,0,0,0,0,0,0,0,0, , , ,0,0, , ,CARACOL,876 SAN LUIS,SALA CUNA
822, , , , , ,0, ,PUENTE ALTO,0,0,0,0,0,0,0,0,0,0,0,0,0,0,0,0,0,0,0,0,0,0,0,0,0,0,0,0,0,0,0,0,0,0,0,0,0,0,0,0,0,0,0, , , ,0,0, , ,CEIA SAN JOSE,438 CONCHA Y TORO,SALA CUNA
823, , , , , ,0, ,QUINTA NORMAL,0,0,0,0,0,0,0,0,0,0,0,0,0,0,0,0,0,0,0,0,0,0,0,0,0,0,0,0,0,0,0,0,0,0,0,0,0,0,0,0,0,0,0, , , ,0,0, , ,AGUALUNA,1238 BUTAMALLIN,SALA CUNA
824, , , , , ,0, ,RECOLETA,0,0,0,0,0,0,0,0,0,0,0,0,0,0,0,0,0,0,0,0,0,0,0,0,0,0,0,0,0,0,0,0,0,0,0,0,0,0,0,0,0,0,0, , , ,0,0, , ,ARCOIRIS,1893 ESTUDIANTE NAVARRO,SALA CUNA
825, , , , , ,0, ,SAN JOAQUIN,0,0,0,0,0,0,0,0,0,0,0,0,0,0,0,0,0,0,0,0,0,0,0,0,0,0,0,0,0,0,0,0,0,0,0,0,0,0,0,0,0,0,0, , , ,0,0, , ,EL PINAR,213 CASTELAR NORTE,SALA CUNA
826, , , , , ,0, ,SAN JOAQUIN,0,0,0,0,0,0,0,0,0,0,0,0,0,0,0,0,0,0,0,0,0,0,0,0,0,0,0,0,0,0,0,0,0,0,0,0,0,0,0,0,0,0,0, , , ,0,0, , ,LEGUA EMERGENCIA,3461 SAN GREGORIO,SALA CUNA
827, , , , , ,0, ,SANTIAGO,0,0,0,0,0,0,0,0,0,0,0,0,0,0,0,0,0,0,0,0,0,0,0,0,0,0,0,0,0,0,0,0,0,0,0,0,0,0,0,0,0,0,0, , , ,0,0, , ,APOSTOL SANTIAGO,1445 TOCORNAL,SALA CUNA
828, , , , , ,0, ,SANTIAGO,0,0,0,0,0,0,0,0,0,0,0,0,0,0,0,0,0,0,0,0,0,0,0,0,0,0,0,0,0,0,0,0,0,0,0,0,0,0,0,0,0,0,0, , , ,0,0, , ,CENTRO DESARROLLO INFANTIL TEMPRANO,1323 COPIAPO,SALA CUNA
829, , , , , ,0, ,SANTIAGO,0,0,0,0,0,0,0,0,0,0,0,0,0,0,0,0,0,0,0,0,0,0,0,0,0,0,0,0,0,0,0,0,0,0,0,0,0,0,0,0,0,0,0, , , ,0,0, , ,ESCUELA JAPON,760 DIEZ DE JULIO,SALA CUNA
